Date,Time(cdt),Wind(mph),Vis.(mi.),Weather,Sky Cond.,AirTemp,Dwpt,6hourMaxTemp,6hourMinTemp,RelativeHumidity(%),WindChill(°F),HeatIndex(°F),altimeter(in),sea level(mb),1hrPrecip,3hrPrecip,6hrPrecip,dateOffset,retrievalDate,dateRel,dateTime
15.0,05:53,Calm,10.0,A Few Clouds,FEW200,72.0,67.0,,,84.0,,,30.19,1021.6,,,,0.0,2021-07-15 00:00:00,2021-07-15 00:00:00,2021-07-15 05:53:00
15.0,04:53,S 3,10.0,Fair,CLR,72.0,67.0,,,84.0,,,30.17,1021.0,,,,0.0,2021-07-15 00:00:00,2021-07-15 00:00:00,2021-07-15 04:53:00
15.0,03:53,S 3,10.0,Fair,CLR,73.0,67.0,,,81.0,,,30.17,1021.0,,,,0.0,2021-07-15 00:00:00,2021-07-15 00:00:00,2021-07-15 03:53:00
15.0,02:53,S 5,10.0,Fair,CLR,73.0,67.0,,,81.0,,,30.18,1021.2,,,,0.0,2021-07-15 00:00:00,2021-07-15 00:00:00,2021-07-15 02:53:00
15.0,01:53,S 5,10.0,A Few Clouds,FEW050,73.0,67.0,,,81.0,,,30.19,1021.5,,,,0.0,2021-07-15 00:00:00,2021-07-15 00:00:00,2021-07-15 01:53:00
15.0,00:53,S 3,10.0,Fair,CLR,74.0,67.0,87.0,74.0,79.0,,,30.19,1021.6,,,,0.0,2021-07-15 00:00:00,2021-07-15 00:00:00,2021-07-15 00:53:00
14.0,23:53,S 5,10.0,Fair,CLR,75.0,67.0,,,76.0,,,30.19,1021.5,,,,1.0,2021-07-15 00:00:00,2021-07-14 00:00:00,2021-07-14 23:53:00
14.0,22:53,S 6,10.0,Fair,CLR,77.0,67.0,,,71.0,,79.0,30.18,1021.2,,,,1.0,2021-07-15 00:00:00,2021-07-14 00:00:00,2021-07-14 22:53:00
14.0,21:53,S 5,10.0,A Few Clouds,FEW080,78.0,66.0,,,67.0,,80.0,30.18,1021.3,,,,1.0,2021-07-15 00:00:00,2021-07-14 00:00:00,2021-07-14 21:53:00
14.0,20:53,SW 3,10.0,Partly Cloudy,SCT080,81.0,66.0,,,61.0,,83.0,30.18,1021.2,,,,1.0,2021-07-15 00:00:00,2021-07-14 00:00:00,2021-07-14 20:53:00
14.0,19:53,SW 3,10.0,Partly Cloudy,FEW070 SCT250,84.0,64.0,,,51.0,,85.0,30.16,1020.6,,,,1.0,2021-07-15 00:00:00,2021-07-14 00:00:00,2021-07-14 19:53:00
14.0,18:53,SW 5,10.0,A Few Clouds,FEW065 FEW250,87.0,63.0,92.0,87.0,45.0,,88.0,30.16,1020.7,,,,1.0,2021-07-15 00:00:00,2021-07-14 00:00:00,2021-07-14 18:53:00
14.0,17:53,SW 3,10.0,A Few Clouds,FEW060 FEW250,89.0,63.0,,,42.0,,90.0,30.17,1020.8,,,,1.0,2021-07-15 00:00:00,2021-07-14 00:00:00,2021-07-14 17:53:00
14.0,16:53,SW 5,10.0,Partly Cloudy,FEW060 SCT250,88.0,61.0,,,40.0,,88.0,30.18,1021.1,,,,1.0,2021-07-15 00:00:00,2021-07-14 00:00:00,2021-07-14 16:53:00
14.0,15:53,Vrbl 3,10.0,Partly Cloudy,SCT060 SCT250,91.0,62.0,,,38.0,,91.0,30.19,1021.5,,,,1.0,2021-07-15 00:00:00,2021-07-14 00:00:00,2021-07-14 15:53:00
14.0,14:53,Vrbl 5,10.0,Partly Cloudy,SCT055 SCT250,92.0,62.0,,,37.0,,93.0,30.19,1021.6,,,,1.0,2021-07-15 00:00:00,2021-07-14 00:00:00,2021-07-14 14:53:00
14.0,13:53,Calm,10.0,Partly Cloudy,SCT060 SCT075,90.0,62.0,,,39.0,,90.0,30.21,1022.1,,,,1.0,2021-07-15 00:00:00,2021-07-14 00:00:00,2021-07-14 13:53:00
14.0,12:53,SW 3,10.0,Mostly Cloudy,SCT050TCU BKN075 BKN250,88.0,63.0,88.0,72.0,43.0,,89.0,30.24,1023.2,,,,1.0,2021-07-15 00:00:00,2021-07-14 00:00:00,2021-07-14 12:53:00
14.0,11:53,Vrbl 5,10.0,Mostly Cloudy,SCT032TCU BKN041 BKN070,86.0,68.0,,,55.0,,89.0,30.26,1024.0,,,,1.0,2021-07-15 00:00:00,2021-07-14 00:00:00,2021-07-14 11:53:00
14.0,10:53,Calm,10.0,Mostly Cloudy,SCT027 BKN035 BKN060 BKN250,83.0,69.0,,,63.0,,87.0,30.27,1024.2,,,,1.0,2021-07-15 00:00:00,2021-07-14 00:00:00,2021-07-14 10:53:00
14.0,09:53,Calm,10.0,Mostly Cloudy,BKN020 BKN250,81.0,70.0,,,69.0,,84.0,30.26,1024.0,,,,1.0,2021-07-15 00:00:00,2021-07-14 00:00:00,2021-07-14 09:53:00
14.0,08:53,Calm,10.0,Mostly Cloudy,BKN015,77.0,69.0,,,77.0,,79.0,30.25,1023.8,,,,1.0,2021-07-15 00:00:00,2021-07-14 00:00:00,2021-07-14 08:53:00
14.0,07:53,S 6,10.0,Partly Cloudy,SCT014,74.0,68.0,,,82.0,,,30.25,1023.7,,,,1.0,2021-07-15 00:00:00,2021-07-14 00:00:00,2021-07-14 07:53:00
14.0,06:53,SE 5,10.0,Partly Cloudy,SCT007 SCT250,72.0,68.0,73.0,70.0,87.0,,,30.24,1023.5,,,,1.0,2021-07-15 00:00:00,2021-07-14 00:00:00,2021-07-14 06:53:00
14.0,05:53,SE 5,10.0,Partly Cloudy,FEW055 SCT070 SCT250,70.0,67.0,,,90.0,,,30.24,1023.4,,,,1.0,2021-07-15 00:00:00,2021-07-14 00:00:00,2021-07-14 05:53:00
14.0,04:53,Calm,10.0,Partly Cloudy,FEW008 SCT070,71.0,67.0,,,87.0,,,30.23,1023.2,,,,1.0,2021-07-15 00:00:00,2021-07-14 00:00:00,2021-07-14 04:53:00
14.0,03:53,S 3,10.0,Mostly Cloudy,FEW008 BKN055 BKN070,71.0,67.0,,,87.0,,,30.23,1023.0,,,,1.0,2021-07-15 00:00:00,2021-07-14 00:00:00,2021-07-14 03:53:00
14.0,02:53,Calm,10.0,Mostly Cloudy,BKN070,71.0,67.0,,,87.0,,,30.22,1022.7,,,,1.0,2021-07-15 00:00:00,2021-07-14 00:00:00,2021-07-14 02:53:00
14.0,01:53,S 7,10.0,A Few Clouds,FEW070,72.0,67.0,,,84.0,,,30.22,1022.7,,,,1.0,2021-07-15 00:00:00,2021-07-14 00:00:00,2021-07-14 01:53:00
14.0,00:53,S 8,10.0,Fair,CLR,73.0,67.0,82.0,73.0,81.0,,,30.23,1022.9,,,,1.0,2021-07-15 00:00:00,2021-07-14 00:00:00,2021-07-14 00:53:00
13.0,23:53,S 6,10.0,Fair,CLR,74.0,68.0,,,82.0,,,30.22,1022.7,,,,2.0,2021-07-15 00:00:00,2021-07-13 00:00:00,2021-07-13 23:53:00
13.0,22:53,SW 6,10.0,Fair,CLR,74.0,68.0,,,82.0,,,30.22,1022.5,,,,2.0,2021-07-15 00:00:00,2021-07-13 00:00:00,2021-07-13 22:53:00
13.0,21:53,SW 5,10.0,Fair,CLR,75.0,68.0,,,79.0,,,30.2,1022.0,,,,2.0,2021-07-15 00:00:00,2021-07-13 00:00:00,2021-07-13 21:53:00
13.0,20:53,Calm,10.0,A Few Clouds,FEW100 FEW250,77.0,67.0,,,71.0,,79.0,30.18,1021.5,,,,2.0,2021-07-15 00:00:00,2021-07-13 00:00:00,2021-07-13 20:53:00
13.0,19:53,SW 3,10.0,Partly Cloudy,FEW030 FEW100 SCT250,79.0,67.0,,,67.0,,81.0,30.18,1021.2,,,,2.0,2021-07-15 00:00:00,2021-07-13 00:00:00,2021-07-13 19:53:00
13.0,18:53,SW 5,10.0,Mostly Cloudy,FEW029 SCT150 BKN250,82.0,68.0,84.0,78.0,63.0,,85.0,30.17,1020.8,,,,2.0,2021-07-15 00:00:00,2021-07-13 00:00:00,2021-07-13 18:53:00
13.0,17:53,SW 12,10.0,Mostly Cloudy,FEW028 SCT100 BKN250,81.0,68.0,,,65.0,,84.0,30.16,1020.6,,,,2.0,2021-07-15 00:00:00,2021-07-13 00:00:00,2021-07-13 17:53:00
13.0,16:53,S 7,10.0,Mostly Cloudy,FEW030 FEW060 SCT200 BKN250,81.0,68.0,,,65.0,,84.0,30.18,1021.2,,,,2.0,2021-07-15 00:00:00,2021-07-13 00:00:00,2021-07-13 16:53:00
13.0,15:53,SW 9 G 18,10.0,Mostly Cloudy,FEW030 SCT140 BKN250,83.0,67.0,,,59.0,,86.0,30.18,1021.1,,,,2.0,2021-07-15 00:00:00,2021-07-13 00:00:00,2021-07-13 15:53:00
13.0,14:53,S 12 G 23,10.0,Mostly Cloudy,FEW023 SCT090 BKN110 BKN250,81.0,70.0,,,69.0,,84.0,30.18,1021.2,,,,2.0,2021-07-15 00:00:00,2021-07-13 00:00:00,2021-07-13 14:53:00
13.0,13:53,S 16,10.0,Mostly Cloudy,SCT022 BKN031TCU BKN120 BKN250,82.0,69.0,,,65.0,,85.0,30.19,1021.6,,,,2.0,2021-07-15 00:00:00,2021-07-13 00:00:00,2021-07-13 13:53:00
13.0,12:53,S 14,10.0,Mostly Cloudy,FEW024 SCT040 BKN140 BKN250,79.0,68.0,81.0,74.0,69.0,,81.0,30.19,1021.8,,,0.02,2.0,2021-07-15 00:00:00,2021-07-13 00:00:00,2021-07-13 12:53:00
13.0,11:53,S 14,10.0,Mostly Cloudy,SCT023TCU BKN070 BKN090 BKN250,75.0,68.0,,,79.0,,,30.21,1022.4,0.01,,,2.0,2021-07-15 00:00:00,2021-07-13 00:00:00,2021-07-13 11:53:00
13.0,10:53,SW 15,10.0,Mostly Cloudy,BKN021TCU BKN029 BKN065,79.0,68.0,,,69.0,,81.0,30.2,1022.0,,,,2.0,2021-07-15 00:00:00,2021-07-13 00:00:00,2021-07-13 10:53:00
13.0,09:53,SW 13 G 22,10.0,Mostly Cloudy,BKN019TCU BKN027 BKN060,80.0,68.0,,,67.0,,83.0,30.2,1021.9,,0.01,,2.0,2021-07-15 00:00:00,2021-07-13 00:00:00,2021-07-13 09:53:00
13.0,08:53,S 12,10.0,Mostly Cloudy,BKN014TCU BKN022 BKN060,77.0,69.0,,,77.0,,79.0,30.19,1021.8,,,,2.0,2021-07-15 00:00:00,2021-07-13 00:00:00,2021-07-13 08:53:00
13.0,07:53,S 10,7.0,Light Rain,BKN013TCU BKN028 BKN040,75.0,69.0,,,82.0,,,30.19,1021.5,0.01,,,2.0,2021-07-15 00:00:00,2021-07-13 00:00:00,2021-07-13 07:53:00
13.0,06:53,S 12,10.0,Mostly Cloudy,BKN017TCU BKN028 BKN060,74.0,68.0,75.0,73.0,82.0,,,30.17,1021.0,,,,2.0,2021-07-15 00:00:00,2021-07-13 00:00:00,2021-07-13 06:53:00
13.0,05:53,S 8,10.0,Mostly Cloudy,SCT021 BKN049 BKN130,73.0,68.0,,,84.0,,,30.15,1020.3,,,,2.0,2021-07-15 00:00:00,2021-07-13 00:00:00,2021-07-13 05:53:00
13.0,04:53,S 9,10.0,Mostly Cloudy,FEW013 SCT027 BKN049,73.0,68.0,,,84.0,,,30.13,1019.6,,,,2.0,2021-07-15 00:00:00,2021-07-13 00:00:00,2021-07-13 04:53:00
13.0,03:53,S 13,10.0,Mostly Cloudy,SCT014 BKN055,74.0,68.0,,,82.0,,,30.12,1019.1,,,,2.0,2021-07-15 00:00:00,2021-07-13 00:00:00,2021-07-13 03:53:00
13.0,02:53,S 12,10.0,Overcast,OVC013,75.0,68.0,,,79.0,,,30.12,1019.1,,,,2.0,2021-07-15 00:00:00,2021-07-13 00:00:00,2021-07-13 02:53:00
13.0,01:53,S 9,10.0,Mostly Cloudy,BKN035,74.0,68.0,,,82.0,,,30.12,1019.4,,,,2.0,2021-07-15 00:00:00,2021-07-13 00:00:00,2021-07-13 01:53:00
13.0,00:53,S 10,10.0,Mostly Cloudy,FEW095 BKN120,75.0,68.0,82.0,74.0,79.0,,,30.12,1019.2,,,,2.0,2021-07-15 00:00:00,2021-07-13 00:00:00,2021-07-13 00:53:00
12.0,23:53,S 10,10.0,Mostly Cloudy,BKN013,75.0,68.0,,,79.0,,,30.12,1019.3,,,,3.0,2021-07-15 00:00:00,2021-07-12 00:00:00,2021-07-12 23:53:00
12.0,22:53,S 13,10.0,A Few Clouds,FEW120,75.0,68.0,,,79.0,,,30.12,1019.1,,,,3.0,2021-07-15 00:00:00,2021-07-12 00:00:00,2021-07-12 22:53:00
12.0,21:53,S 12,10.0,Mostly Cloudy,SCT030 BKN060 BKN110,78.0,70.0,,,76.0,,80.0,30.1,1018.6,,,,3.0,2021-07-15 00:00:00,2021-07-12 00:00:00,2021-07-12 21:53:00
12.0,20:53,S 5,10.0,Mostly Cloudy,FEW060 BKN150,78.0,69.0,,,74.0,,80.0,30.08,1018.1,,,,3.0,2021-07-15 00:00:00,2021-07-12 00:00:00,2021-07-12 20:53:00
12.0,19:53,S 10,10.0,Partly Cloudy,FEW040 SCT250,80.0,69.0,,,69.0,,83.0,30.06,1017.3,,,,3.0,2021-07-15 00:00:00,2021-07-12 00:00:00,2021-07-12 19:53:00
12.0,18:53,S 12 G 22,10.0,Partly Cloudy,FEW030 FEW065 SCT250,82.0,70.0,87.0,76.0,67.0,,86.0,30.05,1016.8,,,,3.0,2021-07-15 00:00:00,2021-07-12 00:00:00,2021-07-12 18:53:00
12.0,17:53,S 10,10.0,Mostly Cloudy,FEW040 SCT080 SCT180 BKN250,83.0,69.0,,,63.0,,87.0,30.04,1016.6,,,,3.0,2021-07-15 00:00:00,2021-07-12 00:00:00,2021-07-12 17:53:00
12.0,16:53,S 13,10.0,Mostly Cloudy,SCT075 BKN090 BKN250,84.0,69.0,,,61.0,,88.0,30.04,1016.4,,,,3.0,2021-07-15 00:00:00,2021-07-12 00:00:00,2021-07-12 16:53:00
12.0,15:53,S 18 G 25,10.0,Mostly Cloudy,SCT035TCU SCT043 BKN100 BKN250,83.0,68.0,,,61.0,,86.0,30.05,1016.7,,,,3.0,2021-07-15 00:00:00,2021-07-12 00:00:00,2021-07-12 15:53:00
12.0,14:53,S 15 G 24,10.0,Mostly Cloudy,FEW030 SCT048 BKN250,85.0,68.0,,,57.0,,88.0,30.05,1016.9,,,,3.0,2021-07-15 00:00:00,2021-07-12 00:00:00,2021-07-12 14:53:00
12.0,13:53,W 6,10.0,Mostly Cloudy,FEW022 BKN028 BKN036 BKN200 BKN250,81.0,71.0,,,72.0,,85.0,30.06,1017.3,,,,3.0,2021-07-15 00:00:00,2021-07-12 00:00:00,2021-07-12 13:53:00
12.0,12:53,S 14 G 23,10.0,Mostly Cloudy,BKN028 BKN048 BKN110 BKN250,82.0,68.0,83.0,74.0,63.0,,85.0,30.08,1017.9,,,,3.0,2021-07-15 00:00:00,2021-07-12 00:00:00,2021-07-12 12:53:00
12.0,11:53,S 17 G 26,10.0,Mostly Cloudy,SCT023 BKN043 BKN200 BKN250,81.0,68.0,,,65.0,,84.0,30.09,1018.2,,,,3.0,2021-07-15 00:00:00,2021-07-12 00:00:00,2021-07-12 11:53:00
12.0,10:53,S 16 G 26,10.0,Mostly Cloudy,SCT022 BKN043 BKN200 BKN250,81.0,68.0,,,65.0,,84.0,30.1,1018.5,,,,3.0,2021-07-15 00:00:00,2021-07-12 00:00:00,2021-07-12 10:53:00
12.0,09:53,S 16 G 23,10.0,Overcast,SCT017 BKN024 BKN034 BKN140 OVC250,79.0,69.0,,,72.0,,82.0,30.09,1018.3,,,,3.0,2021-07-15 00:00:00,2021-07-12 00:00:00,2021-07-12 09:53:00
12.0,08:53,S 12,10.0,Mostly Cloudy,SCT011 BKN018 BKN036 BKN140 BKN250,78.0,71.0,,,79.0,,80.0,30.09,1018.2,,,,3.0,2021-07-15 00:00:00,2021-07-12 00:00:00,2021-07-12 08:53:00
12.0,07:53,S 10,10.0,Mostly Cloudy,FEW017 SCT024 BKN050 BKN140 BKN250,76.0,71.0,,,85.0,,77.0,30.07,1017.6,,,,3.0,2021-07-15 00:00:00,2021-07-12 00:00:00,2021-07-12 07:53:00
12.0,06:53,S 8,10.0,Mostly Cloudy,SCT022 BKN031 BKN110 BKN250,74.0,69.0,74.0,73.0,85.0,,,30.05,1016.9,,,,3.0,2021-07-15 00:00:00,2021-07-12 00:00:00,2021-07-12 06:53:00
12.0,05:53,S 9,10.0,Mostly Cloudy,FEW025 SCT085 BKN100,73.0,69.0,,,87.0,,,30.03,1016.2,,,,2.0,2021-07-14 00:00:00,2021-07-12 00:00:00,2021-07-12 05:53:00
12.0,04:53,S 7,10.0,Overcast,FEW016 BKN050 OVC080,74.0,70.0,,,88.0,,,30.02,1016.0,,,,2.0,2021-07-14 00:00:00,2021-07-12 00:00:00,2021-07-12 04:53:00
12.0,03:53,SE 7,10.0,Overcast,BKN014 OVC070,74.0,70.0,,,88.0,,,30.02,1015.7,,,,2.0,2021-07-14 00:00:00,2021-07-12 00:00:00,2021-07-12 03:53:00
12.0,02:53,S 7,10.0,Overcast,OVC012,74.0,70.0,,,88.0,,,30.01,1015.6,,,,2.0,2021-07-14 00:00:00,2021-07-12 00:00:00,2021-07-12 02:53:00
12.0,01:53,S 9,10.0,Overcast,OVC011,74.0,69.0,,,85.0,,,30.0,1015.3,,,,2.0,2021-07-14 00:00:00,2021-07-12 00:00:00,2021-07-12 01:53:00
12.0,00:53,S 7,10.0,Partly Cloudy,SCT120,74.0,69.0,78.0,74.0,85.0,,,29.99,1015.0,,,,2.0,2021-07-14 00:00:00,2021-07-12 00:00:00,2021-07-12 00:53:00
11.0,23:53,S 7,10.0,Partly Cloudy,SCT120,74.0,70.0,,,88.0,,,29.99,1014.9,,,,3.0,2021-07-14 00:00:00,2021-07-11 00:00:00,2021-07-11 23:53:00
11.0,22:53,S 7,10.0,Mostly Cloudy,FEW011 BKN060,74.0,70.0,,,88.0,,,29.99,1014.8,,,,3.0,2021-07-14 00:00:00,2021-07-11 00:00:00,2021-07-11 22:53:00
11.0,21:53,S 9,10.0,Mostly Cloudy,FEW025 BKN120,75.0,70.0,,,84.0,,,29.97,1014.3,,,,3.0,2021-07-14 00:00:00,2021-07-11 00:00:00,2021-07-11 21:53:00
11.0,20:53,S 9,10.0,Mostly Cloudy,SCT025 BKN120 BKN250,76.0,70.0,,,82.0,,77.0,29.96,1014.0,,,,3.0,2021-07-14 00:00:00,2021-07-11 00:00:00,2021-07-11 20:53:00
11.0,19:53,S 9,10.0,Mostly Cloudy,FEW010 SCT080 BKN120,77.0,72.0,,,85.0,,78.0,29.95,1013.5,,,,3.0,2021-07-14 00:00:00,2021-07-11 00:00:00,2021-07-11 19:53:00
11.0,18:53,S 8,10.0,Mostly Cloudy,SCT023 BKN095 BKN120,78.0,72.0,83.0,74.0,82.0,,80.0,29.93,1012.9,,,0.04,3.0,2021-07-14 00:00:00,2021-07-11 00:00:00,2021-07-11 18:53:00
11.0,17:53,SE 6,10.0,Mostly Cloudy,SCT035 BKN080 BKN120,80.0,72.0,,,76.0,,84.0,29.92,1012.4,,,,3.0,2021-07-14 00:00:00,2021-07-11 00:00:00,2021-07-11 17:53:00
11.0,16:53,Vrbl 3,10.0,Mostly Cloudy,FEW019 SCT036 BKN080,82.0,72.0,,,72.0,,87.0,29.92,1012.4,,,,3.0,2021-07-14 00:00:00,2021-07-11 00:00:00,2021-07-11 16:53:00
11.0,15:53,Vrbl 5,10.0,Mostly Cloudy,SCT017 BKN023 BKN080 BKN250,81.0,72.0,,,74.0,,85.0,29.93,1012.6,,0.04,,3.0,2021-07-14 00:00:00,2021-07-11 00:00:00,2021-07-11 15:53:00
11.0,14:53,Calm,7.0,Light Rain,BKN014CB BKN019 OVC023,75.0,70.0,,,84.0,,,29.95,1013.5,0.03,,,3.0,2021-07-14 00:00:00,2021-07-11 00:00:00,2021-07-11 14:53:00
11.0,13:53,S 15 G 25,10.0,Overcast,BKN016 OVC024,77.0,69.0,,,77.0,,79.0,29.94,1013.3,0.01,,,3.0,2021-07-14 00:00:00,2021-07-11 00:00:00,2021-07-11 13:53:00
11.0,12:53,S 8,10.0,Overcast,BKN024 BKN031 OVC060,77.0,70.0,77.0,72.0,79.0,,79.0,29.97,1014.0,,,0.25,3.0,2021-07-14 00:00:00,2021-07-11 00:00:00,2021-07-11 12:53:00
11.0,11:53,S 9,10.0,Overcast,FEW035 BKN060 OVC100,76.0,69.0,,,79.0,,77.0,29.97,1014.3,,,,3.0,2021-07-14 00:00:00,2021-07-11 00:00:00,2021-07-11 11:53:00
11.0,10:53,S 12,10.0,Overcast,FEW016 BKN060 OVC080,75.0,69.0,,,82.0,,,29.96,1013.9,,,,3.0,2021-07-14 00:00:00,2021-07-11 00:00:00,2021-07-11 10:53:00
11.0,09:53,S 12,10.0,Overcast,BKN075 BKN130 OVC250,75.0,69.0,,,82.0,,,29.94,1013.3,,0.25,,3.0,2021-07-14 00:00:00,2021-07-11 00:00:00,2021-07-11 09:53:00
11.0,08:53,S 10,10.0,Overcast,FEW045 SCT070 BKN100 OVC250,73.0,68.0,,,84.0,,,29.95,1013.4,0.12,,,3.0,2021-07-14 00:00:00,2021-07-11 00:00:00,2021-07-11 08:53:00
11.0,07:53,SW 9 G 18,5.0,Light Rain Fog/Mist,FEW025 BKN055 OVC095,72.0,67.0,,,84.0,,,29.96,1013.7,0.13,,,3.0,2021-07-14 00:00:00,2021-07-11 00:00:00,2021-07-11 07:53:00
11.0,06:53,SW 12 G 22,3.0,Light Rain Fog/Mist,FEW011 BKN050 OVC095,75.0,71.0,78.0,75.0,88.0,,,29.92,1012.4,0.13,,0.27,3.0,2021-07-14 00:00:00,2021-07-11 00:00:00,2021-07-11 06:53:00
11.0,05:53,SW 8,3.0,Light Rain Fog/Mist,BKN015 BKN022 OVC029,75.0,71.0,,,88.0,,,29.9,1011.8,0.14,,,2.0,2021-07-13 00:00:00,2021-07-11 00:00:00,2021-07-11 05:53:00
11.0,04:53,S 14,10.0,Mostly Cloudy,BKN016,76.0,69.0,,,79.0,,77.0,29.88,1011.1,,,,2.0,2021-07-13 00:00:00,2021-07-11 00:00:00,2021-07-11 04:53:00
11.0,03:53,S 13,10.0,Partly Cloudy,SCT060 SCT090,76.0,69.0,,,79.0,,77.0,29.89,1011.3,,,,2.0,2021-07-13 00:00:00,2021-07-11 00:00:00,2021-07-11 03:53:00
11.0,02:53,S 16 G 25,10.0,Mostly Cloudy,BKN080 BKN095,77.0,69.0,,,77.0,,79.0,29.9,1011.8,,,,2.0,2021-07-13 00:00:00,2021-07-11 00:00:00,2021-07-11 02:53:00
11.0,01:53,S 16,10.0,Mostly Cloudy,SCT095 BKN110,77.0,69.0,,,77.0,,79.0,29.91,1012.1,,,,2.0,2021-07-13 00:00:00,2021-07-11 00:00:00,2021-07-11 01:53:00
11.0,00:53,S 14 G 26,10.0,Partly Cloudy,SCT120,78.0,69.0,84.0,78.0,74.0,,80.0,29.93,1012.6,,,,2.0,2021-07-13 00:00:00,2021-07-11 00:00:00,2021-07-11 00:53:00
10.0,23:53,S 9,10.0,Partly Cloudy,SCT060,78.0,69.0,,,74.0,,80.0,29.95,1013.4,,,,3.0,2021-07-13 00:00:00,2021-07-10 00:00:00,2021-07-10 23:53:00
10.0,22:53,S 10,10.0,Partly Cloudy,SCT060,79.0,69.0,,,72.0,,82.0,29.95,1013.5,,,,3.0,2021-07-13 00:00:00,2021-07-10 00:00:00,2021-07-10 22:53:00
10.0,21:53,S 8,10.0,Mostly Cloudy,SCT070 BKN250,80.0,68.0,,,67.0,,83.0,29.95,1013.5,,,,3.0,2021-07-13 00:00:00,2021-07-10 00:00:00,2021-07-10 21:53:00
10.0,20:53,S 12,10.0,Mostly Cloudy,SCT075 BKN250,80.0,68.0,,,67.0,,83.0,29.95,1013.6,,,,3.0,2021-07-13 00:00:00,2021-07-10 00:00:00,2021-07-10 20:53:00
10.0,19:53,SW 8 G 17,10.0,Mostly Cloudy,SCT120 BKN250,81.0,68.0,,,65.0,,84.0,29.95,1013.4,,,,3.0,2021-07-13 00:00:00,2021-07-10 00:00:00,2021-07-10 19:53:00
10.0,18:53,SW 13 G 21,10.0,Mostly Cloudy,SCT050 BKN120 BKN250,84.0,68.0,91.0,84.0,59.0,,87.0,29.94,1013.1,,,,3.0,2021-07-13 00:00:00,2021-07-10 00:00:00,2021-07-10 18:53:00
10.0,17:53,SW 10 G 20,10.0,Mostly Cloudy,SCT050 BKN120,86.0,69.0,,,57.0,,90.0,29.94,1013.0,,,,3.0,2021-07-13 00:00:00,2021-07-10 00:00:00,2021-07-10 17:53:00
10.0,16:53,SW 13 G 21,10.0,Mostly Cloudy,SCT048 BKN120,88.0,68.0,,,52.0,,92.0,29.94,1013.1,,,,3.0,2021-07-13 00:00:00,2021-07-10 00:00:00,2021-07-10 16:53:00
10.0,15:53,SW 9 G 24,10.0,Mostly Cloudy,SCT045 BKN060 BKN120,90.0,68.0,,,48.0,,94.0,29.95,1013.5,,,,3.0,2021-07-13 00:00:00,2021-07-10 00:00:00,2021-07-10 15:53:00
10.0,14:53,SW 9,10.0,Mostly Cloudy,FEW042 BKN050 BKN060 BKN250,87.0,69.0,,,55.0,,91.0,29.98,1014.4,,,,3.0,2021-07-13 00:00:00,2021-07-10 00:00:00,2021-07-10 14:53:00
10.0,13:53,SW 12,10.0,Mostly Cloudy,SCT036 BKN047 BKN250,88.0,69.0,,,54.0,,93.0,30.0,1015.2,,,,3.0,2021-07-13 00:00:00,2021-07-10 00:00:00,2021-07-10 13:53:00
10.0,12:53,SW 8,10.0,Mostly Cloudy,BKN037 BKN250,87.0,69.0,88.0,77.0,55.0,,91.0,30.02,1015.8,,,,3.0,2021-07-13 00:00:00,2021-07-10 00:00:00,2021-07-10 12:53:00
10.0,11:53,W 13 G 20,10.0,Mostly Cloudy,SCT031 BKN200 BKN250,86.0,70.0,,,59.0,,91.0,30.03,1016.1,,,,3.0,2021-07-13 00:00:00,2021-07-10 00:00:00,2021-07-10 11:53:00
10.0,10:53,S 10 G 22,10.0,Mostly Cloudy,FEW023 SCT075 SCT200 BKN250,84.0,70.0,,,63.0,,88.0,30.03,1016.2,,,,3.0,2021-07-13 00:00:00,2021-07-10 00:00:00,2021-07-10 10:53:00
10.0,09:53,W 8,10.0,Mostly Cloudy,FEW017 SCT022 SCT046 BKN250,82.0,71.0,,,69.0,,86.0,30.05,1016.9,,,,3.0,2021-07-13 00:00:00,2021-07-10 00:00:00,2021-07-10 09:53:00
10.0,08:53,W 12,10.0,Overcast,BKN021 OVC046,80.0,69.0,,,69.0,,83.0,30.09,1018.0,,,,3.0,2021-07-13 00:00:00,2021-07-10 00:00:00,2021-07-10 08:53:00
10.0,07:53,SW 6,10.0,Mostly Cloudy,BKN050 BKN070 BKN250,79.0,70.0,,,74.0,,82.0,30.08,1017.7,,,,3.0,2021-07-13 00:00:00,2021-07-10 00:00:00,2021-07-10 07:53:00
10.0,06:53,SW 7,10.0,Mostly Cloudy,BKN045 BKN250,77.0,71.0,77.0,73.0,82.0,,79.0,30.06,1017.1,,,,3.0,2021-07-13 00:00:00,2021-07-10 00:00:00,2021-07-10 06:53:00
10.0,05:53,S 5,8.0,Mostly Cloudy,FEW043 BKN250,74.0,70.0,,,88.0,,,30.04,1016.3,,,,2.0,2021-07-12 00:00:00,2021-07-10 00:00:00,2021-07-10 05:53:00
10.0,04:53,S 6,10.0,Mostly Cloudy,SCT043 BKN050,74.0,70.0,,,88.0,,,30.03,1016.3,,,,2.0,2021-07-12 00:00:00,2021-07-10 00:00:00,2021-07-10 04:53:00
10.0,03:53,S 3,10.0,A Few Clouds,FEW055,74.0,70.0,,,88.0,,,30.03,1016.2,,,,2.0,2021-07-12 00:00:00,2021-07-10 00:00:00,2021-07-10 03:53:00
10.0,02:53,Calm,10.0,Partly Cloudy,SCT250,74.0,71.0,,,91.0,,,30.05,1016.7,,,,2.0,2021-07-12 00:00:00,2021-07-10 00:00:00,2021-07-10 02:53:00
10.0,01:53,SW 5,10.0,Mostly Cloudy,BKN250,75.0,70.0,,,84.0,,,30.06,1017.2,,,,2.0,2021-07-12 00:00:00,2021-07-10 00:00:00,2021-07-10 01:53:00
10.0,00:53,SW 3,10.0,Fair,CLR,76.0,70.0,82.0,75.0,82.0,,77.0,30.06,1017.2,,,,2.0,2021-07-12 00:00:00,2021-07-10 00:00:00,2021-07-10 00:53:00
9.0,23:53,Calm,10.0,A Few Clouds,FEW022 FEW250,76.0,71.0,,,85.0,,77.0,30.07,1017.6,,,,3.0,2021-07-12 00:00:00,2021-07-09 00:00:00,2021-07-09 23:53:00
9.0,22:53,S 5,10.0,Partly Cloudy,SCT250,76.0,71.0,,,85.0,,77.0,30.07,1017.5,,,,3.0,2021-07-12 00:00:00,2021-07-09 00:00:00,2021-07-09 22:53:00
9.0,21:53,SW 3,10.0,A Few Clouds,FEW250,78.0,70.0,,,76.0,,80.0,30.07,1017.4,,,,3.0,2021-07-12 00:00:00,2021-07-09 00:00:00,2021-07-09 21:53:00
9.0,20:53,Calm,10.0,Mostly Cloudy,FEW070 BKN250,79.0,69.0,,,72.0,,82.0,30.07,1017.5,,,,3.0,2021-07-12 00:00:00,2021-07-09 00:00:00,2021-07-09 20:53:00
9.0,19:53,W 6,10.0,Mostly Cloudy,FEW070 BKN250,80.0,69.0,,,69.0,,83.0,30.07,1017.6,,,,3.0,2021-07-12 00:00:00,2021-07-09 00:00:00,2021-07-09 19:53:00
9.0,18:53,SW 7,10.0,Mostly Cloudy,BKN120 BKN250,82.0,70.0,93.0,78.0,67.0,,86.0,30.06,1017.1,,,,3.0,2021-07-12 00:00:00,2021-07-09 00:00:00,2021-07-09 18:53:00
9.0,17:53,SW 7,10.0,Mostly Cloudy,FEW060 BKN250,83.0,71.0,,,67.0,,88.0,30.03,1016.2,,,,3.0,2021-07-12 00:00:00,2021-07-09 00:00:00,2021-07-09 17:53:00
9.0,16:53,S 8,10.0,Mostly Cloudy,BKN070 BKN250,82.0,71.0,,,69.0,,86.0,30.04,1016.4,,,,3.0,2021-07-12 00:00:00,2021-07-09 00:00:00,2021-07-09 16:53:00
9.0,15:53,S 18 G 25,10.0,Mostly Cloudy,SCT049 BKN060 BKN080,83.0,71.0,,,67.0,,88.0,30.04,1016.3,,,,3.0,2021-07-12 00:00:00,2021-07-09 00:00:00,2021-07-09 15:53:00
9.0,14:53,NE 7,10.0,Mostly Cloudy,BKN046 BKN075 BKN250,90.0,68.0,,,48.0,,94.0,30.04,1016.5,,,,3.0,2021-07-12 00:00:00,2021-07-09 00:00:00,2021-07-09 14:53:00
9.0,13:53,NE 8,10.0,Mostly Cloudy,BKN043TCU BKN070 BKN250,91.0,69.0,,,49.0,,96.0,30.06,1016.9,,,,3.0,2021-07-12 00:00:00,2021-07-09 00:00:00,2021-07-09 13:53:00
9.0,12:53,N 5,10.0,Partly Cloudy,FEW032TCU SCT045 SCT250,90.0,70.0,90.0,75.0,52.0,,96.0,30.07,1017.3,,,,3.0,2021-07-12 00:00:00,2021-07-09 00:00:00,2021-07-09 12:53:00
9.0,11:53,Vrbl 5,10.0,Mostly Cloudy,SCT027 BKN040TCU BKN250,86.0,71.0,,,61.0,,91.0,30.09,1018.1,,,,3.0,2021-07-12 00:00:00,2021-07-09 00:00:00,2021-07-09 11:53:00
9.0,10:53,NW 7,10.0,Partly Cloudy,SCT021 SCT250,86.0,73.0,,,65.0,,93.0,30.07,1017.6,,,,3.0,2021-07-12 00:00:00,2021-07-09 00:00:00,2021-07-09 10:53:00
9.0,09:53,Vrbl 3,10.0,Mostly Cloudy,BKN016 BKN250,82.0,71.0,,,69.0,,86.0,30.08,1017.7,,,,3.0,2021-07-12 00:00:00,2021-07-09 00:00:00,2021-07-09 09:53:00
9.0,08:53,NW 8,10.0,Mostly Cloudy,BKN015 BKN250,80.0,71.0,,,74.0,,83.0,30.06,1017.1,,,,3.0,2021-07-12 00:00:00,2021-07-09 00:00:00,2021-07-09 08:53:00
9.0,07:53,Calm,10.0,Mostly Cloudy,SCT023 BKN037 BKN085 BKN250,78.0,70.0,,,76.0,,80.0,30.06,1017.0,,,,3.0,2021-07-12 00:00:00,2021-07-09 00:00:00,2021-07-09 07:53:00
9.0,06:53,SW 3,10.0,Mostly Cloudy,FEW023 SCT085 BKN250,75.0,69.0,78.0,73.0,82.0,,,30.04,1016.6,,,,3.0,2021-07-12 00:00:00,2021-07-09 00:00:00,2021-07-09 06:53:00
9.0,05:53,W 3,10.0,Overcast,BKN024 BKN035 OVC045,75.0,69.0,,,82.0,,,30.02,1015.7,,,,2.0,2021-07-11 00:00:00,2021-07-09 00:00:00,2021-07-09 05:53:00
9.0,04:53,Vrbl 3,10.0,Thunderstorm,FEW021CB BKN036 OVC200,76.0,68.0,,,77.0,,77.0,30.01,1015.3,,,,2.0,2021-07-11 00:00:00,2021-07-09 00:00:00,2021-07-09 04:53:00
9.0,03:53,SW 3,10.0,Mostly Cloudy,SCT050 BKN120,76.0,67.0,,,74.0,,77.0,29.99,1014.8,,,,2.0,2021-07-11 00:00:00,2021-07-09 00:00:00,2021-07-09 03:53:00
9.0,02:53,W 7,10.0,Mostly Cloudy,BKN110,74.0,67.0,,,79.0,,,30.0,1015.0,,,,2.0,2021-07-11 00:00:00,2021-07-09 00:00:00,2021-07-09 02:53:00
9.0,01:53,SW 8 G 21,10.0,Mostly Cloudy,BKN090,78.0,68.0,,,71.0,,80.0,30.01,1015.5,,,,2.0,2021-07-11 00:00:00,2021-07-09 00:00:00,2021-07-09 01:53:00
9.0,00:53,SW 9 G 18,10.0,A Few Clouds,FEW070,78.0,69.0,87.0,77.0,74.0,,80.0,30.0,1015.1,,,,2.0,2021-07-11 00:00:00,2021-07-09 00:00:00,2021-07-09 00:53:00
8.0,23:53,SW 12,10.0,Partly Cloudy,SCT065,77.0,68.0,,,74.0,,79.0,30.0,1015.2,,,,3.0,2021-07-11 00:00:00,2021-07-08 00:00:00,2021-07-08 23:53:00
8.0,22:53,SW 9,10.0,Fair,CLR,78.0,70.0,,,76.0,,80.0,29.99,1014.7,,,,3.0,2021-07-11 00:00:00,2021-07-08 00:00:00,2021-07-08 22:53:00
8.0,21:53,S 5,10.0,Partly Cloudy,FEW050 SCT060,78.0,72.0,,,82.0,,80.0,29.99,1014.6,,,,3.0,2021-07-11 00:00:00,2021-07-08 00:00:00,2021-07-08 21:53:00
8.0,20:53,S 8,10.0,Mostly Cloudy,FEW043 SCT060 SCT140 BKN250,78.0,72.0,,,82.0,,80.0,29.99,1014.7,,,,3.0,2021-07-11 00:00:00,2021-07-08 00:00:00,2021-07-08 20:53:00
8.0,19:53,SW 7,10.0,Mostly Cloudy,FEW022TCU SCT042 BKN080 BKN250,83.0,70.0,,,65.0,,87.0,29.95,1013.7,,,,3.0,2021-07-11 00:00:00,2021-07-08 00:00:00,2021-07-08 19:53:00
8.0,18:53,SW 8,10.0,Partly Cloudy,FEW040TCU SCT080 SCT250,87.0,68.0,91.0,84.0,53.0,,90.0,29.94,1013.0,,,,3.0,2021-07-11 00:00:00,2021-07-08 00:00:00,2021-07-08 18:53:00
8.0,17:53,W 8,10.0,Partly Cloudy,FEW050 SCT060 SCT250,89.0,67.0,,,48.0,,92.0,29.93,1012.6,,,,3.0,2021-07-11 00:00:00,2021-07-08 00:00:00,2021-07-08 17:53:00
8.0,16:53,SW 8,10.0,Partly Cloudy,FEW050 SCT060 SCT250,90.0,66.0,,,45.0,,92.0,29.93,1012.7,,,,3.0,2021-07-11 00:00:00,2021-07-08 00:00:00,2021-07-08 16:53:00
8.0,15:53,SW 7,10.0,Partly Cloudy,SCT046,89.0,67.0,,,48.0,,92.0,29.93,1012.8,,,,3.0,2021-07-11 00:00:00,2021-07-08 00:00:00,2021-07-08 15:53:00
8.0,14:53,SW 7,10.0,Mostly Cloudy,SCT044TCU BKN050,87.0,68.0,,,53.0,,90.0,29.95,1013.4,,,,3.0,2021-07-11 00:00:00,2021-07-08 00:00:00,2021-07-08 14:53:00
8.0,13:53,SW 9,10.0,Mostly Cloudy,SCT036TCU BKN065,87.0,69.0,,,55.0,,91.0,29.96,1013.8,,,,3.0,2021-07-11 00:00:00,2021-07-08 00:00:00,2021-07-08 13:53:00
8.0,12:53,Calm,10.0,Mostly Cloudy,SCT028TCU BKN043 BKN055,86.0,70.0,87.0,73.0,59.0,,91.0,29.98,1014.3,,,,3.0,2021-07-11 00:00:00,2021-07-08 00:00:00,2021-07-08 12:53:00
8.0,11:53,Vrbl 3,10.0,Mostly Cloudy,SCT023TCU BKN029 BKN055,84.0,71.0,,,65.0,,89.0,29.99,1014.7,,,,3.0,2021-07-11 00:00:00,2021-07-08 00:00:00,2021-07-08 11:53:00
8.0,10:53,W 8,10.0,Mostly Cloudy,SCT019 BKN026 BKN040,81.0,70.0,,,69.0,,84.0,29.99,1014.8,,,,3.0,2021-07-11 00:00:00,2021-07-08 00:00:00,2021-07-08 10:53:00
8.0,09:53,Vrbl 5,10.0,Mostly Cloudy,BKN013 BKN040 BKN250,79.0,70.0,,,74.0,,82.0,29.99,1014.7,,,,3.0,2021-07-11 00:00:00,2021-07-08 00:00:00,2021-07-08 09:53:00
8.0,08:53,Vrbl 5,10.0,Mostly Cloudy,BKN011 BKN037 BKN050,75.0,70.0,,,84.0,,,29.98,1014.6,,,,3.0,2021-07-11 00:00:00,2021-07-08 00:00:00,2021-07-08 08:53:00
8.0,07:53,SW 3,10.0,Overcast,BKN011 BKN037 OVC050,73.0,70.0,,,90.0,,,29.98,1014.4,,,,3.0,2021-07-11 00:00:00,2021-07-08 00:00:00,2021-07-08 07:53:00
8.0,06:53,SW 6,10.0,Mostly Cloudy,FEW008 BKN032 BKN050 BKN250,73.0,70.0,73.0,72.0,90.0,,,29.95,1013.6,,,,3.0,2021-07-11 00:00:00,2021-07-08 00:00:00,2021-07-08 06:53:00
8.0,05:53,S 3,10.0,Mostly Cloudy,BKN031 BKN050 BKN090,72.0,69.0,,,91.0,,,29.95,1013.5,,,,3.0,2021-07-11 00:00:00,2021-07-08 00:00:00,2021-07-08 05:53:00
8.0,04:53,Calm,10.0,Mostly Cloudy,FEW020 BKN031,72.0,69.0,,,91.0,,,29.94,1013.3,,,,2.0,2021-07-10 00:00:00,2021-07-08 00:00:00,2021-07-08 04:53:00
8.0,03:53,Calm,10.0,Partly Cloudy,FEW032 SCT075 SCT160,72.0,69.0,,,91.0,,,29.93,1013.0,,,,2.0,2021-07-10 00:00:00,2021-07-08 00:00:00,2021-07-08 03:53:00
8.0,02:53,S 3,10.0,Mostly Cloudy,FEW040 SCT075 BKN160,72.0,69.0,,,91.0,,,29.93,1013.0,,,,2.0,2021-07-10 00:00:00,2021-07-08 00:00:00,2021-07-08 02:53:00
8.0,01:53,S 5,10.0,Mostly Cloudy,SCT038 BKN065,73.0,70.0,,,90.0,,,29.95,1013.5,,,,2.0,2021-07-10 00:00:00,2021-07-08 00:00:00,2021-07-08 01:53:00
8.0,00:53,Calm,10.0,Mostly Cloudy,FEW070 BKN085 BKN220,73.0,69.0,76.0,73.0,87.0,,,29.96,1013.7,,,,2.0,2021-07-10 00:00:00,2021-07-08 00:00:00,2021-07-08 00:53:00
7.0,23:53,Calm,10.0,Mostly Cloudy,FEW070 BKN085 BKN220,73.0,70.0,,,90.0,,,29.96,1013.8,,,,3.0,2021-07-10 00:00:00,2021-07-07 00:00:00,2021-07-07 23:53:00
7.0,22:53,S 6,10.0,Mostly Cloudy,BKN065,74.0,69.0,,,85.0,,,29.97,1014.0,,,,3.0,2021-07-10 00:00:00,2021-07-07 00:00:00,2021-07-07 22:53:00
7.0,21:53,SE 7,10.0,Mostly Cloudy,BKN065 BKN090,74.0,69.0,,,85.0,,,29.97,1014.2,,,,3.0,2021-07-10 00:00:00,2021-07-07 00:00:00,2021-07-07 21:53:00
7.0,20:53,SE 5,10.0,Mostly Cloudy,BKN070 BKN120,74.0,70.0,,,88.0,,,29.97,1014.0,,,,3.0,2021-07-10 00:00:00,2021-07-07 00:00:00,2021-07-07 20:53:00
7.0,19:53,S 8,10.0,Mostly Cloudy,BKN021 BKN095 BKN250,75.0,70.0,,,84.0,,,29.96,1014.0,,,,3.0,2021-07-10 00:00:00,2021-07-07 00:00:00,2021-07-07 19:53:00
7.0,18:53,S 7,10.0,Mostly Cloudy,FEW017 SCT140 BKN250,76.0,70.0,81.0,73.0,82.0,,77.0,29.96,1013.8,,,0.6,3.0,2021-07-10 00:00:00,2021-07-07 00:00:00,2021-07-07 18:53:00
7.0,17:53,S 9,10.0,Mostly Cloudy,SCT055 BKN075 BKN100,76.0,71.0,,,85.0,,77.0,29.96,1014.0,0.1,,,3.0,2021-07-10 00:00:00,2021-07-07 00:00:00,2021-07-07 17:53:00
7.0,16:53,S 7,1.5,Rain Fog/Mist,OVC042,74.0,71.0,,,91.0,,,29.99,1014.8,0.39,,,3.0,2021-07-10 00:00:00,2021-07-07 00:00:00,2021-07-07 16:53:00
7.0,15:53,S 15 G 25,1.5,Heavy Rain Fog/Mist,SCT010 BKN024 OVC035,73.0,70.0,,,90.0,,,30.0,1015.2,0.1,0.11,,3.0,2021-07-10 00:00:00,2021-07-07 00:00:00,2021-07-07 15:53:00
7.0,14:53,S 13,7.0,Light Rain,SCT028 BKN037 BKN065 BKN130,76.0,72.0,,,88.0,,76.0,30.0,1015.2,0.01,,,3.0,2021-07-10 00:00:00,2021-07-07 00:00:00,2021-07-07 14:53:00
7.0,13:53,S 15 G 24,9.0,Light Rain,BKN012 BKN026 BKN065,76.0,70.0,,,82.0,,77.0,30.01,1015.6,,,,3.0,2021-07-10 00:00:00,2021-07-07 00:00:00,2021-07-07 13:53:00
7.0,12:53,S 15,10.0,Mostly Cloudy,SCT028TCU BKN038 BKN070 BKN250,81.0,68.0,85.0,75.0,65.0,,84.0,30.02,1015.8,,,,3.0,2021-07-10 00:00:00,2021-07-07 00:00:00,2021-07-07 12:53:00
7.0,11:53,SE 7,10.0,Mostly Cloudy,SCT028TCU BKN065 BKN090 BKN250,83.0,67.0,,,59.0,,86.0,30.02,1015.8,,,,3.0,2021-07-10 00:00:00,2021-07-07 00:00:00,2021-07-07 11:53:00
7.0,10:53,S 8,10.0,Mostly Cloudy,BKN030TCU BKN060 BKN080,82.0,68.0,,,63.0,,85.0,30.04,1016.5,,,,3.0,2021-07-10 00:00:00,2021-07-07 00:00:00,2021-07-07 10:53:00
7.0,09:53,S 7,10.0,Mostly Cloudy,SCT035 SCT050 BKN140 BKN250,81.0,67.0,,,62.0,,83.0,30.05,1016.6,,,,3.0,2021-07-10 00:00:00,2021-07-07 00:00:00,2021-07-07 09:53:00
7.0,08:53,S 7,10.0,Mostly Cloudy,SCT035 SCT044 BKN140 BKN250,79.0,67.0,,,67.0,,81.0,30.05,1017.0,,,,3.0,2021-07-10 00:00:00,2021-07-07 00:00:00,2021-07-07 08:53:00
7.0,07:53,S 7,10.0,Mostly Cloudy,FEW035 SCT050 SCT130 BKN250,77.0,67.0,,,71.0,,79.0,30.06,1017.2,,,,3.0,2021-07-10 00:00:00,2021-07-07 00:00:00,2021-07-07 07:53:00
7.0,06:53,S 7,10.0,Overcast,BKN120 BKN200 OVC250,75.0,66.0,77.0,74.0,74.0,,,30.06,1017.0,,,,3.0,2021-07-10 00:00:00,2021-07-07 00:00:00,2021-07-07 06:53:00
7.0,05:53,S 8,10.0,Mostly Cloudy,FEW090 SCT110 SCT140 BKN250,74.0,66.0,,,76.0,,,30.05,1016.8,,,,2.0,2021-07-09 00:00:00,2021-07-07 00:00:00,2021-07-07 05:53:00
7.0,04:53,S 7,10.0,Mostly Cloudy,SCT110 BKN140,74.0,67.0,,,79.0,,,30.04,1016.3,,,,2.0,2021-07-09 00:00:00,2021-07-07 00:00:00,2021-07-07 04:53:00
7.0,03:53,Calm,10.0,Mostly Cloudy,BKN110,76.0,67.0,,,74.0,,77.0,30.04,1016.2,,,,2.0,2021-07-09 00:00:00,2021-07-07 00:00:00,2021-07-07 03:53:00
7.0,02:53,Calm,10.0,Mostly Cloudy,BKN120,76.0,67.0,,,74.0,,77.0,30.04,1016.5,,,,2.0,2021-07-09 00:00:00,2021-07-07 00:00:00,2021-07-07 02:53:00
7.0,01:53,Calm,10.0,Mostly Cloudy,BKN095,77.0,66.0,,,69.0,,79.0,30.06,1016.9,,,,2.0,2021-07-09 00:00:00,2021-07-07 00:00:00,2021-07-07 01:53:00
7.0,00:53,Calm,10.0,Partly Cloudy,FEW090 SCT120,76.0,66.0,90.0,75.0,72.0,,78.0,30.06,1017.1,,,,2.0,2021-07-09 00:00:00,2021-07-07 00:00:00,2021-07-07 00:53:00
6.0,23:53,Calm,10.0,A Few Clouds,FEW120,78.0,66.0,,,67.0,,80.0,30.06,1017.3,,,,3.0,2021-07-09 00:00:00,2021-07-06 00:00:00,2021-07-06 23:53:00
6.0,22:53,S 5,10.0,Mostly Cloudy,BKN100,80.0,66.0,,,62.0,,82.0,30.06,1017.1,,,,3.0,2021-07-09 00:00:00,2021-07-06 00:00:00,2021-07-06 22:53:00
6.0,21:53,S 6,10.0,Partly Cloudy,FEW100 SCT250,81.0,65.0,,,58.0,,83.0,30.06,1017.1,,,,3.0,2021-07-09 00:00:00,2021-07-06 00:00:00,2021-07-06 21:53:00
6.0,20:53,S 7,10.0,A Few Clouds,FEW250,82.0,63.0,,,53.0,,83.0,30.04,1016.4,,,,3.0,2021-07-09 00:00:00,2021-07-06 00:00:00,2021-07-06 20:53:00
6.0,19:53,S 7,10.0,Partly Cloudy,FEW080 SCT250,86.0,59.0,,,40.0,,85.0,30.03,1016.0,,,,3.0,2021-07-09 00:00:00,2021-07-06 00:00:00,2021-07-06 19:53:00
6.0,18:53,S 8,10.0,A Few Clouds,FEW080 FEW250,90.0,57.0,95.0,89.0,33.0,,89.0,30.01,1015.4,,,,3.0,2021-07-09 00:00:00,2021-07-06 00:00:00,2021-07-06 18:53:00
6.0,17:53,S 10,10.0,A Few Clouds,FEW075 FEW250,92.0,57.0,,,31.0,,91.0,30.01,1015.3,,,,3.0,2021-07-09 00:00:00,2021-07-06 00:00:00,2021-07-06 17:53:00
6.0,16:53,SE 7,10.0,Partly Cloudy,FEW075 SCT250,90.0,59.0,,,35.0,,89.0,30.02,1015.9,,,,3.0,2021-07-09 00:00:00,2021-07-06 00:00:00,2021-07-06 16:53:00
6.0,15:53,Calm,10.0,Mostly Cloudy,SCT075 SCT100 BKN250,93.0,59.0,,,32.0,,92.0,30.04,1016.5,,,,3.0,2021-07-09 00:00:00,2021-07-06 00:00:00,2021-07-06 15:53:00
6.0,14:53,SE 8,10.0,Partly Cloudy,FEW075 SCT100 SCT250,93.0,57.0,,,30.0,,92.0,30.06,1017.0,,,,3.0,2021-07-09 00:00:00,2021-07-06 00:00:00,2021-07-06 14:53:00
6.0,13:53,SE 12 G 18,10.0,Mostly Cloudy,SCT060TCU SCT090 BKN250,93.0,60.0,,,33.0,,93.0,30.08,1017.6,,,,3.0,2021-07-09 00:00:00,2021-07-06 00:00:00,2021-07-06 13:53:00
6.0,12:53,SW 5,10.0,Mostly Cloudy,SCT060TCU SCT090 BKN250,90.0,62.0,91.0,73.0,39.0,,90.0,30.09,1018.3,,,,3.0,2021-07-09 00:00:00,2021-07-06 00:00:00,2021-07-06 12:53:00
6.0,11:53,Calm,10.0,Mostly Cloudy,SCT050TCU SCT075 BKN250,88.0,64.0,,,45.0,,89.0,30.11,1018.8,,,,3.0,2021-07-09 00:00:00,2021-07-06 00:00:00,2021-07-06 11:53:00
6.0,10:53,Vrbl 5,10.0,Partly Cloudy,FEW040 SCT250,88.0,64.0,,,45.0,,89.0,30.12,1019.2,,,,3.0,2021-07-09 00:00:00,2021-07-06 00:00:00,2021-07-06 10:53:00
6.0,09:53,SE 5,10.0,Mostly Cloudy,BKN250,85.0,66.0,,,53.0,,87.0,30.12,1019.2,,,,3.0,2021-07-09 00:00:00,2021-07-06 00:00:00,2021-07-06 09:53:00
6.0,08:53,SE 5,9.0,Mostly Cloudy,FEW040 BKN250,82.0,68.0,,,63.0,,85.0,30.13,1019.4,,,,3.0,2021-07-09 00:00:00,2021-07-06 00:00:00,2021-07-06 08:53:00
6.0,07:53,S 3,8.0,Mostly Cloudy,FEW038 BKN250,78.0,67.0,,,69.0,,80.0,30.13,1019.4,,,,3.0,2021-07-09 00:00:00,2021-07-06 00:00:00,2021-07-06 07:53:00
6.0,06:53,S 5,9.0,Mostly Cloudy,FEW080 BKN250,73.0,67.0,76.0,71.0,81.0,,,30.11,1019.0,,,,3.0,2021-07-09 00:00:00,2021-07-06 00:00:00,2021-07-06 06:53:00
6.0,05:53,S 3,10.0,Partly Cloudy,FEW080 SCT200,72.0,66.0,,,82.0,,,30.1,1018.5,,,,3.0,2021-07-09 00:00:00,2021-07-06 00:00:00,2021-07-06 05:53:00
6.0,04:53,Calm,10.0,Partly Cloudy,SCT200,72.0,66.0,,,82.0,,,30.09,1018.3,,,,2.0,2021-07-08 00:00:00,2021-07-06 00:00:00,2021-07-06 04:53:00
6.0,03:53,S 3,10.0,A Few Clouds,FEW200,72.0,66.0,,,82.0,,,30.09,1018.0,,,,2.0,2021-07-08 00:00:00,2021-07-06 00:00:00,2021-07-06 03:53:00
6.0,02:53,Calm,10.0,Fair,CLR,74.0,66.0,,,76.0,,,30.09,1018.0,,,,2.0,2021-07-08 00:00:00,2021-07-06 00:00:00,2021-07-06 02:53:00
6.0,01:53,Calm,10.0,Fair,CLR,75.0,66.0,,,74.0,,,30.08,1017.7,,,,2.0,2021-07-08 00:00:00,2021-07-06 00:00:00,2021-07-06 01:53:00
6.0,00:53,S 6,10.0,Fair,CLR,75.0,66.0,90.0,75.0,74.0,,,30.08,1017.9,,,,2.0,2021-07-08 00:00:00,2021-07-06 00:00:00,2021-07-06 00:53:00
5.0,23:53,S 6,10.0,Fair,CLR,77.0,66.0,,,69.0,,79.0,30.08,1017.8,,,,3.0,2021-07-08 00:00:00,2021-07-05 00:00:00,2021-07-05 23:53:00
5.0,22:53,S 5,10.0,Fair,CLR,80.0,65.0,,,60.0,,82.0,30.08,1017.8,,,,3.0,2021-07-08 00:00:00,2021-07-05 00:00:00,2021-07-05 22:53:00
5.0,21:53,S 3,10.0,A Few Clouds,FEW250,83.0,64.0,,,53.0,,84.0,30.07,1017.4,,,,3.0,2021-07-08 00:00:00,2021-07-05 00:00:00,2021-07-05 21:53:00
5.0,20:53,S 5,10.0,A Few Clouds,FEW250,82.0,65.0,,,56.0,,84.0,30.06,1017.1,,,,3.0,2021-07-08 00:00:00,2021-07-05 00:00:00,2021-07-05 20:53:00
5.0,19:53,E 7,10.0,Partly Cloudy,FEW070 SCT250,87.0,64.0,,,46.0,,88.0,30.05,1016.7,,,,3.0,2021-07-08 00:00:00,2021-07-05 00:00:00,2021-07-05 19:53:00
5.0,18:53,E 7,10.0,Partly Cloudy,FEW070 SCT250,90.0,63.0,94.0,89.0,41.0,,91.0,30.04,1016.3,,,,3.0,2021-07-08 00:00:00,2021-07-05 00:00:00,2021-07-05 18:53:00
5.0,17:53,E 7,10.0,Partly Cloudy,FEW075 SCT250,91.0,62.0,,,38.0,,91.0,30.03,1016.1,,,,3.0,2021-07-08 00:00:00,2021-07-05 00:00:00,2021-07-05 17:53:00
5.0,16:53,E 8,10.0,Partly Cloudy,SCT070 SCT250,92.0,63.0,,,38.0,,93.0,30.04,1016.4,,,,3.0,2021-07-08 00:00:00,2021-07-05 00:00:00,2021-07-05 16:53:00
5.0,15:53,E 6,10.0,Partly Cloudy,SCT070 SCT250,92.0,64.0,,,40.0,,94.0,30.05,1016.7,,,,3.0,2021-07-08 00:00:00,2021-07-05 00:00:00,2021-07-05 15:53:00
5.0,14:53,E 7,10.0,Partly Cloudy,SCT065 SCT250,92.0,64.0,,,40.0,,94.0,30.06,1017.0,,,,3.0,2021-07-08 00:00:00,2021-07-05 00:00:00,2021-07-05 14:53:00
5.0,13:53,Vrbl 5,10.0,Partly Cloudy,SCT060,92.0,63.0,,,38.0,,93.0,30.07,1017.6,,,,3.0,2021-07-08 00:00:00,2021-07-05 00:00:00,2021-07-05 13:53:00
5.0,12:53,Vrbl 3,10.0,Mostly Cloudy,SCT047 BKN055,90.0,65.0,90.0,71.0,44.0,,92.0,30.09,1018.2,,,,3.0,2021-07-08 00:00:00,2021-07-05 00:00:00,2021-07-05 12:53:00
5.0,11:53,E 5,10.0,Partly Cloudy,SCT044,88.0,65.0,,,46.0,,90.0,30.1,1018.4,,,,3.0,2021-07-08 00:00:00,2021-07-05 00:00:00,2021-07-05 11:53:00
5.0,10:53,Calm,10.0,A Few Clouds,FEW040 FEW250,86.0,65.0,,,49.0,,88.0,30.1,1018.7,,,,3.0,2021-07-08 00:00:00,2021-07-05 00:00:00,2021-07-05 10:53:00
5.0,09:53,SE 7,10.0,A Few Clouds,FEW250,84.0,65.0,,,53.0,,86.0,30.1,1018.6,,,,3.0,2021-07-08 00:00:00,2021-07-05 00:00:00,2021-07-05 09:53:00
5.0,08:53,E 6,10.0,A Few Clouds,FEW250,82.0,66.0,,,58.0,,84.0,30.09,1018.3,,,,3.0,2021-07-08 00:00:00,2021-07-05 00:00:00,2021-07-05 08:53:00
5.0,07:53,Calm,4.0,Fair with Haze,CLR,76.0,66.0,,,72.0,,78.0,30.09,1018.3,,,,3.0,2021-07-08 00:00:00,2021-07-05 00:00:00,2021-07-05 07:53:00
5.0,06:53,Calm,3.0,Fair with Haze,CLR,71.0,65.0,72.0,68.0,81.0,,,30.07,1017.6,,,,3.0,2021-07-08 00:00:00,2021-07-05 00:00:00,2021-07-05 06:53:00
5.0,05:53,Calm,2.0,A Few Clouds with Haze,FEW250,68.0,63.0,,,84.0,,,30.06,1017.2,,,,3.0,2021-07-08 00:00:00,2021-07-05 00:00:00,2021-07-05 05:53:00
5.0,04:53,Calm,3.0,Fair with Haze,CLR,69.0,63.0,,,81.0,,,30.05,1016.6,,,,2.0,2021-07-07 00:00:00,2021-07-05 00:00:00,2021-07-05 04:53:00
5.0,03:53,Calm,3.0,Fair with Haze,CLR,69.0,64.0,,,84.0,,,30.04,1016.4,,,,2.0,2021-07-07 00:00:00,2021-07-05 00:00:00,2021-07-05 03:53:00
5.0,02:53,Calm,3.0,Fair with Haze,CLR,70.0,64.0,,,82.0,,,30.03,1016.2,,,,2.0,2021-07-07 00:00:00,2021-07-05 00:00:00,2021-07-05 02:53:00
5.0,01:53,Calm,5.0,Fair with Haze,CLR,72.0,64.0,,,76.0,,,30.04,1016.3,,,,2.0,2021-07-07 00:00:00,2021-07-05 00:00:00,2021-07-05 01:53:00
5.0,00:53,Calm,5.0,Fair with Haze,CLR,72.0,63.0,85.0,71.0,73.0,,,30.04,1016.3,,,,2.0,2021-07-07 00:00:00,2021-07-05 00:00:00,2021-07-05 00:53:00
4.0,23:53,Calm,6.0,Fair with Haze,CLR,75.0,63.0,,,66.0,,,30.04,1016.6,,,,3.0,2021-07-07 00:00:00,2021-07-04 00:00:00,2021-07-04 23:53:00
4.0,22:53,S 3,10.0,Fair,CLR,75.0,63.0,,,66.0,,,30.05,1016.8,,,,3.0,2021-07-07 00:00:00,2021-07-04 00:00:00,2021-07-04 22:53:00
4.0,21:53,N 6,10.0,A Few Clouds,FEW250,80.0,63.0,,,56.0,,81.0,30.04,1016.4,,,,3.0,2021-07-07 00:00:00,2021-07-04 00:00:00,2021-07-04 21:53:00
4.0,20:53,N 5,10.0,A Few Clouds,FEW250,81.0,62.0,,,53.0,,82.0,30.02,1016.0,,,,3.0,2021-07-07 00:00:00,2021-07-04 00:00:00,2021-07-04 20:53:00
4.0,19:53,N 7,10.0,A Few Clouds,FEW250,82.0,62.0,,,51.0,,83.0,30.01,1015.7,,,,3.0,2021-07-07 00:00:00,2021-07-04 00:00:00,2021-07-04 19:53:00
4.0,18:53,NW 10,10.0,A Few Clouds,FEW050 FEW250,85.0,62.0,90.0,84.0,46.0,,86.0,30.01,1015.5,,,,3.0,2021-07-07 00:00:00,2021-07-04 00:00:00,2021-07-04 18:53:00
4.0,17:53,N 5,10.0,A Few Clouds,FEW050,88.0,58.0,,,36.0,,87.0,30.0,1015.2,,,,3.0,2021-07-07 00:00:00,2021-07-04 00:00:00,2021-07-04 17:53:00
4.0,16:53,S 3,10.0,A Few Clouds,FEW050,89.0,58.0,,,35.0,,88.0,30.01,1015.4,,,,3.0,2021-07-07 00:00:00,2021-07-04 00:00:00,2021-07-04 16:53:00
4.0,15:53,S 6,10.0,Fair,CLR,88.0,58.0,,,36.0,,87.0,30.01,1015.5,,,,3.0,2021-07-07 00:00:00,2021-07-04 00:00:00,2021-07-04 15:53:00
4.0,14:53,E 8,10.0,Fair,CLR,86.0,58.0,,,39.0,,85.0,30.01,1015.6,,,,3.0,2021-07-07 00:00:00,2021-07-04 00:00:00,2021-07-04 14:53:00
4.0,13:53,Vrbl 3,10.0,Fair,CLR,86.0,57.0,,,37.0,,85.0,30.02,1015.9,,,,3.0,2021-07-07 00:00:00,2021-07-04 00:00:00,2021-07-04 13:53:00
4.0,12:53,E 8,10.0,Fair,CLR,85.0,56.0,86.0,64.0,37.0,,84.0,30.03,1016.4,,,,3.0,2021-07-07 00:00:00,2021-07-04 00:00:00,2021-07-04 12:53:00
4.0,11:53,Vrbl 5,10.0,Fair,CLR,84.0,58.0,,,41.0,,83.0,30.04,1016.6,,,,3.0,2021-07-07 00:00:00,2021-07-04 00:00:00,2021-07-04 11:53:00
4.0,10:53,NE 5,10.0,A Few Clouds,FEW043,80.0,58.0,,,47.0,,81.0,30.05,1016.9,,,,3.0,2021-07-07 00:00:00,2021-07-04 00:00:00,2021-07-04 10:53:00
4.0,09:53,E 3,10.0,Fair,CLR,79.0,60.0,,,52.0,,80.0,30.06,1017.1,,,,3.0,2021-07-07 00:00:00,2021-07-04 00:00:00,2021-07-04 09:53:00
4.0,08:53,Calm,10.0,Fair,CLR,74.0,59.0,,,60.0,,,30.07,1017.4,,,,3.0,2021-07-07 00:00:00,2021-07-04 00:00:00,2021-07-04 08:53:00
4.0,07:53,Calm,10.0,Fair,CLR,70.0,60.0,,,71.0,,,30.07,1017.4,,,,3.0,2021-07-07 00:00:00,2021-07-04 00:00:00,2021-07-04 07:53:00
4.0,06:53,Calm,7.0,Fair,CLR,64.0,59.0,67.0,61.0,84.0,,,30.06,1017.2,,,,3.0,2021-07-07 00:00:00,2021-07-04 00:00:00,2021-07-04 06:53:00
4.0,05:53,S 3,7.0,Fair,CLR,62.0,57.0,,,84.0,,,30.05,1016.9,,,,3.0,2021-07-07 00:00:00,2021-07-04 00:00:00,2021-07-04 05:53:00
4.0,04:53,Calm,8.0,Fair,CLR,63.0,58.0,,,84.0,,,30.03,1016.3,,,,2.0,2021-07-06 00:00:00,2021-07-04 00:00:00,2021-07-04 04:53:00
4.0,03:53,Calm,9.0,Fair,CLR,63.0,57.0,,,81.0,,,30.02,1015.9,,,,2.0,2021-07-06 00:00:00,2021-07-04 00:00:00,2021-07-04 03:53:00
4.0,02:53,Calm,9.0,Fair,CLR,63.0,58.0,,,84.0,,,30.01,1015.7,,,,2.0,2021-07-06 00:00:00,2021-07-04 00:00:00,2021-07-04 02:53:00
4.0,01:53,Calm,10.0,Fair,CLR,65.0,58.0,,,78.0,,,30.02,1015.7,,,,2.0,2021-07-06 00:00:00,2021-07-04 00:00:00,2021-07-04 01:53:00
4.0,00:53,Calm,10.0,Fair,CLR,66.0,57.0,81.0,66.0,73.0,,,30.02,1016.1,,,,2.0,2021-07-06 00:00:00,2021-07-04 00:00:00,2021-07-04 00:53:00
3.0,23:53,Calm,10.0,Fair,CLR,71.0,57.0,,,61.0,,,30.03,1016.2,,,,3.0,2021-07-06 00:00:00,2021-07-03 00:00:00,2021-07-03 23:53:00
3.0,22:53,N 7,10.0,Fair,CLR,71.0,56.0,,,59.0,,,30.03,1016.2,,,,3.0,2021-07-06 00:00:00,2021-07-03 00:00:00,2021-07-03 22:53:00
3.0,21:53,N 3,10.0,Fair,CLR,75.0,54.0,,,48.0,,,30.03,1016.2,,,,3.0,2021-07-06 00:00:00,2021-07-03 00:00:00,2021-07-03 21:53:00
3.0,20:53,N 5,10.0,A Few Clouds,FEW065,75.0,54.0,,,48.0,,,30.01,1015.7,,,,3.0,2021-07-06 00:00:00,2021-07-03 00:00:00,2021-07-03 20:53:00
3.0,19:53,N 7,10.0,A Few Clouds,FEW065,77.0,54.0,,,45.0,,78.0,30.01,1015.5,,,,3.0,2021-07-06 00:00:00,2021-07-03 00:00:00,2021-07-03 19:53:00
3.0,18:53,N 6,10.0,A Few Clouds,FEW065,81.0,53.0,86.0,79.0,38.0,,80.0,30.0,1015.2,,,,3.0,2021-07-06 00:00:00,2021-07-03 00:00:00,2021-07-03 18:53:00
3.0,17:53,N 8,10.0,Partly Cloudy,SCT065,83.0,53.0,,,36.0,,82.0,29.99,1014.9,,,,3.0,2021-07-06 00:00:00,2021-07-03 00:00:00,2021-07-03 17:53:00
3.0,16:53,Vrbl 5,10.0,Mostly Cloudy,BKN065,82.0,54.0,,,38.0,,81.0,30.0,1015.1,,,,3.0,2021-07-06 00:00:00,2021-07-03 00:00:00,2021-07-03 16:53:00
3.0,15:53,N 6,10.0,Partly Cloudy,SCT060,82.0,53.0,,,37.0,,81.0,30.0,1015.3,,,,3.0,2021-07-06 00:00:00,2021-07-03 00:00:00,2021-07-03 15:53:00
3.0,14:53,NW 5,10.0,Mostly Cloudy,SCT060 BKN250,83.0,54.0,,,37.0,,82.0,30.01,1015.4,,,,3.0,2021-07-06 00:00:00,2021-07-03 00:00:00,2021-07-03 14:53:00
3.0,13:53,N 10,10.0,Partly Cloudy,SCT055,82.0,53.0,,,37.0,,81.0,30.01,1015.7,,,,3.0,2021-07-06 00:00:00,2021-07-03 00:00:00,2021-07-03 13:53:00
3.0,12:53,E 5,10.0,Partly Cloudy,SCT050,79.0,54.0,81.0,65.0,42.0,,79.0,30.03,1016.1,,,,3.0,2021-07-06 00:00:00,2021-07-03 00:00:00,2021-07-03 12:53:00
3.0,11:53,N 8,10.0,Partly Cloudy,SCT048,80.0,55.0,,,42.0,,80.0,30.04,1016.6,,,,3.0,2021-07-06 00:00:00,2021-07-03 00:00:00,2021-07-03 11:53:00
3.0,10:53,E 10,10.0,A Few Clouds,FEW046,78.0,54.0,,,43.0,,79.0,30.05,1016.8,,,,3.0,2021-07-06 00:00:00,2021-07-03 00:00:00,2021-07-03 10:53:00
3.0,09:53,NE 8,10.0,A Few Clouds,FEW035,76.0,55.0,,,48.0,,78.0,30.05,1016.9,,,,3.0,2021-07-06 00:00:00,2021-07-03 00:00:00,2021-07-03 09:53:00
3.0,08:53,NE 7,10.0,A Few Clouds,FEW250,73.0,56.0,,,55.0,,,30.05,1017.0,,,,3.0,2021-07-06 00:00:00,2021-07-03 00:00:00,2021-07-03 08:53:00
3.0,07:53,NE 7,10.0,A Few Clouds,FEW250,68.0,56.0,,,65.0,,,30.05,1016.8,,,,3.0,2021-07-06 00:00:00,2021-07-03 00:00:00,2021-07-03 07:53:00
3.0,06:53,Calm,10.0,A Few Clouds,FEW250,65.0,55.0,68.0,61.0,70.0,,,30.04,1016.6,,,,3.0,2021-07-06 00:00:00,2021-07-03 00:00:00,2021-07-03 06:53:00
3.0,05:53,N 3,10.0,Partly Cloudy,SCT250,63.0,55.0,,,76.0,,,30.02,1016.1,,,,3.0,2021-07-06 00:00:00,2021-07-03 00:00:00,2021-07-03 05:53:00
3.0,04:53,NW 3,10.0,Partly Cloudy,SCT250,63.0,55.0,,,76.0,,,30.01,1015.6,,,,2.0,2021-07-05 00:00:00,2021-07-03 00:00:00,2021-07-03 04:53:00
3.0,03:53,Calm,10.0,Partly Cloudy,SCT250,62.0,56.0,,,80.0,,,30.0,1015.2,,,,2.0,2021-07-05 00:00:00,2021-07-03 00:00:00,2021-07-03 03:53:00
3.0,02:53,N 5,10.0,Partly Cloudy,SCT250,66.0,56.0,,,70.0,,,29.99,1014.9,,,,2.0,2021-07-05 00:00:00,2021-07-03 00:00:00,2021-07-03 02:53:00
3.0,01:53,N 6,10.0,Partly Cloudy,SCT250,67.0,56.0,,,68.0,,,29.99,1014.8,,,,2.0,2021-07-05 00:00:00,2021-07-03 00:00:00,2021-07-03 01:53:00
3.0,00:53,N 6,10.0,Partly Cloudy,SCT250,68.0,57.0,79.0,68.0,68.0,,,29.99,1014.8,,,,2.0,2021-07-05 00:00:00,2021-07-03 00:00:00,2021-07-03 00:53:00
2.0,23:53,N 8,10.0,Partly Cloudy,SCT250,69.0,58.0,,,68.0,,,29.98,1014.6,,,,3.0,2021-07-05 00:00:00,2021-07-02 00:00:00,2021-07-02 23:53:00
2.0,22:53,N 8,10.0,Partly Cloudy,SCT250,71.0,58.0,,,63.0,,,29.98,1014.4,,,,3.0,2021-07-05 00:00:00,2021-07-02 00:00:00,2021-07-02 22:53:00
2.0,21:53,N 7,10.0,Partly Cloudy,SCT250,73.0,57.0,,,57.0,,,29.97,1014.1,,,,3.0,2021-07-05 00:00:00,2021-07-02 00:00:00,2021-07-02 21:53:00
2.0,20:53,N 6,10.0,Partly Cloudy,SCT250,74.0,59.0,,,60.0,,,29.96,1013.7,,,,3.0,2021-07-05 00:00:00,2021-07-02 00:00:00,2021-07-02 20:53:00
2.0,19:53,N 8,10.0,Partly Cloudy,FEW060 SCT250,77.0,60.0,,,56.0,,79.0,29.94,1013.3,,,,3.0,2021-07-05 00:00:00,2021-07-02 00:00:00,2021-07-02 19:53:00
2.0,18:53,N 14,10.0,Partly Cloudy,FEW055 SCT250,79.0,61.0,86.0,79.0,54.0,,80.0,29.93,1012.7,,,,3.0,2021-07-05 00:00:00,2021-07-02 00:00:00,2021-07-02 18:53:00
2.0,17:53,N 13 G 25,10.0,Partly Cloudy,FEW055 SCT250,82.0,61.0,,,49.0,,83.0,29.91,1012.2,,,,3.0,2021-07-05 00:00:00,2021-07-02 00:00:00,2021-07-02 17:53:00
2.0,16:53,N 14,10.0,Partly Cloudy,FEW060 FEW075 SCT250,81.0,61.0,,,51.0,,82.0,29.91,1012.3,,,,3.0,2021-07-05 00:00:00,2021-07-02 00:00:00,2021-07-02 16:53:00
2.0,15:53,N 15 G 23,10.0,Mostly Cloudy,FEW044 SCT055 BKN250,82.0,62.0,,,51.0,,83.0,29.92,1012.5,,,,3.0,2021-07-05 00:00:00,2021-07-02 00:00:00,2021-07-02 15:53:00
2.0,14:53,N 10 G 22,10.0,Mostly Cloudy,SCT040 SCT065 BKN250,85.0,62.0,,,46.0,,86.0,29.93,1012.9,,,,3.0,2021-07-05 00:00:00,2021-07-02 00:00:00,2021-07-02 14:53:00
2.0,13:53,N 10,10.0,Mostly Cloudy,SCT033TCU SCT040 BKN065 BKN250,82.0,65.0,,,56.0,,84.0,29.95,1013.6,,,,3.0,2021-07-05 00:00:00,2021-07-02 00:00:00,2021-07-02 13:53:00
2.0,12:53,NE 10,10.0,Mostly Cloudy,SCT034TCU SCT050 BKN070 BKN250,82.0,65.0,84.0,73.0,56.0,,84.0,29.96,1013.9,,,,3.0,2021-07-05 00:00:00,2021-07-02 00:00:00,2021-07-02 12:53:00
2.0,11:53,NE 5,10.0,Mostly Cloudy,SCT023TCU SCT035 BKN070 BKN250,81.0,68.0,,,65.0,,84.0,29.97,1014.2,,,,3.0,2021-07-05 00:00:00,2021-07-02 00:00:00,2021-07-02 11:53:00
2.0,10:53,E 7,10.0,Mostly Cloudy,BKN019 BKN025 BKN036,78.0,68.0,,,71.0,,80.0,29.97,1014.3,,,,3.0,2021-07-05 00:00:00,2021-07-02 00:00:00,2021-07-02 10:53:00
2.0,09:53,Vrbl 5,10.0,Mostly Cloudy,BKN016 BKN023 BKN038,77.0,68.0,,,74.0,,79.0,29.97,1014.2,,,,3.0,2021-07-05 00:00:00,2021-07-02 00:00:00,2021-07-02 09:53:00
2.0,08:53,NE 5,10.0,Overcast,BKN011 OVC019,75.0,68.0,,,79.0,,,29.97,1014.1,,,,3.0,2021-07-05 00:00:00,2021-07-02 00:00:00,2021-07-02 08:53:00
2.0,07:53,N 9,10.0,Overcast,OVC012,73.0,67.0,,,81.0,,,29.96,1014.1,,,,3.0,2021-07-05 00:00:00,2021-07-02 00:00:00,2021-07-02 07:53:00
2.0,06:53,N 7,10.0,Mostly Cloudy,SCT008 BKN014 BKN025,73.0,68.0,73.0,72.0,84.0,,,29.96,1013.9,,,,3.0,2021-07-05 00:00:00,2021-07-02 00:00:00,2021-07-02 06:53:00
2.0,05:53,Calm,10.0,Mostly Cloudy,BKN012,72.0,68.0,,,87.0,,,29.94,1013.4,,,,2.0,2021-07-04 00:00:00,2021-07-02 00:00:00,2021-07-02 05:53:00
2.0,04:53,N 6,9.0,Overcast,FEW004 OVC014,72.0,68.0,,,87.0,,,29.93,1012.9,,,,2.0,2021-07-04 00:00:00,2021-07-02 00:00:00,2021-07-02 04:53:00
2.0,03:53,N 5,9.0,Overcast,OVC005,73.0,69.0,,,87.0,,,29.92,1012.6,,,,2.0,2021-07-04 00:00:00,2021-07-02 00:00:00,2021-07-02 03:53:00
2.0,02:53,W 3,10.0,Overcast,OVC005,72.0,69.0,,,91.0,,,29.93,1012.9,,,,2.0,2021-07-04 00:00:00,2021-07-02 00:00:00,2021-07-02 02:53:00
2.0,01:53,Calm,9.0,Mostly Cloudy,BKN005,72.0,69.0,,,91.0,,,29.93,1012.8,,,,2.0,2021-07-04 00:00:00,2021-07-02 00:00:00,2021-07-02 01:53:00
2.0,00:53,NW 5,10.0,Mostly Cloudy,FEW007 BKN049,72.0,69.0,73.0,72.0,91.0,,,29.94,1013.1,,,0.01,2.0,2021-07-04 00:00:00,2021-07-02 00:00:00,2021-07-02 00:53:00
1.0,23:53,NW 3,10.0,Overcast,SCT009 BKN047 OVC120,73.0,69.0,,,87.0,,,29.94,1013.1,,,,3.0,2021-07-04 00:00:00,2021-07-01 00:00:00,2021-07-01 23:53:00
1.0,22:53,Calm,10.0,Overcast,FEW009 BKN035 OVC095,73.0,69.0,,,87.0,,,29.95,1013.3,,,,3.0,2021-07-04 00:00:00,2021-07-01 00:00:00,2021-07-01 22:53:00
1.0,21:53,Calm,10.0,Mostly Cloudy,FEW010 FEW060 BKN100 BKN180,73.0,69.0,,,87.0,,,29.95,1013.6,,0.01,,3.0,2021-07-04 00:00:00,2021-07-01 00:00:00,2021-07-01 21:53:00
1.0,20:53,SW 3,10.0,Mostly Cloudy,FEW010 SCT040 BKN055,73.0,69.0,,,87.0,,,29.94,1013.2,,,,3.0,2021-07-04 00:00:00,2021-07-01 00:00:00,2021-07-01 20:53:00
1.0,19:53,Calm,10.0,Light Rain,SCT026 BKN035 BKN090 BKN250,73.0,69.0,,,87.0,,,29.95,1013.4,0.01,,,3.0,2021-07-04 00:00:00,2021-07-01 00:00:00,2021-07-01 19:53:00
1.0,18:53,Calm,10.0,Overcast,FEW007 SCT070 OVC130,73.0,69.0,84.0,73.0,87.0,,,29.94,1013.1,,,0.34,3.0,2021-07-04 00:00:00,2021-07-01 00:00:00,2021-07-01 18:53:00
1.0,17:53,W 3,9.0,Light Rain,FEW010 BKN050 OVC120,73.0,69.0,,,87.0,,,29.93,1012.7,0.08,,,3.0,2021-07-04 00:00:00,2021-07-01 00:00:00,2021-07-01 17:53:00
1.0,16:53,W 3,3.0,Rain Fog/Mist,SCT007 BKN048 OVC075,73.0,70.0,,,90.0,,,29.94,1013.4,0.22,,,3.0,2021-07-04 00:00:00,2021-07-01 00:00:00,2021-07-01 16:53:00
1.0,15:53,W 9,4.0,Rain Fog/Mist,SCT033 BKN075 OVC100,76.0,71.0,,,85.0,,77.0,29.96,1013.7,0.04,0.04,,3.0,2021-07-04 00:00:00,2021-07-01 00:00:00,2021-07-01 15:53:00
1.0,14:53,W 5,10.0,Light Rain,FEW033 BKN055 BKN075 OVC130,80.0,71.0,,,74.0,,83.0,29.94,1013.3,,,,3.0,2021-07-04 00:00:00,2021-07-01 00:00:00,2021-07-01 14:53:00
1.0,13:53,W 8,10.0,Overcast,SCT032TCU SCT060 BKN090 OVC160,83.0,69.0,,,63.0,,87.0,29.96,1013.8,,,,3.0,2021-07-04 00:00:00,2021-07-01 00:00:00,2021-07-01 13:53:00
1.0,12:53,W 9,10.0,Overcast,SCT034TCU BKN070 BKN090 OVC200,83.0,68.0,85.0,76.0,61.0,,86.0,29.98,1014.4,,,,3.0,2021-07-04 00:00:00,2021-07-01 00:00:00,2021-07-01 12:53:00
1.0,11:53,W 8,10.0,Mostly Cloudy,SCT032 BKN085 BKN130 BKN200,83.0,68.0,,,61.0,,86.0,29.99,1014.9,,,,3.0,2021-07-04 00:00:00,2021-07-01 00:00:00,2021-07-01 11:53:00
1.0,10:53,SW 8,10.0,Overcast,SCT024TCU SCT075 BKN110 OVC200,84.0,69.0,,,61.0,,88.0,30.01,1015.3,,,,3.0,2021-07-04 00:00:00,2021-07-01 00:00:00,2021-07-01 10:53:00
1.0,09:53,SW 7,10.0,Mostly Cloudy,FEW035 BKN100 BKN200 BKN250,82.0,70.0,,,67.0,,86.0,30.01,1015.6,,,,3.0,2021-07-04 00:00:00,2021-07-01 00:00:00,2021-07-01 09:53:00
1.0,08:53,SW 7,10.0,Overcast,FEW036 BKN130 BKN180 OVC210,79.0,69.0,,,72.0,,82.0,30.03,1016.1,,,,3.0,2021-07-04 00:00:00,2021-07-01 00:00:00,2021-07-01 08:53:00
1.0,07:53,S 7,10.0,Overcast,FEW036 SCT044 BKN130 OVC210,78.0,70.0,,,76.0,,80.0,30.03,1016.2,,,,3.0,2021-07-04 00:00:00,2021-07-01 00:00:00,2021-07-01 07:53:00
1.0,06:53,S 5,10.0,Mostly Cloudy,SCT044 BKN055 BKN120 BKN250,76.0,69.0,76.0,73.0,79.0,,77.0,30.03,1016.1,,,,3.0,2021-07-04 00:00:00,2021-07-01 00:00:00,2021-07-01 06:53:00
1.0,05:53,Calm,10.0,Mostly Cloudy,SCT043 BKN050 BKN120,74.0,69.0,,,85.0,,,30.03,1016.2,,,,2.0,2021-07-03 00:00:00,2021-07-01 00:00:00,2021-07-01 05:53:00
1.0,04:53,Calm,10.0,Mostly Cloudy,SCT043 BKN120,73.0,68.0,,,84.0,,,30.03,1016.0,,,,2.0,2021-07-03 00:00:00,2021-07-01 00:00:00,2021-07-01 04:53:00
1.0,03:53,S 5,10.0,Partly Cloudy,FEW120 SCT250,74.0,68.0,,,82.0,,,30.02,1015.8,,,,2.0,2021-07-03 00:00:00,2021-07-01 00:00:00,2021-07-01 03:53:00
1.0,02:53,SW 3,10.0,Partly Cloudy,SCT250,74.0,68.0,,,82.0,,,30.03,1016.1,,,,2.0,2021-07-03 00:00:00,2021-07-01 00:00:00,2021-07-01 02:53:00
1.0,01:53,S 3,10.0,Partly Cloudy,SCT250,73.0,67.0,,,81.0,,,30.04,1016.6,,,,2.0,2021-07-03 00:00:00,2021-07-01 00:00:00,2021-07-01 01:53:00
1.0,00:53,S 6,10.0,Mostly Cloudy,BKN250,74.0,68.0,84.0,74.0,82.0,,,30.07,1017.4,,,,2.0,2021-07-03 00:00:00,2021-07-01 00:00:00,2021-07-01 00:53:00
30.0,23:53,S 3,10.0,Mostly Cloudy,BKN250,76.0,68.0,,,77.0,,77.0,30.07,1017.6,,,,3.0,2021-07-03 00:00:00,2021-06-30 00:00:00,2021-06-30 23:53:00
30.0,22:53,Calm,10.0,Mostly Cloudy,FEW090 BKN250,76.0,68.0,,,77.0,,77.0,30.09,1018.2,,,,3.0,2021-07-03 00:00:00,2021-06-30 00:00:00,2021-06-30 22:53:00
30.0,21:53,Calm,10.0,Mostly Cloudy,SCT090 BKN250,78.0,67.0,,,69.0,,80.0,30.09,1018.2,,,,3.0,2021-07-03 00:00:00,2021-06-30 00:00:00,2021-06-30 21:53:00
30.0,20:53,SW 3,10.0,Mostly Cloudy,SCT090 BKN250,80.0,66.0,,,62.0,,82.0,30.09,1018.1,,,,3.0,2021-07-03 00:00:00,2021-06-30 00:00:00,2021-06-30 20:53:00
30.0,19:53,W 5,10.0,Mostly Cloudy,FEW060 SCT080 BKN250,82.0,67.0,,,60.0,,84.0,30.07,1017.6,,,,3.0,2021-07-03 00:00:00,2021-06-30 00:00:00,2021-06-30 19:53:00
30.0,18:53,W 9,10.0,Mostly Cloudy,FEW060 SCT140 BKN250,84.0,68.0,93.0,84.0,59.0,,87.0,30.07,1017.5,,,,3.0,2021-07-03 00:00:00,2021-06-30 00:00:00,2021-06-30 18:53:00
30.0,17:53,W 8,10.0,Mostly Cloudy,FEW060TCU SCT120 BKN250,89.0,68.0,,,50.0,,93.0,30.06,1017.3,,,,3.0,2021-07-03 00:00:00,2021-06-30 00:00:00,2021-06-30 17:53:00
30.0,16:53,SW 9 G 18,10.0,Mostly Cloudy,SCT050TCU SCT060 BKN090 BKN250,91.0,67.0,,,45.0,,94.0,30.06,1017.3,,,,3.0,2021-07-03 00:00:00,2021-06-30 00:00:00,2021-06-30 16:53:00
30.0,15:53,S 10,10.0,Mostly Cloudy,SCT047TCU BKN060 BKN075 BKN250,90.0,67.0,,,47.0,,93.0,30.07,1017.6,,,,3.0,2021-07-03 00:00:00,2021-06-30 00:00:00,2021-06-30 15:53:00
30.0,14:53,W 7,10.0,Mostly Cloudy,SCT048 SCT060 BKN250,91.0,67.0,,,45.0,,94.0,30.09,1018.1,,,,3.0,2021-07-03 00:00:00,2021-06-30 00:00:00,2021-06-30 14:53:00
30.0,13:53,SW 13 G 24,10.0,Partly Cloudy,SCT043 SCT065,90.0,68.0,,,48.0,,94.0,30.12,1019.1,,,,3.0,2021-07-03 00:00:00,2021-06-30 00:00:00,2021-06-30 13:53:00
30.0,12:53,Vrbl 7,10.0,Mostly Cloudy,SCT036 SCT050TCU BKN080 BKN250,87.0,70.0,88.0,75.0,57.0,,92.0,30.16,1020.4,,,,3.0,2021-07-03 00:00:00,2021-06-30 00:00:00,2021-06-30 12:53:00
30.0,11:53,W 8,10.0,Mostly Cloudy,SCT050TCU SCT070 BKN090 BKN250,85.0,71.0,,,63.0,,90.0,30.18,1021.1,,,,3.0,2021-07-03 00:00:00,2021-06-30 00:00:00,2021-06-30 11:53:00
30.0,10:53,SW 7,8.0,Light Rain,SCT025 BKN036TCU BKN065 BKN250,79.0,71.0,,,77.0,,82.0,30.2,1022.0,,,,3.0,2021-07-03 00:00:00,2021-06-30 00:00:00,2021-06-30 10:53:00
30.0,09:53,S 9,10.0,Mostly Cloudy,SCT025 BKN035TCU BKN060 BKN250,82.0,69.0,,,65.0,,85.0,30.19,1021.5,,,,3.0,2021-07-03 00:00:00,2021-06-30 00:00:00,2021-06-30 09:53:00
30.0,08:53,S 9,10.0,Mostly Cloudy,BKN044TCU BKN070 BKN200,81.0,70.0,,,69.0,,84.0,30.19,1021.7,,,,3.0,2021-07-03 00:00:00,2021-06-30 00:00:00,2021-06-30 08:53:00
30.0,07:53,S 3,10.0,Mostly Cloudy,SCT040 SCT055 BKN200 BKN250,79.0,69.0,,,72.0,,82.0,30.19,1021.5,,,,3.0,2021-07-03 00:00:00,2021-06-30 00:00:00,2021-06-30 07:53:00
30.0,06:53,S 7,10.0,Partly Cloudy,FEW027 SCT250,75.0,69.0,75.0,70.0,82.0,,,30.17,1021.1,,,,3.0,2021-07-03 00:00:00,2021-06-30 00:00:00,2021-06-30 06:53:00
30.0,05:53,S 6,10.0,Mostly Cloudy,FEW120 BKN250,71.0,67.0,,,87.0,,,30.18,1021.3,,,,3.0,2021-07-03 00:00:00,2021-06-30 00:00:00,2021-06-30 05:53:00
30.0,04:53,S 5,10.0,A Few Clouds,FEW120,71.0,67.0,,,87.0,,,30.17,1020.8,,,,2.0,2021-07-02 00:00:00,2021-06-30 00:00:00,2021-06-30 04:53:00
30.0,03:53,SE 3,10.0,A Few Clouds,FEW120,72.0,67.0,,,84.0,,,30.17,1021.1,,,,2.0,2021-07-02 00:00:00,2021-06-30 00:00:00,2021-06-30 03:53:00
30.0,02:53,Calm,10.0,Partly Cloudy,SCT120,73.0,68.0,,,84.0,,,30.18,1021.1,,,,2.0,2021-07-02 00:00:00,2021-06-30 00:00:00,2021-06-30 02:53:00
30.0,01:53,SE 3,10.0,Partly Cloudy,SCT120,73.0,68.0,,,84.0,,,30.19,1021.3,,,,2.0,2021-07-02 00:00:00,2021-06-30 00:00:00,2021-06-30 01:53:00
30.0,00:53,S 3,10.0,Partly Cloudy,SCT110,73.0,68.0,78.0,73.0,84.0,,,30.2,1022.0,,,,2.0,2021-07-02 00:00:00,2021-06-30 00:00:00,2021-06-30 00:53:00
29.0,23:53,S 3,10.0,Partly Cloudy,SCT110,73.0,68.0,,,84.0,,,30.22,1022.7,,,,3.0,2021-07-02 00:00:00,2021-06-29 00:00:00,2021-06-29 23:53:00
29.0,22:53,S 3,10.0,Mostly Cloudy,BKN110,75.0,68.0,,,79.0,,,30.24,1023.2,,,,3.0,2021-07-02 00:00:00,2021-06-29 00:00:00,2021-06-29 22:53:00
29.0,21:53,S 3,10.0,Mostly Cloudy,BKN250,75.0,68.0,,,79.0,,,30.23,1022.8,,,,3.0,2021-07-02 00:00:00,2021-06-29 00:00:00,2021-06-29 21:53:00
29.0,20:53,Calm,10.0,Mostly Cloudy,BKN250,77.0,66.0,,,69.0,,79.0,30.2,1021.9,,,,3.0,2021-07-02 00:00:00,2021-06-29 00:00:00,2021-06-29 20:53:00
29.0,19:53,SW 3,10.0,Mostly Cloudy,FEW090 BKN250,77.0,67.0,,,71.0,,79.0,30.19,1021.4,,,,3.0,2021-07-02 00:00:00,2021-06-29 00:00:00,2021-06-29 19:53:00
29.0,18:53,W 5,10.0,Mostly Cloudy,FEW090 SCT120 BKN250,78.0,67.0,96.0,78.0,69.0,,80.0,30.18,1021.3,,,,3.0,2021-07-02 00:00:00,2021-06-29 00:00:00,2021-06-29 18:53:00
29.0,17:53,W 10,10.0,Mostly Cloudy,FEW090 SCT150 BKN250,79.0,67.0,,,67.0,,81.0,30.18,1021.2,,,,3.0,2021-07-02 00:00:00,2021-06-29 00:00:00,2021-06-29 17:53:00
29.0,16:53,SW 6,10.0,Mostly Cloudy,FEW065 SCT080 BKN120 BKN250,81.0,69.0,,,67.0,,84.0,30.16,1020.7,,,,3.0,2021-07-02 00:00:00,2021-06-29 00:00:00,2021-06-29 16:53:00
29.0,15:53,S 12 G 20,10.0,Mostly Cloudy,SCT060TCU SCT090 BKN140 BKN250,82.0,69.0,,,65.0,,85.0,30.15,1020.4,,,,3.0,2021-07-02 00:00:00,2021-06-29 00:00:00,2021-06-29 15:53:00
29.0,14:53,S 15 G 23,10.0,Mostly Cloudy,SCT050TCU BKN080 BKN120 BKN250,86.0,70.0,,,59.0,,91.0,30.13,1019.6,,,,3.0,2021-07-02 00:00:00,2021-06-29 00:00:00,2021-06-29 14:53:00
29.0,13:53,E 8,10.0,Mostly Cloudy,SCT050TCU SCT080 BKN140 BKN250,96.0,68.0,,,40.0,,101.0,30.14,1019.8,,,,3.0,2021-07-02 00:00:00,2021-06-29 00:00:00,2021-06-29 13:53:00
29.0,12:53,E 8,10.0,Mostly Cloudy,SCT048TCU SCT075 BKN150 BKN250,93.0,70.0,94.0,78.0,47.0,,99.0,30.16,1020.4,,,,3.0,2021-07-02 00:00:00,2021-06-29 00:00:00,2021-06-29 12:53:00
29.0,11:53,N 6,10.0,Mostly Cloudy,SCT055TCU SCT080 BKN150,92.0,70.0,,,49.0,,98.0,30.17,1020.9,,,,3.0,2021-07-02 00:00:00,2021-06-29 00:00:00,2021-06-29 11:53:00
29.0,10:53,Vrbl 5,10.0,Partly Cloudy,SCT045TCU SCT070 SCT250,90.0,71.0,,,54.0,,96.0,30.2,1021.6,,,,3.0,2021-07-02 00:00:00,2021-06-29 00:00:00,2021-06-29 10:53:00
29.0,09:53,Vrbl 5,10.0,Partly Cloudy,FEW040 SCT080,87.0,72.0,,,61.0,,93.0,30.21,1022.0,,,,3.0,2021-07-02 00:00:00,2021-06-29 00:00:00,2021-06-29 09:53:00
29.0,08:53,Calm,10.0,Partly Cloudy,FEW034 FEW200 SCT250,85.0,71.0,,,63.0,,90.0,30.22,1022.4,,,,3.0,2021-07-02 00:00:00,2021-06-29 00:00:00,2021-06-29 08:53:00
29.0,07:53,Calm,10.0,A Few Clouds,FEW250,82.0,72.0,,,72.0,,87.0,30.21,1022.1,,,,3.0,2021-07-02 00:00:00,2021-06-29 00:00:00,2021-06-29 07:53:00
29.0,06:53,Calm,10.0,A Few Clouds,FEW120 FEW250,78.0,71.0,78.0,74.0,79.0,,80.0,30.2,1022.0,,,,3.0,2021-07-02 00:00:00,2021-06-29 00:00:00,2021-06-29 06:53:00
29.0,05:53,Calm,10.0,A Few Clouds,FEW120 FEW250,74.0,70.0,,,88.0,,,30.2,1021.8,,,,3.0,2021-07-02 00:00:00,2021-06-29 00:00:00,2021-06-29 05:53:00
29.0,04:53,Calm,10.0,Mostly Cloudy,BKN250,75.0,70.0,,,84.0,,,30.18,1021.2,,,,2.0,2021-07-01 00:00:00,2021-06-29 00:00:00,2021-06-29 04:53:00
29.0,03:53,Calm,10.0,Mostly Cloudy,BKN250,77.0,70.0,,,79.0,,79.0,30.18,1021.2,,,,2.0,2021-07-01 00:00:00,2021-06-29 00:00:00,2021-06-29 03:53:00
29.0,02:53,SE 3,10.0,Mostly Cloudy,BKN250,75.0,70.0,,,84.0,,,30.18,1021.1,,,,2.0,2021-07-01 00:00:00,2021-06-29 00:00:00,2021-06-29 02:53:00
29.0,01:53,Calm,10.0,Mostly Cloudy,BKN250,75.0,70.0,,,84.0,,,30.18,1021.1,,,,2.0,2021-07-01 00:00:00,2021-06-29 00:00:00,2021-06-29 01:53:00
29.0,00:53,Calm,10.0,Partly Cloudy,SCT250,78.0,70.0,88.0,78.0,76.0,,80.0,30.19,1021.5,,,,2.0,2021-07-01 00:00:00,2021-06-29 00:00:00,2021-06-29 00:53:00
28.0,23:53,S 3,10.0,Mostly Cloudy,FEW095 BKN250,79.0,70.0,,,74.0,,82.0,30.2,1021.9,,,,3.0,2021-07-01 00:00:00,2021-06-28 00:00:00,2021-06-28 23:53:00
28.0,22:53,Calm,10.0,Mostly Cloudy,FEW085 BKN120,81.0,70.0,,,69.0,,84.0,30.19,1021.6,,,,3.0,2021-07-01 00:00:00,2021-06-28 00:00:00,2021-06-28 22:53:00
28.0,21:53,E 3,10.0,Partly Cloudy,FEW060 FEW100 SCT250,81.0,70.0,,,69.0,,84.0,30.19,1021.3,,,,3.0,2021-07-01 00:00:00,2021-06-28 00:00:00,2021-06-28 21:53:00
28.0,20:53,Calm,10.0,Partly Cloudy,FEW060 SCT100 SCT250,85.0,70.0,,,61.0,,90.0,30.16,1020.5,,,,3.0,2021-07-01 00:00:00,2021-06-28 00:00:00,2021-06-28 20:53:00
28.0,19:53,NE 6,10.0,Partly Cloudy,FEW046 SCT090 SCT250,86.0,70.0,,,59.0,,91.0,30.14,1019.8,,,,3.0,2021-07-01 00:00:00,2021-06-28 00:00:00,2021-06-28 19:53:00
28.0,18:53,N 8,10.0,Partly Cloudy,FEW045 SCT065,88.0,70.0,93.0,84.0,55.0,,93.0,30.12,1019.3,,,0.09,3.0,2021-07-01 00:00:00,2021-06-28 00:00:00,2021-06-28 18:53:00
28.0,17:53,NE 5,10.0,Mostly Cloudy,FEW043TCU SCT065 BKN090,88.0,71.0,,,57.0,,94.0,30.13,1019.4,0.09,,,3.0,2021-07-01 00:00:00,2021-06-28 00:00:00,2021-06-28 17:53:00
28.0,16:53,E 8,10.0,Mostly Cloudy,SCT065TCU BKN110 BKN250,90.0,67.0,,,47.0,,93.0,30.14,1019.8,,,,3.0,2021-07-01 00:00:00,2021-06-28 00:00:00,2021-06-28 16:53:00
28.0,15:53,E 12,8.0,Light Rain,SCT055CB SCT080 BKN120 BKN250,88.0,71.0,,,57.0,,94.0,30.15,1020.2,,,,3.0,2021-07-01 00:00:00,2021-06-28 00:00:00,2021-06-28 15:53:00
28.0,14:53,SE 6,10.0,Mostly Cloudy,SCT065TCU BKN110 BKN250,91.0,65.0,,,42.0,,93.0,30.16,1020.6,,,,3.0,2021-07-01 00:00:00,2021-06-28 00:00:00,2021-06-28 14:53:00
28.0,13:53,SE 7,10.0,Mostly Cloudy,SCT050TCU BKN080 BKN100 BKN250,89.0,68.0,,,50.0,,93.0,30.18,1021.3,,,,3.0,2021-07-01 00:00:00,2021-06-28 00:00:00,2021-06-28 13:53:00
28.0,09:53,S 8,10.0,Partly Cloudy,FEW040 FEW090 SCT250,86.0,68.0,,,55.0,,89.0,30.22,1022.5,,,,3.0,2021-07-01 00:00:00,2021-06-28 00:00:00,2021-06-28 09:53:00
28.0,08:53,S 8,10.0,Partly Cloudy,SCT080,82.0,70.0,,,67.0,,86.0,30.23,1023.0,,,,3.0,2021-07-01 00:00:00,2021-06-28 00:00:00,2021-06-28 08:53:00
28.0,07:53,S 7,10.0,Mostly Cloudy,BKN070 BKN250,79.0,69.0,,,72.0,,82.0,30.23,1022.8,,,,3.0,2021-07-01 00:00:00,2021-06-28 00:00:00,2021-06-28 07:53:00
28.0,06:53,SE 3,10.0,A Few Clouds,FEW250,77.0,69.0,77.0,73.0,77.0,,79.0,30.21,1022.1,,,,3.0,2021-07-01 00:00:00,2021-06-28 00:00:00,2021-06-28 06:53:00
28.0,05:53,SE 3,10.0,A Few Clouds,FEW250,74.0,68.0,,,82.0,,,30.19,1021.4,,,,3.0,2021-07-01 00:00:00,2021-06-28 00:00:00,2021-06-28 05:53:00
28.0,04:53,SE 5,10.0,Fair,CLR,75.0,68.0,,,79.0,,,30.18,1021.0,,,,2.0,2021-06-30 00:00:00,2021-06-28 00:00:00,2021-06-28 04:53:00
28.0,03:53,S 3,10.0,Fair,CLR,74.0,68.0,,,82.0,,,30.16,1020.3,,,,2.0,2021-06-30 00:00:00,2021-06-28 00:00:00,2021-06-28 03:53:00
28.0,02:53,S 3,10.0,Fair,CLR,74.0,68.0,,,82.0,,,30.15,1020.0,,,,2.0,2021-06-30 00:00:00,2021-06-28 00:00:00,2021-06-28 02:53:00
28.0,01:53,S 5,10.0,Fair,CLR,75.0,68.0,,,79.0,,,30.14,1019.6,,,,2.0,2021-06-30 00:00:00,2021-06-28 00:00:00,2021-06-28 01:53:00
28.0,00:53,Calm,10.0,Fair,CLR,77.0,68.0,88.0,76.0,74.0,,79.0,30.14,1019.8,,,,2.0,2021-06-30 00:00:00,2021-06-28 00:00:00,2021-06-28 00:53:00
27.0,23:53,S 6,10.0,Fair,CLR,78.0,68.0,,,71.0,,80.0,30.15,1020.2,,,,3.0,2021-06-30 00:00:00,2021-06-27 00:00:00,2021-06-27 23:53:00
27.0,22:53,S 6,10.0,Fair,CLR,79.0,68.0,,,69.0,,81.0,30.15,1019.9,,,,3.0,2021-06-30 00:00:00,2021-06-27 00:00:00,2021-06-27 22:53:00
27.0,21:53,S 6,10.0,A Few Clouds,FEW250,82.0,68.0,,,63.0,,85.0,30.13,1019.5,,,,3.0,2021-06-30 00:00:00,2021-06-27 00:00:00,2021-06-27 21:53:00
27.0,20:53,S 6,10.0,A Few Clouds,FEW250,84.0,68.0,,,59.0,,87.0,30.11,1018.6,,,,3.0,2021-06-30 00:00:00,2021-06-27 00:00:00,2021-06-27 20:53:00
27.0,19:53,S 10,10.0,A Few Clouds,FEW055 FEW250,86.0,68.0,,,55.0,,89.0,30.09,1018.3,,,,3.0,2021-06-30 00:00:00,2021-06-27 00:00:00,2021-06-27 19:53:00
27.0,18:53,SE 10,10.0,A Few Clouds,FEW055 FEW250,88.0,68.0,94.0,88.0,52.0,,92.0,30.08,1017.8,,,,3.0,2021-06-30 00:00:00,2021-06-27 00:00:00,2021-06-27 18:53:00
27.0,17:53,SE 10,10.0,Partly Cloudy,FEW055 SCT110 SCT250,90.0,66.0,,,45.0,,92.0,30.07,1017.5,,,,3.0,2021-06-30 00:00:00,2021-06-27 00:00:00,2021-06-27 17:53:00
27.0,16:53,S 8,10.0,Mostly Cloudy,BKN055 BKN110 BKN250,92.0,68.0,,,46.0,,96.0,30.07,1017.4,,,,3.0,2021-06-30 00:00:00,2021-06-27 00:00:00,2021-06-27 16:53:00
27.0,15:53,S 10,10.0,Mostly Cloudy,SCT055TCU SCT080 BKN250,93.0,66.0,,,41.0,,96.0,30.07,1017.7,,,,3.0,2021-06-30 00:00:00,2021-06-27 00:00:00,2021-06-27 15:53:00
27.0,14:53,S 5,10.0,Mostly Cloudy,SCT055TCU SCT080 BKN250,93.0,66.0,,,41.0,,96.0,30.09,1018.1,,,,3.0,2021-06-30 00:00:00,2021-06-27 00:00:00,2021-06-27 14:53:00
27.0,13:53,SW 9,10.0,Mostly Cloudy,SCT050TCU SCT075 BKN250,92.0,65.0,,,41.0,,94.0,30.1,1018.6,,,,3.0,2021-06-30 00:00:00,2021-06-27 00:00:00,2021-06-27 13:53:00
27.0,12:53,SW 8,10.0,Partly Cloudy,SCT050 SCT075,90.0,65.0,91.0,74.0,44.0,,92.0,30.12,1019.2,,,,3.0,2021-06-30 00:00:00,2021-06-27 00:00:00,2021-06-27 12:53:00
27.0,11:53,SW 8 G 21,10.0,Mostly Cloudy,BKN039TCU BKN050 BKN075,85.0,68.0,,,57.0,,88.0,30.14,1020.0,,,,3.0,2021-06-30 00:00:00,2021-06-27 00:00:00,2021-06-27 11:53:00
27.0,10:53,SW 15 G 21,10.0,Mostly Cloudy,SCT035 BKN050 BKN070,88.0,69.0,,,54.0,,93.0,30.15,1020.2,,,,3.0,2021-06-30 00:00:00,2021-06-27 00:00:00,2021-06-27 10:53:00
27.0,09:53,SW 9,10.0,Partly Cloudy,SCT032,86.0,69.0,,,57.0,,90.0,30.15,1020.2,,,,3.0,2021-06-30 00:00:00,2021-06-27 00:00:00,2021-06-27 09:53:00
27.0,08:53,S 10,10.0,A Few Clouds,FEW034 FEW200,83.0,69.0,,,63.0,,87.0,30.15,1020.2,,,,3.0,2021-06-30 00:00:00,2021-06-27 00:00:00,2021-06-27 08:53:00
27.0,07:53,S 8,10.0,A Few Clouds,FEW029 FEW200,79.0,68.0,,,69.0,,81.0,30.14,1020.0,,,,3.0,2021-06-30 00:00:00,2021-06-27 00:00:00,2021-06-27 07:53:00
27.0,06:53,S 7,10.0,A Few Clouds,FEW027 FEW140,74.0,66.0,76.0,70.0,76.0,,,30.12,1019.2,,,,3.0,2021-06-30 00:00:00,2021-06-27 00:00:00,2021-06-27 06:53:00
27.0,05:53,S 3,10.0,A Few Clouds,FEW250,72.0,66.0,,,82.0,,,30.1,1018.5,,,,3.0,2021-06-30 00:00:00,2021-06-27 00:00:00,2021-06-27 05:53:00
27.0,04:53,S 6,10.0,Fair,CLR,71.0,65.0,,,81.0,,,30.08,1018.0,,,,2.0,2021-06-29 00:00:00,2021-06-27 00:00:00,2021-06-27 04:53:00
27.0,03:53,S 7,10.0,Fair,CLR,71.0,65.0,,,81.0,,,30.08,1017.8,,,,2.0,2021-06-29 00:00:00,2021-06-27 00:00:00,2021-06-27 03:53:00
27.0,02:53,S 5,10.0,Fair,CLR,72.0,65.0,,,79.0,,,30.09,1018.1,,,,2.0,2021-06-29 00:00:00,2021-06-27 00:00:00,2021-06-27 02:53:00
27.0,01:53,S 6,10.0,Fair,CLR,73.0,65.0,,,76.0,,,30.09,1018.1,,,,2.0,2021-06-29 00:00:00,2021-06-27 00:00:00,2021-06-27 01:53:00
27.0,00:53,S 8,10.0,Fair,CLR,75.0,66.0,87.0,75.0,74.0,,,30.08,1018.0,,,,2.0,2021-06-29 00:00:00,2021-06-27 00:00:00,2021-06-27 00:53:00
26.0,23:53,S 8,10.0,A Few Clouds,FEW250,76.0,65.0,,,69.0,,78.0,30.09,1018.1,,,,3.0,2021-06-29 00:00:00,2021-06-26 00:00:00,2021-06-26 23:53:00
26.0,22:53,S 10,10.0,Partly Cloudy,SCT250,78.0,65.0,,,64.0,,80.0,30.08,1017.9,,,,3.0,2021-06-29 00:00:00,2021-06-26 00:00:00,2021-06-26 22:53:00
26.0,21:53,S 10,10.0,Mostly Cloudy,BKN250,80.0,65.0,,,60.0,,82.0,30.08,1017.7,,,,3.0,2021-06-29 00:00:00,2021-06-26 00:00:00,2021-06-26 21:53:00
26.0,20:53,S 9,10.0,Mostly Cloudy,BKN250,81.0,65.0,,,58.0,,83.0,30.04,1016.5,,,,3.0,2021-06-29 00:00:00,2021-06-26 00:00:00,2021-06-26 20:53:00
26.0,19:53,S 10,10.0,Mostly Cloudy,FEW055 BKN250,84.0,64.0,,,51.0,,85.0,30.04,1016.3,,,,3.0,2021-06-29 00:00:00,2021-06-26 00:00:00,2021-06-26 19:53:00
26.0,18:53,S 12,10.0,A Few Clouds,FEW055 FEW250,87.0,63.0,91.0,87.0,45.0,,88.0,30.03,1016.2,,,,3.0,2021-06-29 00:00:00,2021-06-26 00:00:00,2021-06-26 18:53:00
26.0,17:53,S 12,10.0,Partly Cloudy,FEW055 SCT250,89.0,63.0,,,42.0,,90.0,30.04,1016.3,,,,3.0,2021-06-29 00:00:00,2021-06-26 00:00:00,2021-06-26 17:53:00
26.0,16:53,S 15 G 23,10.0,Partly Cloudy,FEW050 SCT250,89.0,63.0,,,42.0,,90.0,30.06,1017.0,,,,3.0,2021-06-29 00:00:00,2021-06-26 00:00:00,2021-06-26 16:53:00
26.0,15:53,S 12,10.0,Mostly Cloudy,SCT050 BKN250,89.0,63.0,,,42.0,,90.0,30.07,1017.6,,,,3.0,2021-06-29 00:00:00,2021-06-26 00:00:00,2021-06-26 15:53:00
26.0,14:53,S 15 G 26,10.0,Mostly Cloudy,SCT050 BKN250,89.0,63.0,,,42.0,,90.0,30.09,1018.0,,,,3.0,2021-06-29 00:00:00,2021-06-26 00:00:00,2021-06-26 14:53:00
26.0,13:53,S 10 G 25,10.0,Mostly Cloudy,SCT049 BKN250,89.0,64.0,,,43.0,,90.0,30.1,1018.7,,,,3.0,2021-06-29 00:00:00,2021-06-26 00:00:00,2021-06-26 13:53:00
26.0,12:53,S 16 G 26,10.0,Mostly Cloudy,SCT045 SCT055 BKN250,87.0,65.0,88.0,73.0,48.0,,89.0,30.12,1019.0,,,,3.0,2021-06-29 00:00:00,2021-06-26 00:00:00,2021-06-26 12:53:00
26.0,11:53,S 17,10.0,Mostly Cloudy,SCT043 BKN050 BKN250,86.0,65.0,,,49.0,,88.0,30.13,1019.5,,,,3.0,2021-06-29 00:00:00,2021-06-26 00:00:00,2021-06-26 11:53:00
26.0,10:53,S 15 G 25,10.0,Mostly Cloudy,FEW037 SCT050 BKN250,85.0,64.0,,,50.0,,86.0,30.12,1019.3,,,,3.0,2021-06-29 00:00:00,2021-06-26 00:00:00,2021-06-26 10:53:00
26.0,09:53,S 14 G 24,10.0,Mostly Cloudy,FEW065 BKN250,83.0,64.0,,,53.0,,84.0,30.13,1019.5,,,,3.0,2021-06-29 00:00:00,2021-06-26 00:00:00,2021-06-26 09:53:00
26.0,08:53,S 12 G 21,10.0,Mostly Cloudy,BKN250,81.0,65.0,,,58.0,,83.0,30.13,1019.5,,,,3.0,2021-06-29 00:00:00,2021-06-26 00:00:00,2021-06-26 08:53:00
26.0,07:53,S 8,10.0,Partly Cloudy,SCT250,76.0,64.0,,,67.0,,78.0,30.13,1019.4,,,,3.0,2021-06-29 00:00:00,2021-06-26 00:00:00,2021-06-26 07:53:00
26.0,06:53,S 8,10.0,Partly Cloudy,SCT250,73.0,64.0,76.0,71.0,74.0,,,30.11,1019.0,,,,3.0,2021-06-29 00:00:00,2021-06-26 00:00:00,2021-06-26 06:53:00
26.0,05:53,S 8,10.0,A Few Clouds,FEW250,72.0,64.0,,,76.0,,,30.09,1018.3,,,,2.0,2021-06-28 00:00:00,2021-06-26 00:00:00,2021-06-26 05:53:00
26.0,04:53,S 9,10.0,A Few Clouds,FEW250,72.0,65.0,,,79.0,,,30.08,1017.8,,,,2.0,2021-06-28 00:00:00,2021-06-26 00:00:00,2021-06-26 04:53:00
26.0,03:53,S 7,10.0,Fair,CLR,71.0,65.0,,,81.0,,,30.08,1018.1,,,,2.0,2021-06-28 00:00:00,2021-06-26 00:00:00,2021-06-26 03:53:00
26.0,02:53,S 7,10.0,Fair,CLR,72.0,65.0,,,79.0,,,30.09,1018.1,,,,2.0,2021-06-28 00:00:00,2021-06-26 00:00:00,2021-06-26 02:53:00
26.0,01:53,S 8,10.0,Fair,CLR,74.0,65.0,,,74.0,,,30.09,1018.3,,,,2.0,2021-06-28 00:00:00,2021-06-26 00:00:00,2021-06-26 01:53:00
26.0,00:53,S 9,10.0,Fair,CLR,76.0,65.0,83.0,76.0,69.0,,78.0,30.09,1018.2,,,,2.0,2021-06-28 00:00:00,2021-06-26 00:00:00,2021-06-26 00:53:00
25.0,23:53,S 12,10.0,Partly Cloudy,SCT120,77.0,66.0,,,69.0,,79.0,30.09,1018.3,,,,3.0,2021-06-28 00:00:00,2021-06-25 00:00:00,2021-06-25 23:53:00
25.0,22:53,S 12,10.0,Partly Cloudy,SCT120,78.0,66.0,,,67.0,,80.0,30.08,1018.0,,,,3.0,2021-06-28 00:00:00,2021-06-25 00:00:00,2021-06-25 22:53:00
25.0,21:53,S 9,10.0,Partly Cloudy,SCT120,78.0,66.0,,,67.0,,80.0,30.08,1017.8,,,,3.0,2021-06-28 00:00:00,2021-06-25 00:00:00,2021-06-25 21:53:00
25.0,20:53,S 13 G 21,10.0,Mostly Cloudy,BKN120,80.0,66.0,,,62.0,,82.0,30.05,1016.9,,,,3.0,2021-06-28 00:00:00,2021-06-25 00:00:00,2021-06-25 20:53:00
25.0,19:53,S 13,10.0,Mostly Cloudy,FEW055 BKN120,81.0,67.0,,,62.0,,83.0,30.05,1016.8,,,,3.0,2021-06-28 00:00:00,2021-06-25 00:00:00,2021-06-25 19:53:00
25.0,18:53,SE 17,10.0,Mostly Cloudy,SCT055 BKN120,83.0,67.0,87.0,83.0,59.0,,86.0,30.05,1017.0,,,,3.0,2021-06-28 00:00:00,2021-06-25 00:00:00,2021-06-25 18:53:00
25.0,17:53,S 14,10.0,Overcast,OVC055,83.0,68.0,,,61.0,,86.0,30.07,1017.4,,,,3.0,2021-06-28 00:00:00,2021-06-25 00:00:00,2021-06-25 17:53:00
25.0,16:53,S 12,10.0,Overcast,FEW034 SCT041 OVC049,83.0,67.0,,,59.0,,86.0,30.1,1018.4,,,,3.0,2021-06-28 00:00:00,2021-06-25 00:00:00,2021-06-25 16:53:00
25.0,15:53,S 10,10.0,Mostly Cloudy,SCT035 BKN043,83.0,67.0,,,59.0,,86.0,30.11,1018.7,,,,3.0,2021-06-28 00:00:00,2021-06-25 00:00:00,2021-06-25 15:53:00
25.0,14:53,S 13,10.0,Overcast,BKN038 OVC045,84.0,67.0,,,57.0,,87.0,30.11,1018.8,,,,3.0,2021-06-28 00:00:00,2021-06-25 00:00:00,2021-06-25 14:53:00
25.0,13:53,S 15 G 23,10.0,Overcast,BKN034 OVC044,84.0,67.0,,,57.0,,87.0,30.12,1019.1,,,,3.0,2021-06-28 00:00:00,2021-06-25 00:00:00,2021-06-25 13:53:00
25.0,12:53,S 14 G 24,10.0,Mostly Cloudy,BKN032 BKN250,85.0,67.0,86.0,75.0,55.0,,88.0,30.13,1019.5,,,,3.0,2021-06-28 00:00:00,2021-06-25 00:00:00,2021-06-25 12:53:00
25.0,11:53,S 14,10.0,Overcast,OVC030,82.0,67.0,,,60.0,,84.0,30.16,1020.5,,,,3.0,2021-06-28 00:00:00,2021-06-25 00:00:00,2021-06-25 11:53:00
25.0,10:53,S 15 G 23,10.0,Mostly Cloudy,BKN030 BKN250,83.0,67.0,,,59.0,,86.0,30.16,1020.6,,,,3.0,2021-06-28 00:00:00,2021-06-25 00:00:00,2021-06-25 10:53:00
25.0,09:53,S 14 G 28,10.0,Mostly Cloudy,SCT027 SCT200 BKN250,83.0,67.0,,,59.0,,86.0,30.16,1020.5,,,,3.0,2021-06-28 00:00:00,2021-06-25 00:00:00,2021-06-25 09:53:00
25.0,08:53,S 16,10.0,Mostly Cloudy,FEW025 SCT200 BKN250,79.0,66.0,,,65.0,,81.0,30.16,1020.5,,,,3.0,2021-06-28 00:00:00,2021-06-25 00:00:00,2021-06-25 08:53:00
25.0,07:53,S 12 G 22,10.0,Overcast,SCT023 BKN200 OVC250,77.0,66.0,,,69.0,,79.0,30.15,1020.2,,,,3.0,2021-06-28 00:00:00,2021-06-25 00:00:00,2021-06-25 07:53:00
25.0,06:53,S 12,10.0,Overcast,FEW027 FEW160 BKN210 OVC250,75.0,65.0,77.0,74.0,71.0,,,30.13,1019.7,,,,3.0,2021-06-28 00:00:00,2021-06-25 00:00:00,2021-06-25 06:53:00
25.0,05:53,S 10,10.0,Mostly Cloudy,FEW150 BKN250,74.0,64.0,,,71.0,,,30.13,1019.4,,,,2.0,2021-06-27 00:00:00,2021-06-25 00:00:00,2021-06-25 05:53:00
25.0,04:53,S 9,10.0,Partly Cloudy,SCT200,74.0,64.0,,,71.0,,,30.13,1019.4,,,,2.0,2021-06-27 00:00:00,2021-06-25 00:00:00,2021-06-25 04:53:00
25.0,03:53,S 10,10.0,A Few Clouds,FEW200,76.0,64.0,,,67.0,,78.0,30.14,1019.7,,,,2.0,2021-06-27 00:00:00,2021-06-25 00:00:00,2021-06-25 03:53:00
25.0,02:53,S 13,10.0,Fair,CLR,76.0,64.0,,,67.0,,78.0,30.13,1019.4,,,,2.0,2021-06-27 00:00:00,2021-06-25 00:00:00,2021-06-25 02:53:00
25.0,01:53,S 12,10.0,Fair,CLR,77.0,65.0,,,66.0,,79.0,30.12,1019.2,,,,2.0,2021-06-27 00:00:00,2021-06-25 00:00:00,2021-06-25 01:53:00
25.0,00:53,S 12 G 23,10.0,A Few Clouds,FEW200,77.0,65.0,85.0,77.0,66.0,,79.0,30.11,1018.9,,,,2.0,2021-06-27 00:00:00,2021-06-25 00:00:00,2021-06-25 00:53:00
24.0,23:53,S 13,10.0,Fair,CLR,78.0,65.0,,,64.0,,80.0,30.12,1019.1,,,,3.0,2021-06-27 00:00:00,2021-06-24 00:00:00,2021-06-24 23:53:00
24.0,22:53,S 14,10.0,A Few Clouds,FEW200,79.0,66.0,,,65.0,,81.0,30.11,1018.7,,,,3.0,2021-06-27 00:00:00,2021-06-24 00:00:00,2021-06-24 22:53:00
24.0,21:53,S 14 G 21,10.0,Partly Cloudy,SCT250,80.0,66.0,,,62.0,,82.0,30.1,1018.4,,,,3.0,2021-06-27 00:00:00,2021-06-24 00:00:00,2021-06-24 21:53:00
24.0,20:53,S 7,10.0,Mostly Cloudy,FEW200 BKN250,81.0,66.0,,,61.0,,83.0,30.09,1018.1,,,,3.0,2021-06-27 00:00:00,2021-06-24 00:00:00,2021-06-24 20:53:00
24.0,19:53,S 8,10.0,Mostly Cloudy,FEW060 SCT200 BKN250,84.0,66.0,,,55.0,,86.0,30.09,1018.1,,,,3.0,2021-06-27 00:00:00,2021-06-24 00:00:00,2021-06-24 19:53:00
24.0,18:53,S 10,10.0,Mostly Cloudy,FEW070 SCT090 BKN250,86.0,65.0,92.0,86.0,49.0,,88.0,30.09,1018.2,,,,3.0,2021-06-27 00:00:00,2021-06-24 00:00:00,2021-06-24 18:53:00
24.0,17:53,S 13,10.0,Mostly Cloudy,SCT070 BKN250,87.0,65.0,,,48.0,,89.0,30.08,1017.8,,,,3.0,2021-06-27 00:00:00,2021-06-24 00:00:00,2021-06-24 17:53:00
24.0,16:53,SW 9,10.0,Mostly Cloudy,SCT075 BKN250,89.0,63.0,,,42.0,,90.0,30.08,1018.1,,,,3.0,2021-06-27 00:00:00,2021-06-24 00:00:00,2021-06-24 16:53:00
24.0,15:53,S 8 G 18,10.0,Mostly Cloudy,SCT060 BKN080 BKN250,89.0,62.0,,,41.0,,90.0,30.1,1018.7,,,,3.0,2021-06-27 00:00:00,2021-06-24 00:00:00,2021-06-24 15:53:00
24.0,14:53,S 13 G 23,10.0,Mostly Cloudy,BKN055 BKN250,90.0,62.0,,,39.0,,90.0,30.12,1019.4,,,,3.0,2021-06-27 00:00:00,2021-06-24 00:00:00,2021-06-24 14:53:00
24.0,13:53,S 13,10.0,Mostly Cloudy,SCT055 BKN250,90.0,63.0,,,41.0,,91.0,30.13,1019.6,,,,3.0,2021-06-27 00:00:00,2021-06-24 00:00:00,2021-06-24 13:53:00
24.0,12:53,S 10 G 21,10.0,Mostly Cloudy,SCT048 SCT055 BKN250,89.0,62.0,89.0,68.0,41.0,,90.0,30.14,1020.0,,,,3.0,2021-06-27 00:00:00,2021-06-24 00:00:00,2021-06-24 12:53:00
24.0,11:53,S 9 G 20,10.0,Mostly Cloudy,BKN044 BKN250,88.0,65.0,,,46.0,,90.0,30.15,1020.4,,,,3.0,2021-06-27 00:00:00,2021-06-24 00:00:00,2021-06-24 11:53:00
24.0,10:53,S 9 G 18,10.0,Partly Cloudy,FEW046 SCT250,85.0,64.0,,,50.0,,86.0,30.16,1020.8,,,,3.0,2021-06-27 00:00:00,2021-06-24 00:00:00,2021-06-24 10:53:00
24.0,09:53,S 10,10.0,Partly Cloudy,FEW040 SCT250,82.0,63.0,,,53.0,,83.0,30.17,1021.0,,,,3.0,2021-06-27 00:00:00,2021-06-24 00:00:00,2021-06-24 09:53:00
24.0,08:53,S 9 G 21,10.0,A Few Clouds,FEW250,79.0,62.0,,,56.0,,80.0,30.18,1021.3,,,,3.0,2021-06-27 00:00:00,2021-06-24 00:00:00,2021-06-24 08:53:00
24.0,07:53,S 3,10.0,A Few Clouds,FEW250,73.0,62.0,,,69.0,,,30.16,1020.6,,,,3.0,2021-06-27 00:00:00,2021-06-24 00:00:00,2021-06-24 07:53:00
24.0,06:53,SE 5,10.0,A Few Clouds,FEW250,68.0,59.0,68.0,62.0,73.0,,,30.15,1020.2,,,,3.0,2021-06-27 00:00:00,2021-06-24 00:00:00,2021-06-24 06:53:00
24.0,05:53,Calm,10.0,Fair,CLR,63.0,57.0,,,81.0,,,30.14,1020.0,,,,2.0,2021-06-26 00:00:00,2021-06-24 00:00:00,2021-06-24 05:53:00
24.0,04:53,S 3,10.0,Fair,CLR,63.0,57.0,,,81.0,,,30.14,1019.9,,,,2.0,2021-06-26 00:00:00,2021-06-24 00:00:00,2021-06-24 04:53:00
24.0,03:53,Calm,10.0,Fair,CLR,64.0,57.0,,,78.0,,,30.14,1020.0,,,,2.0,2021-06-26 00:00:00,2021-06-24 00:00:00,2021-06-24 03:53:00
24.0,02:53,S 3,10.0,Fair,CLR,65.0,56.0,,,73.0,,,30.12,1019.4,,,,2.0,2021-06-26 00:00:00,2021-06-24 00:00:00,2021-06-24 02:53:00
24.0,01:53,Calm,10.0,Fair,CLR,65.0,57.0,,,76.0,,,30.12,1019.5,,,,2.0,2021-06-26 00:00:00,2021-06-24 00:00:00,2021-06-24 01:53:00
24.0,00:53,S 3,10.0,Fair,CLR,66.0,57.0,82.0,66.0,73.0,,,30.13,1019.8,,,,2.0,2021-06-26 00:00:00,2021-06-24 00:00:00,2021-06-24 00:53:00
23.0,23:53,S 5,10.0,Fair,CLR,68.0,57.0,,,68.0,,,30.15,1020.2,,,,3.0,2021-06-26 00:00:00,2021-06-23 00:00:00,2021-06-23 23:53:00
23.0,22:53,Calm,10.0,Fair,CLR,70.0,57.0,,,64.0,,,30.14,1020.1,,,,3.0,2021-06-26 00:00:00,2021-06-23 00:00:00,2021-06-23 22:53:00
23.0,21:53,Calm,10.0,A Few Clouds,FEW250,72.0,56.0,,,57.0,,,30.14,1019.9,,,,3.0,2021-06-26 00:00:00,2021-06-23 00:00:00,2021-06-23 21:53:00
23.0,20:53,SE 5,10.0,A Few Clouds,FEW250,75.0,54.0,,,48.0,,,30.11,1019.1,,,,3.0,2021-06-26 00:00:00,2021-06-23 00:00:00,2021-06-23 20:53:00
23.0,19:53,SE 3,10.0,A Few Clouds,FEW250,78.0,54.0,,,43.0,,79.0,30.11,1018.9,,,,3.0,2021-06-26 00:00:00,2021-06-23 00:00:00,2021-06-23 19:53:00
23.0,18:53,S 7,10.0,A Few Clouds,FEW250,82.0,53.0,84.0,80.0,37.0,,81.0,30.11,1018.9,,,,3.0,2021-06-26 00:00:00,2021-06-23 00:00:00,2021-06-23 18:53:00
23.0,17:53,Calm,10.0,A Few Clouds,FEW250,84.0,48.0,,,29.0,,82.0,30.1,1018.8,,,,3.0,2021-06-26 00:00:00,2021-06-23 00:00:00,2021-06-23 17:53:00
23.0,16:53,SE 7,10.0,A Few Clouds,FEW250,84.0,50.0,,,31.0,,82.0,30.11,1019.0,,,,3.0,2021-06-26 00:00:00,2021-06-23 00:00:00,2021-06-23 16:53:00
23.0,15:53,NE 5,10.0,A Few Clouds,FEW250,84.0,50.0,,,31.0,,82.0,30.12,1019.2,,,,3.0,2021-06-26 00:00:00,2021-06-23 00:00:00,2021-06-23 15:53:00
23.0,14:53,NE 6,10.0,A Few Clouds,FEW250,82.0,49.0,,,32.0,,81.0,30.13,1019.8,,,,3.0,2021-06-26 00:00:00,2021-06-23 00:00:00,2021-06-23 14:53:00
23.0,13:53,SE 7,10.0,A Few Clouds,FEW250,80.0,49.0,,,34.0,,79.0,30.14,1020.0,,,,3.0,2021-06-26 00:00:00,2021-06-23 00:00:00,2021-06-23 13:53:00
23.0,12:53,Vrbl 5,10.0,A Few Clouds,FEW250,80.0,50.0,80.0,62.0,35.0,,80.0,30.15,1020.4,,,,3.0,2021-06-26 00:00:00,2021-06-23 00:00:00,2021-06-23 12:53:00
23.0,11:53,NE 8,10.0,A Few Clouds,FEW055 FEW250,78.0,50.0,,,37.0,,79.0,30.16,1020.9,,,,3.0,2021-06-26 00:00:00,2021-06-23 00:00:00,2021-06-23 11:53:00
23.0,10:53,Calm,10.0,Partly Cloudy,FEW047 SCT250,76.0,50.0,,,40.0,,78.0,30.17,1021.0,,,,3.0,2021-06-26 00:00:00,2021-06-23 00:00:00,2021-06-23 10:53:00
23.0,09:53,SE 7,10.0,Partly Cloudy,FEW043 SCT250,74.0,52.0,,,46.0,,,30.16,1020.6,,,,3.0,2021-06-26 00:00:00,2021-06-23 00:00:00,2021-06-23 09:53:00
23.0,08:53,Calm,10.0,Mostly Cloudy,BKN250,70.0,55.0,,,59.0,,,30.15,1020.4,,,,3.0,2021-06-26 00:00:00,2021-06-23 00:00:00,2021-06-23 08:53:00
23.0,07:53,E 5,10.0,Mostly Cloudy,BKN250,67.0,55.0,,,66.0,,,30.15,1020.3,,,,3.0,2021-06-26 00:00:00,2021-06-23 00:00:00,2021-06-23 07:53:00
23.0,06:53,Calm,10.0,Partly Cloudy,FEW200 SCT250,61.0,54.0,63.0,56.0,78.0,,,30.14,1020.2,,,,3.0,2021-06-26 00:00:00,2021-06-23 00:00:00,2021-06-23 06:53:00
23.0,05:53,S 3,10.0,A Few Clouds,FEW200,57.0,52.0,,,83.0,,,30.13,1019.8,,,,3.0,2021-06-26 00:00:00,2021-06-23 00:00:00,2021-06-23 05:53:00
23.0,04:53,Calm,10.0,Fair,CLR,57.0,52.0,,,83.0,,,30.11,1019.2,,,,2.0,2021-06-25 00:00:00,2021-06-23 00:00:00,2021-06-23 04:53:00
23.0,03:53,Calm,10.0,Fair,CLR,58.0,52.0,,,81.0,,,30.1,1018.9,,,,2.0,2021-06-25 00:00:00,2021-06-23 00:00:00,2021-06-23 03:53:00
23.0,02:53,Calm,10.0,Fair,CLR,58.0,52.0,,,81.0,,,30.1,1018.8,,,,2.0,2021-06-25 00:00:00,2021-06-23 00:00:00,2021-06-23 02:53:00
23.0,01:53,Calm,10.0,Fair,CLR,60.0,52.0,,,75.0,,,30.09,1018.4,,,,2.0,2021-06-25 00:00:00,2021-06-23 00:00:00,2021-06-23 01:53:00
23.0,00:53,N 6,10.0,Fair,CLR,63.0,52.0,77.0,63.0,68.0,,,30.09,1018.5,,,,2.0,2021-06-25 00:00:00,2021-06-23 00:00:00,2021-06-23 00:53:00
22.0,23:53,NE 6,10.0,Fair,CLR,65.0,51.0,,,61.0,,,30.08,1018.1,,,,3.0,2021-06-25 00:00:00,2021-06-22 00:00:00,2021-06-22 23:53:00
22.0,22:53,N 7,10.0,Fair,CLR,67.0,50.0,,,55.0,,,30.08,1017.8,,,,3.0,2021-06-25 00:00:00,2021-06-22 00:00:00,2021-06-22 22:53:00
22.0,21:53,N 6,10.0,Fair,CLR,69.0,50.0,,,51.0,,,30.07,1017.6,,,,3.0,2021-06-25 00:00:00,2021-06-22 00:00:00,2021-06-22 21:53:00
22.0,20:53,N 7,10.0,A Few Clouds,FEW055,70.0,49.0,,,47.0,,,30.05,1016.9,,,,3.0,2021-06-25 00:00:00,2021-06-22 00:00:00,2021-06-22 20:53:00
22.0,19:53,N 8,10.0,A Few Clouds,FEW060,73.0,49.0,,,43.0,,,30.04,1016.6,,,,3.0,2021-06-25 00:00:00,2021-06-22 00:00:00,2021-06-22 19:53:00
22.0,18:53,N 6,10.0,A Few Clouds,FEW065,77.0,49.0,81.0,77.0,37.0,,78.0,30.02,1016.0,,,,3.0,2021-06-25 00:00:00,2021-06-22 00:00:00,2021-06-22 18:53:00
22.0,17:53,N 9,10.0,A Few Clouds,FEW065 FEW250,78.0,50.0,,,37.0,,79.0,30.01,1015.8,,,,3.0,2021-06-25 00:00:00,2021-06-22 00:00:00,2021-06-22 17:53:00
22.0,16:53,Vrbl 3,10.0,Partly Cloudy,FEW060 SCT250,80.0,50.0,,,35.0,,80.0,30.01,1015.7,,,,3.0,2021-06-25 00:00:00,2021-06-22 00:00:00,2021-06-22 16:53:00
22.0,15:53,Calm,10.0,A Few Clouds,FEW060,78.0,49.0,,,36.0,,78.0,30.01,1015.5,,,,3.0,2021-06-25 00:00:00,2021-06-22 00:00:00,2021-06-22 15:53:00
22.0,14:53,N 10 G 17,10.0,A Few Clouds,FEW060,80.0,50.0,,,35.0,,80.0,30.01,1015.5,,,,3.0,2021-06-25 00:00:00,2021-06-22 00:00:00,2021-06-22 14:53:00
22.0,13:53,NE 7,10.0,A Few Clouds,FEW060,79.0,50.0,,,36.0,,79.0,30.01,1015.7,,,,3.0,2021-06-25 00:00:00,2021-06-22 00:00:00,2021-06-22 13:53:00
22.0,12:53,N 10 G 21,10.0,Partly Cloudy,SCT055,77.0,51.0,79.0,64.0,40.0,,78.0,30.03,1016.2,,,,3.0,2021-06-25 00:00:00,2021-06-22 00:00:00,2021-06-22 12:53:00
22.0,11:53,N 12 G 18,10.0,Partly Cloudy,SCT050,76.0,50.0,,,40.0,,78.0,30.03,1016.4,,,,3.0,2021-06-25 00:00:00,2021-06-22 00:00:00,2021-06-22 11:53:00
22.0,10:53,N 10 G 20,10.0,Partly Cloudy,SCT044,74.0,51.0,,,45.0,,,30.02,1016.0,,,,3.0,2021-06-25 00:00:00,2021-06-22 00:00:00,2021-06-22 10:53:00
22.0,09:53,N 8,10.0,A Few Clouds,FEW037 FEW250,74.0,54.0,,,50.0,,,30.01,1015.7,,,,3.0,2021-06-25 00:00:00,2021-06-22 00:00:00,2021-06-22 09:53:00
22.0,08:53,N 8,10.0,A Few Clouds,FEW200 FEW250,70.0,53.0,,,55.0,,,30.01,1015.8,,,,3.0,2021-06-25 00:00:00,2021-06-22 00:00:00,2021-06-22 08:53:00
22.0,07:53,N 9,10.0,A Few Clouds,FEW040 FEW200,67.0,55.0,,,66.0,,,30.0,1015.4,,,,3.0,2021-06-25 00:00:00,2021-06-22 00:00:00,2021-06-22 07:53:00
22.0,06:53,N 6,10.0,Partly Cloudy,FEW040 FEW180 SCT250,65.0,55.0,69.0,63.0,70.0,,,29.98,1014.5,,,,3.0,2021-06-25 00:00:00,2021-06-22 00:00:00,2021-06-22 06:53:00
22.0,05:53,N 6,10.0,Mostly Cloudy,FEW045 SCT150 BKN250,64.0,56.0,,,75.0,,,29.95,1013.5,,,,3.0,2021-06-25 00:00:00,2021-06-22 00:00:00,2021-06-22 05:53:00
22.0,04:53,N 8,10.0,A Few Clouds,FEW150,65.0,57.0,,,76.0,,,29.93,1012.8,,,,2.0,2021-06-24 00:00:00,2021-06-22 00:00:00,2021-06-22 04:53:00
22.0,03:53,NW 8,10.0,Fair,CLR,66.0,57.0,,,73.0,,,29.92,1012.5,,,,2.0,2021-06-24 00:00:00,2021-06-22 00:00:00,2021-06-22 03:53:00
22.0,02:53,N 8,10.0,Overcast,OVC080,68.0,58.0,,,70.0,,,29.91,1012.2,,,,2.0,2021-06-24 00:00:00,2021-06-22 00:00:00,2021-06-22 02:53:00
22.0,01:53,N 10,10.0,Overcast,SCT019 SCT024 OVC045,68.0,60.0,,,76.0,,,29.91,1012.3,,,,2.0,2021-06-24 00:00:00,2021-06-22 00:00:00,2021-06-22 01:53:00
22.0,00:53,N 8,10.0,Overcast,FEW015 SCT032 OVC085,69.0,62.0,76.0,69.0,78.0,,,29.92,1012.2,,,0.01,2.0,2021-06-24 00:00:00,2021-06-22 00:00:00,2021-06-22 00:53:00
21.0,23:53,N 10,10.0,Overcast,SCT018 BKN044 OVC055,69.0,63.0,,,81.0,,,29.92,1012.4,,,,3.0,2021-06-24 00:00:00,2021-06-21 00:00:00,2021-06-21 23:53:00
21.0,22:53,NW 9,10.0,Overcast,FEW016 BKN036 OVC050,70.0,63.0,,,79.0,,,29.92,1012.3,0.01,,,3.0,2021-06-24 00:00:00,2021-06-21 00:00:00,2021-06-21 22:53:00
21.0,21:53,N 14,10.0,Light Rain,FEW017 BKN036 OVC050,72.0,62.0,,,71.0,,,29.9,1011.7,,,,3.0,2021-06-24 00:00:00,2021-06-21 00:00:00,2021-06-21 21:53:00
21.0,20:53,W 5,10.0,Mostly Cloudy,FEW020 SCT050 BKN150,74.0,65.0,,,74.0,,,29.88,1011.0,,,,3.0,2021-06-24 00:00:00,2021-06-21 00:00:00,2021-06-21 20:53:00
21.0,19:53,W 8,10.0,Overcast,SCT021 BKN037 OVC090,75.0,67.0,,,76.0,,,29.86,1010.5,,,,3.0,2021-06-24 00:00:00,2021-06-21 00:00:00,2021-06-21 19:53:00
21.0,18:53,Calm,10.0,Overcast,BKN019 BKN026 OVC200,76.0,68.0,89.0,74.0,77.0,,77.0,29.86,1010.4,,,0.06,3.0,2021-06-24 00:00:00,2021-06-21 00:00:00,2021-06-21 18:53:00
21.0,17:53,Calm,10.0,Mostly Cloudy,FEW019 SCT150 BKN190,76.0,67.0,,,74.0,,77.0,29.82,1009.1,,,,3.0,2021-06-24 00:00:00,2021-06-21 00:00:00,2021-06-21 17:53:00
21.0,16:53,NW 8,10.0,Mostly Cloudy,SCT018 BKN060 BKN250,77.0,69.0,,,77.0,,79.0,29.82,1009.0,,,,3.0,2021-06-24 00:00:00,2021-06-21 00:00:00,2021-06-21 16:53:00
21.0,15:53,NW 12,10.0,Mostly Cloudy,FEW020 SCT037TCU BKN100 BKN250,78.0,71.0,,,79.0,,80.0,29.81,1008.6,0.06,0.06,,3.0,2021-06-24 00:00:00,2021-06-21 00:00:00,2021-06-21 15:53:00
21.0,14:53,W 8 G 20,10.0,Overcast,SCT034 BKN100 OVC250,87.0,72.0,,,61.0,,93.0,29.81,1008.6,,,,3.0,2021-06-24 00:00:00,2021-06-21 00:00:00,2021-06-21 14:53:00
21.0,13:53,SW 9 G 22,10.0,Mostly Cloudy,FEW035 SCT046TCU BKN095 BKN250,87.0,71.0,,,59.0,,93.0,29.8,1008.1,,,,3.0,2021-06-24 00:00:00,2021-06-21 00:00:00,2021-06-21 13:53:00
21.0,12:53,SW 15 G 26,10.0,Mostly Cloudy,FEW028 SCT034TCU BKN095 BKN250,88.0,71.0,89.0,79.0,57.0,,94.0,29.78,1007.7,,,,3.0,2021-06-24 00:00:00,2021-06-21 00:00:00,2021-06-21 12:53:00
21.0,11:53,SW 8 G 21,10.0,Mostly Cloudy,SCT027 BKN034 BKN047TCU BKN250,86.0,71.0,,,61.0,,91.0,29.82,1008.7,,,,3.0,2021-06-24 00:00:00,2021-06-21 00:00:00,2021-06-21 11:53:00
21.0,10:53,SW 14 G 24,10.0,Mostly Cloudy,SCT026 BKN033 BKN060 BKN250,86.0,72.0,,,63.0,,92.0,29.87,1010.5,,,,3.0,2021-06-24 00:00:00,2021-06-21 00:00:00,2021-06-21 10:53:00
21.0,09:53,SW 10 G 25,10.0,Mostly Cloudy,SCT023 BKN250,85.0,72.0,,,65.0,,91.0,29.87,1010.4,,,,3.0,2021-06-24 00:00:00,2021-06-21 00:00:00,2021-06-21 09:53:00
21.0,08:53,SW 13 G 26,10.0,Mostly Cloudy,FEW024 SCT050 SCT180 BKN250,84.0,72.0,,,67.0,,90.0,29.85,1010.0,,,,3.0,2021-06-24 00:00:00,2021-06-21 00:00:00,2021-06-21 08:53:00
21.0,07:53,S 10 G 21,10.0,Mostly Cloudy,FEW030 SCT050 BKN250,81.0,71.0,,,72.0,,85.0,29.85,1009.9,,,,3.0,2021-06-24 00:00:00,2021-06-21 00:00:00,2021-06-21 07:53:00
21.0,06:53,S 10,10.0,Mostly Cloudy,FEW030 BKN250,79.0,70.0,81.0,77.0,74.0,,82.0,29.85,1009.8,,,,3.0,2021-06-24 00:00:00,2021-06-21 00:00:00,2021-06-21 06:53:00
21.0,05:53,S 8,10.0,Partly Cloudy,SCT250,77.0,70.0,,,79.0,,79.0,29.85,1010.0,,,,2.0,2021-06-23 00:00:00,2021-06-21 00:00:00,2021-06-21 05:53:00
21.0,04:53,S 6,10.0,A Few Clouds,FEW250,78.0,69.0,,,74.0,,80.0,29.83,1009.4,,,,2.0,2021-06-23 00:00:00,2021-06-21 00:00:00,2021-06-21 04:53:00
21.0,03:53,S 8,10.0,Fair,CLR,78.0,69.0,,,74.0,,80.0,29.82,1008.8,,,,2.0,2021-06-23 00:00:00,2021-06-21 00:00:00,2021-06-21 03:53:00
21.0,02:53,S 9,10.0,Fair,CLR,79.0,69.0,,,72.0,,82.0,29.82,1009.1,,,,2.0,2021-06-23 00:00:00,2021-06-21 00:00:00,2021-06-21 02:53:00
21.0,01:53,SW 10,10.0,Fair,CLR,80.0,69.0,,,69.0,,83.0,29.83,1009.3,,,,2.0,2021-06-23 00:00:00,2021-06-21 00:00:00,2021-06-21 01:53:00
21.0,00:53,SW 12,10.0,Fair,CLR,81.0,69.0,88.0,81.0,67.0,,84.0,29.82,1008.8,,,,2.0,2021-06-23 00:00:00,2021-06-21 00:00:00,2021-06-21 00:53:00
20.0,23:53,S 9,10.0,Fair,CLR,81.0,69.0,,,67.0,,84.0,29.81,1008.7,,,,3.0,2021-06-23 00:00:00,2021-06-20 00:00:00,2021-06-20 23:53:00
20.0,22:53,SW 8,10.0,Fair,CLR,82.0,68.0,,,63.0,,85.0,29.82,1009.0,,,,3.0,2021-06-23 00:00:00,2021-06-20 00:00:00,2021-06-20 22:53:00
20.0,21:53,SW 6,10.0,A Few Clouds,FEW250,83.0,68.0,,,61.0,,86.0,29.82,1009.0,,,,3.0,2021-06-23 00:00:00,2021-06-20 00:00:00,2021-06-20 21:53:00
20.0,20:53,SW 7,10.0,A Few Clouds,FEW250,84.0,68.0,,,59.0,,87.0,29.81,1008.5,,,,3.0,2021-06-23 00:00:00,2021-06-20 00:00:00,2021-06-20 20:53:00
20.0,19:53,SW 6,10.0,A Few Clouds,FEW060 FEW250,86.0,67.0,,,53.0,,89.0,29.81,1008.6,,,,3.0,2021-06-23 00:00:00,2021-06-20 00:00:00,2021-06-20 19:53:00
20.0,18:53,SW 5,10.0,Partly Cloudy,SCT060 SCT250,88.0,67.0,93.0,87.0,50.0,,91.0,29.81,1008.8,,,,3.0,2021-06-23 00:00:00,2021-06-20 00:00:00,2021-06-20 18:53:00
20.0,17:53,SW 10 G 22,10.0,Partly Cloudy,SCT060 SCT250,90.0,66.0,,,45.0,,92.0,29.82,1008.9,,,,3.0,2021-06-23 00:00:00,2021-06-20 00:00:00,2021-06-20 17:53:00
20.0,16:53,SW 10,10.0,Partly Cloudy,SCT060 SCT250,91.0,67.0,,,45.0,,94.0,29.83,1009.2,,,,3.0,2021-06-23 00:00:00,2021-06-20 00:00:00,2021-06-20 16:53:00
20.0,15:53,W 12 G 17,10.0,Partly Cloudy,SCT060 SCT250,92.0,67.0,,,44.0,,96.0,29.82,1009.1,,,,3.0,2021-06-23 00:00:00,2021-06-20 00:00:00,2021-06-20 15:53:00
20.0,14:53,W 7,10.0,Partly Cloudy,SCT050 SCT250,92.0,67.0,,,44.0,,96.0,29.82,1008.9,,,,3.0,2021-06-23 00:00:00,2021-06-20 00:00:00,2021-06-20 14:53:00
20.0,13:53,Vrbl 5,10.0,Partly Cloudy,SCT043 SCT250,90.0,68.0,,,48.0,,94.0,29.83,1009.2,,,,3.0,2021-06-23 00:00:00,2021-06-20 00:00:00,2021-06-20 13:53:00
20.0,12:53,W 8,10.0,Mostly Cloudy,BKN037 BKN250,88.0,68.0,90.0,72.0,52.0,,92.0,29.85,1009.9,,,,3.0,2021-06-23 00:00:00,2021-06-20 00:00:00,2021-06-20 12:53:00
20.0,11:53,Vrbl 6,10.0,Partly Cloudy,SCT038 SCT250,88.0,68.0,,,52.0,,92.0,29.87,1010.6,,,,3.0,2021-06-23 00:00:00,2021-06-20 00:00:00,2021-06-20 11:53:00
20.0,10:53,Calm,10.0,Partly Cloudy,FEW045 SCT250,85.0,66.0,,,53.0,,87.0,29.88,1011.0,,,,3.0,2021-06-23 00:00:00,2021-06-20 00:00:00,2021-06-20 10:53:00
20.0,09:53,SW 5,10.0,Partly Cloudy,FEW150 SCT250,83.0,65.0,,,55.0,,85.0,29.9,1011.6,,,,3.0,2021-06-23 00:00:00,2021-06-20 00:00:00,2021-06-20 09:53:00
20.0,08:53,Vrbl 5,10.0,Partly Cloudy,FEW120 SCT250,80.0,65.0,,,60.0,,82.0,29.91,1012.0,,,,3.0,2021-06-23 00:00:00,2021-06-20 00:00:00,2021-06-20 08:53:00
20.0,07:53,SW 3,10.0,Mostly Cloudy,FEW120 BKN250,77.0,66.0,,,69.0,,79.0,29.89,1011.3,,,,3.0,2021-06-23 00:00:00,2021-06-20 00:00:00,2021-06-20 07:53:00
20.0,06:53,Calm,10.0,Mostly Cloudy,FEW150 BKN250,72.0,65.0,72.0,67.0,79.0,,,29.89,1011.5,,,,3.0,2021-06-23 00:00:00,2021-06-20 00:00:00,2021-06-20 06:53:00
20.0,05:53,S 3,10.0,Partly Cloudy,FEW120 SCT250,68.0,64.0,,,87.0,,,29.89,1011.4,,,,2.0,2021-06-22 00:00:00,2021-06-20 00:00:00,2021-06-20 05:53:00
20.0,04:53,Calm,10.0,Partly Cloudy,SCT250,69.0,64.0,,,84.0,,,29.88,1011.2,,,,2.0,2021-06-22 00:00:00,2021-06-20 00:00:00,2021-06-20 04:53:00
20.0,03:53,Calm,10.0,Partly Cloudy,SCT250,70.0,64.0,,,82.0,,,29.88,1011.2,,,,2.0,2021-06-22 00:00:00,2021-06-20 00:00:00,2021-06-20 03:53:00
20.0,02:53,S 3,10.0,Fair,CLR,71.0,64.0,,,79.0,,,29.87,1010.8,,,,2.0,2021-06-22 00:00:00,2021-06-20 00:00:00,2021-06-20 02:53:00
20.0,01:53,Calm,10.0,Fair,CLR,70.0,64.0,,,82.0,,,29.86,1010.5,,,,2.0,2021-06-22 00:00:00,2021-06-20 00:00:00,2021-06-20 01:53:00
20.0,00:53,SE 5,10.0,Fair,CLR,72.0,64.0,80.0,72.0,76.0,,,29.87,1010.8,,,,2.0,2021-06-22 00:00:00,2021-06-20 00:00:00,2021-06-20 00:53:00
19.0,23:53,Calm,10.0,Mostly Cloudy,BKN250,74.0,65.0,,,74.0,,,29.87,1010.8,,,,3.0,2021-06-22 00:00:00,2021-06-19 00:00:00,2021-06-19 23:53:00
19.0,22:53,SE 3,10.0,Mostly Cloudy,BKN250,74.0,65.0,,,74.0,,,29.89,1011.4,,,,3.0,2021-06-22 00:00:00,2021-06-19 00:00:00,2021-06-19 22:53:00
19.0,21:53,Calm,10.0,Mostly Cloudy,FEW038 BKN250,76.0,65.0,,,69.0,,78.0,29.88,1010.9,,,,3.0,2021-06-22 00:00:00,2021-06-19 00:00:00,2021-06-19 21:53:00
19.0,20:53,S 7,10.0,Mostly Cloudy,FEW036 BKN250,76.0,65.0,,,69.0,,78.0,29.87,1010.9,,,,3.0,2021-06-22 00:00:00,2021-06-19 00:00:00,2021-06-19 20:53:00
19.0,19:53,SE 3,10.0,Mostly Cloudy,FEW033 BKN250,78.0,66.0,,,67.0,,80.0,29.89,1011.4,,,,3.0,2021-06-22 00:00:00,2021-06-19 00:00:00,2021-06-19 19:53:00
19.0,18:53,S 12,10.0,Mostly Cloudy,FEW032 SCT120 BKN250,80.0,65.0,87.0,80.0,60.0,,82.0,29.88,1011.2,,,,3.0,2021-06-22 00:00:00,2021-06-19 00:00:00,2021-06-19 18:53:00
19.0,17:53,S 12 G 23,10.0,Mostly Cloudy,FEW034 BKN250,82.0,66.0,,,58.0,,84.0,29.88,1011.0,,,,3.0,2021-06-22 00:00:00,2021-06-19 00:00:00,2021-06-19 17:53:00
19.0,16:53,S 16 G 24,10.0,Mostly Cloudy,FEW034 FEW090 BKN220,84.0,66.0,,,55.0,,86.0,29.88,1011.2,,,,3.0,2021-06-22 00:00:00,2021-06-19 00:00:00,2021-06-19 16:53:00
19.0,15:53,S 15,10.0,Mostly Cloudy,FEW036 BKN250,86.0,67.0,,,53.0,,89.0,29.89,1011.6,,,,3.0,2021-06-22 00:00:00,2021-06-19 00:00:00,2021-06-19 15:53:00
19.0,14:53,S 12,10.0,Mostly Cloudy,SCT034 BKN043 BKN250,86.0,68.0,,,55.0,,89.0,29.93,1012.6,,,,3.0,2021-06-22 00:00:00,2021-06-19 00:00:00,2021-06-19 14:53:00
19.0,13:53,S 14,10.0,Overcast,SCT038 BKN045 BKN085 OVC250,85.0,68.0,,,57.0,,88.0,29.95,1013.5,,,,3.0,2021-06-22 00:00:00,2021-06-19 00:00:00,2021-06-19 13:53:00
19.0,12:53,S 10,10.0,Overcast,SCT036 BKN055 BKN220 OVC250,87.0,68.0,87.0,73.0,53.0,,90.0,29.98,1014.4,,,,3.0,2021-06-22 00:00:00,2021-06-19 00:00:00,2021-06-19 12:53:00
19.0,11:53,S 13 G 20,10.0,Mostly Cloudy,FEW036 SCT050 BKN250,86.0,67.0,,,53.0,,89.0,30.02,1015.7,,,,3.0,2021-06-22 00:00:00,2021-06-19 00:00:00,2021-06-19 11:53:00
19.0,10:53,SW 8,10.0,Mostly Cloudy,FEW045 SCT100 SCT220 BKN250,84.0,65.0,,,53.0,,86.0,30.01,1015.6,,,,3.0,2021-06-22 00:00:00,2021-06-19 00:00:00,2021-06-19 10:53:00
19.0,09:53,Vrbl 3,10.0,Mostly Cloudy,FEW050 BKN250,84.0,67.0,,,57.0,,87.0,30.01,1015.5,,,,3.0,2021-06-22 00:00:00,2021-06-19 00:00:00,2021-06-19 09:53:00
19.0,08:53,S 5,10.0,Mostly Cloudy,BKN250,80.0,67.0,,,64.0,,82.0,30.04,1016.5,,,,3.0,2021-06-22 00:00:00,2021-06-19 00:00:00,2021-06-19 08:53:00
19.0,07:53,SW 5,10.0,Mostly Cloudy,BKN250,77.0,67.0,,,71.0,,79.0,30.06,1017.0,,,,3.0,2021-06-22 00:00:00,2021-06-19 00:00:00,2021-06-19 07:53:00
19.0,06:53,S 6,10.0,Mostly Cloudy,BKN250,73.0,66.0,74.0,69.0,79.0,,,30.01,1015.6,,,,3.0,2021-06-22 00:00:00,2021-06-19 00:00:00,2021-06-19 06:53:00
19.0,05:53,S 6,10.0,Mostly Cloudy,BKN250,70.0,64.0,,,82.0,,,30.02,1015.7,,,,2.0,2021-06-21 00:00:00,2021-06-19 00:00:00,2021-06-19 05:53:00
19.0,04:53,S 3,10.0,A Few Clouds,FEW250,69.0,63.0,,,81.0,,,29.99,1014.8,,,,2.0,2021-06-21 00:00:00,2021-06-19 00:00:00,2021-06-19 04:53:00
19.0,03:53,S 5,10.0,A Few Clouds,FEW250,70.0,63.0,,,79.0,,,29.98,1014.6,,,,2.0,2021-06-21 00:00:00,2021-06-19 00:00:00,2021-06-19 03:53:00
19.0,02:53,S 7,10.0,A Few Clouds,FEW250,71.0,63.0,,,76.0,,,29.98,1014.3,,,,2.0,2021-06-21 00:00:00,2021-06-19 00:00:00,2021-06-19 02:53:00
19.0,01:53,S 6,10.0,A Few Clouds,FEW250,71.0,63.0,,,76.0,,,30.0,1015.3,,,,2.0,2021-06-21 00:00:00,2021-06-19 00:00:00,2021-06-19 01:53:00
19.0,00:53,Calm,10.0,A Few Clouds,FEW250,74.0,63.0,88.0,73.0,69.0,,,30.02,1015.8,,,,2.0,2021-06-21 00:00:00,2021-06-19 00:00:00,2021-06-19 00:53:00
18.0,23:53,S 5,10.0,A Few Clouds,FEW250,74.0,63.0,,,69.0,,,30.01,1015.4,,,,3.0,2021-06-21 00:00:00,2021-06-18 00:00:00,2021-06-18 23:53:00
18.0,22:53,W 3,10.0,A Few Clouds,FEW250,79.0,61.0,,,54.0,,80.0,30.01,1015.6,,,,3.0,2021-06-21 00:00:00,2021-06-18 00:00:00,2021-06-18 22:53:00
18.0,21:53,SW 5,10.0,A Few Clouds,FEW250,81.0,61.0,,,51.0,,82.0,30.0,1015.0,,,,3.0,2021-06-21 00:00:00,2021-06-18 00:00:00,2021-06-18 21:53:00
18.0,20:53,SW 5,10.0,A Few Clouds,FEW250,82.0,61.0,,,49.0,,83.0,29.99,1014.7,,,,3.0,2021-06-21 00:00:00,2021-06-18 00:00:00,2021-06-18 20:53:00
18.0,19:53,S 10,10.0,Partly Cloudy,SCT250,85.0,61.0,,,45.0,,85.0,29.97,1014.0,,,,3.0,2021-06-21 00:00:00,2021-06-18 00:00:00,2021-06-18 19:53:00
18.0,18:53,S 14 G 22,10.0,Partly Cloudy,SCT250,88.0,61.0,92.0,88.0,40.0,,88.0,29.97,1014.1,,,,3.0,2021-06-21 00:00:00,2021-06-18 00:00:00,2021-06-18 18:53:00
18.0,17:53,S 13,10.0,Partly Cloudy,FEW060 SCT250,90.0,62.0,,,39.0,,90.0,29.98,1014.6,,,,3.0,2021-06-21 00:00:00,2021-06-18 00:00:00,2021-06-18 17:53:00
18.0,16:53,S 10,10.0,Mostly Cloudy,SCT065 BKN250,91.0,63.0,,,39.0,,92.0,30.0,1014.9,,,,3.0,2021-06-21 00:00:00,2021-06-18 00:00:00,2021-06-18 16:53:00
18.0,15:53,S 12 G 16,10.0,Mostly Cloudy,SCT060 BKN250,89.0,62.0,,,41.0,,90.0,30.0,1015.2,,,,3.0,2021-06-21 00:00:00,2021-06-18 00:00:00,2021-06-18 15:53:00
18.0,14:53,S 14 G 17,10.0,Mostly Cloudy,SCT060 BKN250,90.0,63.0,,,41.0,,91.0,30.02,1015.6,,,,3.0,2021-06-21 00:00:00,2021-06-18 00:00:00,2021-06-18 14:53:00
18.0,13:53,SE 8,10.0,Partly Cloudy,SCT055 SCT250,89.0,63.0,,,42.0,,90.0,30.03,1016.3,,,,3.0,2021-06-21 00:00:00,2021-06-18 00:00:00,2021-06-18 13:53:00
18.0,12:53,S 9,10.0,Partly Cloudy,SCT055 SCT250,89.0,64.0,90.0,75.0,43.0,,90.0,30.04,1016.4,,,,3.0,2021-06-21 00:00:00,2021-06-18 00:00:00,2021-06-18 12:53:00
18.0,11:53,S 10,10.0,Partly Cloudy,SCT050 SCT250,90.0,65.0,,,44.0,,92.0,30.05,1016.9,,,,3.0,2021-06-21 00:00:00,2021-06-18 00:00:00,2021-06-18 11:53:00
18.0,10:53,SW 6,10.0,Partly Cloudy,FEW055 SCT250,87.0,64.0,,,46.0,,88.0,30.06,1017.2,,,,3.0,2021-06-21 00:00:00,2021-06-18 00:00:00,2021-06-18 10:53:00
18.0,09:53,SW 7,10.0,A Few Clouds,FEW070 FEW250,86.0,65.0,,,49.0,,88.0,30.06,1017.3,,,,3.0,2021-06-21 00:00:00,2021-06-18 00:00:00,2021-06-18 09:53:00
18.0,08:53,W 7,10.0,Partly Cloudy,FEW070 SCT250,84.0,64.0,,,51.0,,85.0,30.07,1017.4,,,,3.0,2021-06-21 00:00:00,2021-06-18 00:00:00,2021-06-18 08:53:00
18.0,07:53,Calm,10.0,Partly Cloudy,FEW070 SCT250,79.0,65.0,,,62.0,,81.0,30.06,1017.1,,,,3.0,2021-06-21 00:00:00,2021-06-18 00:00:00,2021-06-18 07:53:00
18.0,06:53,S 6,10.0,A Few Clouds,FEW070,74.0,64.0,74.0,70.0,71.0,,,30.04,1016.4,,,,2.0,2021-06-20 00:00:00,2021-06-18 00:00:00,2021-06-18 06:53:00
18.0,05:53,S 6,10.0,Mostly Cloudy,BKN065,71.0,63.0,,,76.0,,,30.04,1016.3,,,,2.0,2021-06-20 00:00:00,2021-06-18 00:00:00,2021-06-18 05:53:00
18.0,04:53,S 7,10.0,Partly Cloudy,SCT065,71.0,63.0,,,76.0,,,30.03,1016.0,,,,2.0,2021-06-20 00:00:00,2021-06-18 00:00:00,2021-06-18 04:53:00
18.0,03:53,S 6,10.0,Fair,CLR,70.0,63.0,,,79.0,,,30.02,1015.8,,,,2.0,2021-06-20 00:00:00,2021-06-18 00:00:00,2021-06-18 03:53:00
18.0,02:53,S 7,10.0,Fair,CLR,71.0,63.0,,,76.0,,,30.01,1015.5,,,,2.0,2021-06-20 00:00:00,2021-06-18 00:00:00,2021-06-18 02:53:00
18.0,01:53,S 6,10.0,Fair,CLR,72.0,63.0,,,73.0,,,30.03,1016.0,,,,2.0,2021-06-20 00:00:00,2021-06-18 00:00:00,2021-06-18 01:53:00
18.0,00:53,S 5,10.0,Fair,CLR,73.0,64.0,88.0,73.0,74.0,,,30.04,1016.4,,,,2.0,2021-06-20 00:00:00,2021-06-18 00:00:00,2021-06-18 00:53:00
17.0,23:53,S 5,10.0,Fair,CLR,74.0,64.0,,,71.0,,,30.05,1016.7,,,,3.0,2021-06-20 00:00:00,2021-06-17 00:00:00,2021-06-17 23:53:00
17.0,22:53,S 6,10.0,Fair,CLR,75.0,64.0,,,69.0,,,30.05,1016.7,,,,3.0,2021-06-20 00:00:00,2021-06-17 00:00:00,2021-06-17 22:53:00
17.0,21:53,S 5,10.0,A Few Clouds,FEW075,78.0,63.0,,,60.0,,80.0,30.03,1016.2,,,,3.0,2021-06-20 00:00:00,2021-06-17 00:00:00,2021-06-17 21:53:00
17.0,20:53,Calm,10.0,Partly Cloudy,SCT075 SCT250,81.0,63.0,,,54.0,,82.0,30.01,1015.3,,,,3.0,2021-06-20 00:00:00,2021-06-17 00:00:00,2021-06-17 20:53:00
17.0,19:53,SW 5,10.0,Mostly Cloudy,SCT070 BKN090 BKN250,85.0,62.0,,,46.0,,86.0,30.0,1015.1,,,,3.0,2021-06-20 00:00:00,2021-06-17 00:00:00,2021-06-17 19:53:00
17.0,18:53,SE 5,10.0,Mostly Cloudy,SCT065 BKN250,86.0,62.0,92.0,85.0,45.0,,87.0,29.99,1014.8,,,,3.0,2021-06-20 00:00:00,2021-06-17 00:00:00,2021-06-17 18:53:00
17.0,17:53,S 5,10.0,A Few Clouds,FEW070,87.0,61.0,,,42.0,,87.0,29.98,1014.7,,,,3.0,2021-06-20 00:00:00,2021-06-17 00:00:00,2021-06-17 17:53:00
17.0,16:53,S 3,10.0,Partly Cloudy,SCT070,87.0,60.0,,,40.0,,87.0,29.99,1014.7,,,,3.0,2021-06-20 00:00:00,2021-06-17 00:00:00,2021-06-17 16:53:00
17.0,15:53,Calm,10.0,Partly Cloudy,SCT070 SCT250,91.0,60.0,,,35.0,,90.0,29.99,1014.7,,,,3.0,2021-06-20 00:00:00,2021-06-17 00:00:00,2021-06-17 15:53:00
17.0,14:53,E 8,10.0,Partly Cloudy,SCT070 SCT250,89.0,61.0,,,39.0,,89.0,30.0,1015.3,,,,3.0,2021-06-20 00:00:00,2021-06-17 00:00:00,2021-06-17 14:53:00
17.0,12:53,Calm,10.0,Mostly Cloudy,SCT060 BKN250,88.0,62.0,88.0,67.0,42.0,,88.0,30.04,1016.6,,,,3.0,2021-06-20 00:00:00,2021-06-17 00:00:00,2021-06-17 12:53:00
17.0,11:53,Calm,10.0,Partly Cloudy,FEW055 SCT250,87.0,61.0,,,42.0,,87.0,30.06,1017.0,,,,3.0,2021-06-20 00:00:00,2021-06-17 00:00:00,2021-06-17 11:53:00
17.0,10:53,SW 3,10.0,Partly Cloudy,FEW070 SCT200,85.0,61.0,,,45.0,,85.0,30.06,1017.4,,,,3.0,2021-06-20 00:00:00,2021-06-17 00:00:00,2021-06-17 10:53:00
17.0,09:53,Calm,10.0,Partly Cloudy,SCT070,83.0,63.0,,,51.0,,84.0,30.08,1017.8,,,,3.0,2021-06-20 00:00:00,2021-06-17 00:00:00,2021-06-17 09:53:00
17.0,08:53,S 3,10.0,Partly Cloudy,SCT070,78.0,62.0,,,58.0,,80.0,30.08,1017.9,,,,3.0,2021-06-20 00:00:00,2021-06-17 00:00:00,2021-06-17 08:53:00
17.0,07:53,Calm,10.0,Partly Cloudy,SCT060,72.0,62.0,,,71.0,,,30.07,1017.5,,,,3.0,2021-06-20 00:00:00,2021-06-17 00:00:00,2021-06-17 07:53:00
17.0,06:53,S 3,10.0,Partly Cloudy,SCT070,67.0,61.0,69.0,64.0,81.0,,,30.05,1017.0,,,,3.0,2021-06-20 00:00:00,2021-06-17 00:00:00,2021-06-17 06:53:00
17.0,05:53,SE 3,10.0,Partly Cloudy,SCT070,65.0,59.0,,,81.0,,,30.05,1017.0,,,,2.0,2021-06-19 00:00:00,2021-06-17 00:00:00,2021-06-17 05:53:00
17.0,04:53,Calm,10.0,Partly Cloudy,SCT065,64.0,59.0,,,84.0,,,30.04,1016.6,,,,2.0,2021-06-19 00:00:00,2021-06-17 00:00:00,2021-06-17 04:53:00
17.0,03:53,S 3,10.0,Fair,CLR,66.0,60.0,,,81.0,,,30.04,1016.4,,,,2.0,2021-06-19 00:00:00,2021-06-17 00:00:00,2021-06-17 03:53:00
17.0,02:53,Calm,10.0,Fair,CLR,67.0,60.0,,,79.0,,,30.03,1016.3,,,,2.0,2021-06-19 00:00:00,2021-06-17 00:00:00,2021-06-17 02:53:00
17.0,01:53,S 3,10.0,Fair,CLR,67.0,60.0,,,79.0,,,30.03,1016.2,,,,2.0,2021-06-19 00:00:00,2021-06-17 00:00:00,2021-06-17 01:53:00
17.0,00:53,S 3,10.0,Fair,CLR,70.0,60.0,84.0,69.0,71.0,,,30.03,1016.2,,,,2.0,2021-06-19 00:00:00,2021-06-17 00:00:00,2021-06-17 00:53:00
16.0,23:53,Calm,10.0,Fair,CLR,71.0,60.0,,,68.0,,,30.04,1016.5,,,,3.0,2021-06-19 00:00:00,2021-06-16 00:00:00,2021-06-16 23:53:00
16.0,22:53,Calm,10.0,Fair,CLR,71.0,58.0,,,63.0,,,30.04,1016.7,,,,3.0,2021-06-19 00:00:00,2021-06-16 00:00:00,2021-06-16 22:53:00
16.0,21:53,Calm,10.0,A Few Clouds,FEW060,73.0,58.0,,,59.0,,,30.04,1016.6,,,,3.0,2021-06-19 00:00:00,2021-06-16 00:00:00,2021-06-16 21:53:00
16.0,20:53,NE 3,10.0,A Few Clouds,FEW065,78.0,56.0,,,47.0,,79.0,30.03,1016.2,,,,3.0,2021-06-19 00:00:00,2021-06-16 00:00:00,2021-06-16 20:53:00
16.0,19:53,N 8,10.0,A Few Clouds,FEW070,81.0,55.0,,,41.0,,81.0,30.02,1016.0,,,,3.0,2021-06-19 00:00:00,2021-06-16 00:00:00,2021-06-16 19:53:00
16.0,18:53,N 5,10.0,A Few Clouds,FEW070,84.0,56.0,89.0,84.0,38.0,,83.0,30.01,1015.5,,,,3.0,2021-06-19 00:00:00,2021-06-16 00:00:00,2021-06-16 18:53:00
16.0,17:53,N 8,10.0,Partly Cloudy,FEW075 SCT090,86.0,55.0,,,35.0,,85.0,30.0,1015.3,,,,3.0,2021-06-19 00:00:00,2021-06-16 00:00:00,2021-06-16 17:53:00
16.0,16:53,N 10,10.0,Partly Cloudy,SCT065 SCT080,85.0,55.0,,,36.0,,84.0,30.02,1015.9,,,,3.0,2021-06-19 00:00:00,2021-06-16 00:00:00,2021-06-16 16:53:00
16.0,15:53,N 8 G 17,10.0,Partly Cloudy,SCT070 SCT085,87.0,54.0,,,32.0,,85.0,30.03,1016.3,,,,3.0,2021-06-19 00:00:00,2021-06-16 00:00:00,2021-06-16 15:53:00
16.0,14:53,N 14 G 22,10.0,Mostly Cloudy,BKN070 BKN090,88.0,56.0,,,34.0,,86.0,30.04,1016.6,,,,3.0,2021-06-19 00:00:00,2021-06-16 00:00:00,2021-06-16 14:53:00
16.0,13:53,N 13 G 29,10.0,Mostly Cloudy,BKN065 BKN080,86.0,56.0,,,36.0,,85.0,30.06,1017.1,,,,3.0,2021-06-19 00:00:00,2021-06-16 00:00:00,2021-06-16 13:53:00
16.0,12:53,N 9 G 21,10.0,Partly Cloudy,SCT065 SCT080,86.0,57.0,87.0,67.0,37.0,,85.0,30.06,1017.4,,,,3.0,2021-06-19 00:00:00,2021-06-16 00:00:00,2021-06-16 12:53:00
16.0,09:53,N 7,10.0,A Few Clouds,FEW090,79.0,56.0,,,45.0,,80.0,30.1,1018.4,,,,3.0,2021-06-19 00:00:00,2021-06-16 00:00:00,2021-06-16 09:53:00
16.0,08:53,N 6,10.0,Partly Cloudy,SCT080,76.0,56.0,,,50.0,,78.0,30.09,1018.3,,,,3.0,2021-06-19 00:00:00,2021-06-16 00:00:00,2021-06-16 08:53:00
16.0,07:53,Vrbl 3,10.0,A Few Clouds,FEW100 FEW200,73.0,57.0,,,57.0,,,30.07,1017.6,,,,3.0,2021-06-19 00:00:00,2021-06-16 00:00:00,2021-06-16 07:53:00
16.0,06:53,Calm,10.0,A Few Clouds,FEW100,67.0,57.0,68.0,61.0,71.0,,,30.06,1017.1,,,,3.0,2021-06-19 00:00:00,2021-06-16 00:00:00,2021-06-16 06:53:00
16.0,05:53,Calm,10.0,A Few Clouds,FEW150,62.0,56.0,,,80.0,,,30.05,1016.9,,,,3.0,2021-06-19 00:00:00,2021-06-16 00:00:00,2021-06-16 05:53:00
16.0,04:53,W 3,10.0,Fair,CLR,62.0,55.0,,,78.0,,,30.04,1016.7,,,,2.0,2021-06-18 00:00:00,2021-06-16 00:00:00,2021-06-16 04:53:00
16.0,03:53,Calm,10.0,Fair,CLR,65.0,54.0,,,68.0,,,30.05,1016.7,,,,2.0,2021-06-18 00:00:00,2021-06-16 00:00:00,2021-06-16 03:53:00
16.0,02:53,Calm,10.0,Fair,CLR,63.0,55.0,,,76.0,,,30.04,1016.5,,,,2.0,2021-06-18 00:00:00,2021-06-16 00:00:00,2021-06-16 02:53:00
16.0,01:53,Calm,10.0,Fair,CLR,68.0,54.0,,,61.0,,,30.05,1016.8,,,,2.0,2021-06-18 00:00:00,2021-06-16 00:00:00,2021-06-16 01:53:00
16.0,00:53,Calm,10.0,Fair,CLR,66.0,55.0,81.0,66.0,68.0,,,30.04,1016.7,,,,2.0,2021-06-18 00:00:00,2021-06-16 00:00:00,2021-06-16 00:53:00
15.0,23:53,Calm,10.0,Fair,CLR,68.0,55.0,,,63.0,,,30.04,1016.7,,,,3.0,2021-06-18 00:00:00,2021-06-15 00:00:00,2021-06-15 23:53:00
15.0,22:53,Calm,10.0,Fair,CLR,69.0,54.0,,,59.0,,,30.03,1016.2,,,,3.0,2021-06-18 00:00:00,2021-06-15 00:00:00,2021-06-15 22:53:00
15.0,21:53,N 5,10.0,Fair,CLR,75.0,53.0,,,46.0,,,30.03,1016.4,,,,3.0,2021-06-18 00:00:00,2021-06-15 00:00:00,2021-06-15 21:53:00
15.0,20:53,N 7,10.0,Fair,CLR,75.0,53.0,,,46.0,,,30.02,1015.9,,,,3.0,2021-06-18 00:00:00,2021-06-15 00:00:00,2021-06-15 20:53:00
15.0,19:53,N 10,10.0,A Few Clouds,FEW070,78.0,53.0,,,42.0,,79.0,30.01,1015.5,,,,3.0,2021-06-18 00:00:00,2021-06-15 00:00:00,2021-06-15 19:53:00
15.0,18:53,N 15 G 21,10.0,Mostly Cloudy,BKN070,82.0,52.0,86.0,81.0,35.0,,81.0,30.01,1015.5,,,,3.0,2021-06-18 00:00:00,2021-06-15 00:00:00,2021-06-15 18:53:00
15.0,17:53,N 14 G 21,10.0,Partly Cloudy,SCT070,83.0,52.0,,,34.0,,82.0,30.0,1015.3,,,,3.0,2021-06-18 00:00:00,2021-06-15 00:00:00,2021-06-15 17:53:00
15.0,16:53,N 14 G 23,10.0,Partly Cloudy,SCT070,84.0,51.0,,,32.0,,82.0,30.0,1015.3,,,,3.0,2021-06-18 00:00:00,2021-06-15 00:00:00,2021-06-15 16:53:00
15.0,15:53,N 12 G 24,10.0,Partly Cloudy,SCT070,85.0,52.0,,,32.0,,83.0,30.01,1015.5,,,,3.0,2021-06-18 00:00:00,2021-06-15 00:00:00,2021-06-15 15:53:00
15.0,14:53,N 17 G 30,10.0,A Few Clouds,FEW070,85.0,51.0,,,31.0,,83.0,30.01,1015.6,,,,3.0,2021-06-18 00:00:00,2021-06-15 00:00:00,2021-06-15 14:53:00
15.0,13:53,N 15 G 25,10.0,A Few Clouds,FEW070,86.0,52.0,,,31.0,,84.0,30.02,1015.8,,,,3.0,2021-06-18 00:00:00,2021-06-15 00:00:00,2021-06-15 13:53:00
15.0,12:53,NE 21 G 26,10.0,A Few Clouds and Breezy,FEW065 FEW100,84.0,51.0,85.0,72.0,32.0,,82.0,30.03,1016.2,,,,3.0,2021-06-18 00:00:00,2021-06-15 00:00:00,2021-06-15 12:53:00
15.0,11:53,N 16 G 25,10.0,A Few Clouds,FEW060 FEW100,83.0,51.0,,,33.0,,82.0,30.04,1016.6,,,,3.0,2021-06-18 00:00:00,2021-06-15 00:00:00,2021-06-15 11:53:00
15.0,10:53,NE 15 G 24,10.0,A Few Clouds,FEW100,82.0,52.0,,,35.0,,81.0,30.04,1016.5,,,,3.0,2021-06-18 00:00:00,2021-06-15 00:00:00,2021-06-15 10:53:00
15.0,09:53,N 10,10.0,Fair,CLR,80.0,52.0,,,38.0,,80.0,30.03,1016.3,,,,3.0,2021-06-18 00:00:00,2021-06-15 00:00:00,2021-06-15 09:53:00
15.0,08:53,NE 7,10.0,A Few Clouds,FEW100,77.0,53.0,,,43.0,,78.0,30.03,1016.2,,,,3.0,2021-06-18 00:00:00,2021-06-15 00:00:00,2021-06-15 08:53:00
15.0,07:53,N 7,10.0,A Few Clouds,FEW100,74.0,53.0,,,48.0,,,30.02,1015.8,,,,3.0,2021-06-18 00:00:00,2021-06-15 00:00:00,2021-06-15 07:53:00
15.0,06:53,N 6,10.0,A Few Clouds,FEW100,72.0,52.0,79.0,70.0,50.0,,,30.01,1015.6,,,,3.0,2021-06-18 00:00:00,2021-06-15 00:00:00,2021-06-15 06:53:00
15.0,05:53,N 8,10.0,A Few Clouds,FEW100,70.0,49.0,,,47.0,,,30.0,1015.2,,,,3.0,2021-06-18 00:00:00,2021-06-15 00:00:00,2021-06-15 05:53:00
15.0,04:53,N 8,10.0,Partly Cloudy,FEW070 SCT110,71.0,49.0,,,46.0,,,29.99,1014.9,,,,2.0,2021-06-17 00:00:00,2021-06-15 00:00:00,2021-06-15 04:53:00
15.0,03:53,N 9,10.0,Partly Cloudy,SCT100,73.0,50.0,,,44.0,,,29.99,1014.6,,,,2.0,2021-06-17 00:00:00,2021-06-15 00:00:00,2021-06-15 03:53:00
15.0,02:53,N 9,10.0,Partly Cloudy,FEW060 SCT080 SCT100,76.0,54.0,,,47.0,,78.0,29.98,1014.4,,,,2.0,2021-06-17 00:00:00,2021-06-15 00:00:00,2021-06-15 02:53:00
15.0,01:53,N 10,10.0,Fair,CLR,77.0,59.0,,,54.0,,79.0,29.97,1014.0,,,,2.0,2021-06-17 00:00:00,2021-06-15 00:00:00,2021-06-15 01:53:00
15.0,00:53,NW 8,10.0,Fair,CLR,79.0,63.0,89.0,76.0,58.0,,81.0,29.96,1013.7,,,,2.0,2021-06-17 00:00:00,2021-06-15 00:00:00,2021-06-15 00:53:00
14.0,23:53,W 5,10.0,A Few Clouds,FEW070,78.0,63.0,,,60.0,,80.0,29.95,1013.3,,,,3.0,2021-06-17 00:00:00,2021-06-14 00:00:00,2021-06-14 23:53:00
14.0,22:53,Calm,10.0,Fair,CLR,78.0,63.0,,,60.0,,80.0,29.95,1013.3,,,,3.0,2021-06-17 00:00:00,2021-06-14 00:00:00,2021-06-14 22:53:00
14.0,21:53,W 3,10.0,Fair,CLR,80.0,63.0,,,56.0,,81.0,29.94,1012.9,,,,3.0,2021-06-17 00:00:00,2021-06-14 00:00:00,2021-06-14 21:53:00
14.0,20:53,W 6,10.0,A Few Clouds,FEW250,83.0,62.0,,,49.0,,84.0,29.92,1012.4,,,,3.0,2021-06-17 00:00:00,2021-06-14 00:00:00,2021-06-14 20:53:00
14.0,19:53,W 7,10.0,A Few Clouds,FEW250,86.0,59.0,,,40.0,,85.0,29.92,1012.3,,,,3.0,2021-06-17 00:00:00,2021-06-14 00:00:00,2021-06-14 19:53:00
14.0,18:53,W 8,10.0,Fair,CLR,89.0,57.0,95.0,89.0,34.0,,88.0,29.91,1012.1,,,,3.0,2021-06-17 00:00:00,2021-06-14 00:00:00,2021-06-14 18:53:00
14.0,17:53,NW 12,10.0,A Few Clouds,FEW250,92.0,54.0,,,28.0,,90.0,29.91,1012.0,,,,3.0,2021-06-17 00:00:00,2021-06-14 00:00:00,2021-06-14 17:53:00
14.0,16:53,NW 12,10.0,A Few Clouds,FEW250,93.0,57.0,,,30.0,,92.0,29.91,1011.9,,,,3.0,2021-06-17 00:00:00,2021-06-14 00:00:00,2021-06-14 16:53:00
14.0,15:53,N 8,10.0,A Few Clouds,FEW250,93.0,60.0,,,33.0,,93.0,29.91,1012.0,,,,3.0,2021-06-17 00:00:00,2021-06-14 00:00:00,2021-06-14 15:53:00
14.0,14:53,N 6 G 16,10.0,A Few Clouds,FEW250,94.0,60.0,,,32.0,,94.0,29.93,1012.6,,,,3.0,2021-06-17 00:00:00,2021-06-14 00:00:00,2021-06-14 14:53:00
14.0,13:53,N 8,10.0,Partly Cloudy,SCT250,93.0,61.0,,,34.0,,93.0,29.93,1012.8,,,,3.0,2021-06-17 00:00:00,2021-06-14 00:00:00,2021-06-14 13:53:00
14.0,12:53,Calm,10.0,Partly Cloudy,FEW055 FEW200 SCT250,92.0,58.0,93.0,77.0,32.0,,91.0,29.96,1013.5,,,,3.0,2021-06-17 00:00:00,2021-06-14 00:00:00,2021-06-14 12:53:00
14.0,11:53,NE 3,10.0,A Few Clouds,FEW055 FEW200,91.0,64.0,,,41.0,,93.0,29.98,1014.3,,,,3.0,2021-06-17 00:00:00,2021-06-14 00:00:00,2021-06-14 11:53:00
14.0,10:53,N 6,10.0,A Few Clouds,FEW050 FEW200,89.0,66.0,,,47.0,,92.0,29.98,1014.2,,,,3.0,2021-06-17 00:00:00,2021-06-14 00:00:00,2021-06-14 10:53:00
14.0,09:53,N 6,10.0,A Few Clouds,FEW045,85.0,68.0,,,57.0,,88.0,29.98,1014.4,,,,3.0,2021-06-17 00:00:00,2021-06-14 00:00:00,2021-06-14 09:53:00
14.0,08:53,N 6,10.0,A Few Clouds,FEW040,83.0,68.0,,,61.0,,86.0,29.97,1014.1,,,,3.0,2021-06-17 00:00:00,2021-06-14 00:00:00,2021-06-14 08:53:00
14.0,07:53,N 7,10.0,A Few Clouds,FEW040,80.0,67.0,,,64.0,,82.0,29.97,1014.0,,,,3.0,2021-06-17 00:00:00,2021-06-14 00:00:00,2021-06-14 07:53:00
14.0,06:53,N 7,10.0,A Few Clouds,FEW040,77.0,67.0,81.0,76.0,71.0,,79.0,29.95,1013.4,,,,3.0,2021-06-17 00:00:00,2021-06-14 00:00:00,2021-06-14 06:53:00
14.0,05:53,NW 6,10.0,Fair,CLR,76.0,66.0,,,72.0,,78.0,29.92,1012.4,,,,3.0,2021-06-17 00:00:00,2021-06-14 00:00:00,2021-06-14 05:53:00
14.0,04:53,N 3,10.0,Fair,CLR,76.0,67.0,,,74.0,,77.0,29.92,1012.2,,,,2.0,2021-06-16 00:00:00,2021-06-14 00:00:00,2021-06-14 04:53:00
14.0,03:53,N 5,10.0,Fair,CLR,77.0,67.0,,,71.0,,79.0,29.92,1012.4,,,,2.0,2021-06-16 00:00:00,2021-06-14 00:00:00,2021-06-14 03:53:00
14.0,02:53,N 6,10.0,Fair,CLR,78.0,67.0,,,69.0,,80.0,29.92,1012.2,,,,2.0,2021-06-16 00:00:00,2021-06-14 00:00:00,2021-06-14 02:53:00
14.0,01:53,N 6,10.0,Mostly Cloudy,BKN049,80.0,68.0,,,67.0,,83.0,29.92,1012.2,,,,2.0,2021-06-16 00:00:00,2021-06-14 00:00:00,2021-06-14 01:53:00
14.0,00:53,N 6,10.0,Fair,CLR,81.0,70.0,91.0,81.0,69.0,,84.0,29.92,1012.1,,,,2.0,2021-06-16 00:00:00,2021-06-14 00:00:00,2021-06-14 00:53:00
13.0,23:53,N 7,10.0,Partly Cloudy,SCT060,82.0,71.0,,,69.0,,86.0,29.92,1012.2,,,,3.0,2021-06-16 00:00:00,2021-06-13 00:00:00,2021-06-13 23:53:00
13.0,22:53,N 3,10.0,Partly Cloudy,FEW038 SCT055,84.0,72.0,,,67.0,,90.0,29.93,1012.5,,,,3.0,2021-06-16 00:00:00,2021-06-13 00:00:00,2021-06-13 22:53:00
13.0,21:53,N 7,10.0,A Few Clouds,FEW060 FEW250,85.0,72.0,,,65.0,,91.0,29.92,1012.2,,,,3.0,2021-06-16 00:00:00,2021-06-13 00:00:00,2021-06-13 21:53:00
13.0,20:53,N 7,10.0,A Few Clouds,FEW055 FEW080,85.0,72.0,,,65.0,,91.0,29.9,1011.6,,,,3.0,2021-06-16 00:00:00,2021-06-13 00:00:00,2021-06-13 20:53:00
13.0,19:53,N 9,10.0,Partly Cloudy,FEW060TCU SCT075,88.0,71.0,,,57.0,,94.0,29.87,1010.4,,,,3.0,2021-06-16 00:00:00,2021-06-13 00:00:00,2021-06-13 19:53:00
13.0,18:53,NW 8,10.0,Partly Cloudy,FEW055TCU SCT080 SCT250,91.0,71.0,96.0,90.0,52.0,,98.0,29.85,1010.1,,,,3.0,2021-06-16 00:00:00,2021-06-13 00:00:00,2021-06-13 18:53:00
13.0,17:53,N 7,10.0,Mostly Cloudy,SCT055TCU SCT070 BKN250,91.0,70.0,,,50.0,,97.0,29.84,1009.8,,,,3.0,2021-06-16 00:00:00,2021-06-13 00:00:00,2021-06-13 17:53:00
13.0,16:53,Vrbl 6,10.0,Mostly Cloudy,SCT055TCU SCT070 BKN250,94.0,69.0,,,44.0,,99.0,29.85,1009.8,,,,3.0,2021-06-16 00:00:00,2021-06-13 00:00:00,2021-06-13 16:53:00
13.0,15:53,NE 10,10.0,Mostly Cloudy,BKN050TCU BKN070 BKN250,94.0,72.0,,,49.0,,102.0,29.86,1010.2,,,,3.0,2021-06-16 00:00:00,2021-06-13 00:00:00,2021-06-13 15:53:00
13.0,14:53,NW 6,10.0,Mostly Cloudy,SCT050 SCT070 BKN250,93.0,70.0,,,47.0,,99.0,29.88,1010.9,,,,3.0,2021-06-16 00:00:00,2021-06-13 00:00:00,2021-06-13 14:53:00
13.0,13:53,Vrbl 6,10.0,Partly Cloudy,FEW055 SCT250,94.0,70.0,,,46.0,,100.0,29.9,1011.7,,,,3.0,2021-06-16 00:00:00,2021-06-13 00:00:00,2021-06-13 13:53:00
13.0,12:53,Vrbl 3,10.0,Partly Cloudy,FEW045 SCT250,91.0,70.0,92.0,75.0,50.0,,97.0,29.92,1012.4,,,,3.0,2021-06-16 00:00:00,2021-06-13 00:00:00,2021-06-13 12:53:00
13.0,11:53,N 5,10.0,Mostly Cloudy,FEW045 BKN250,92.0,71.0,,,51.0,,99.0,29.94,1012.9,,,,3.0,2021-06-16 00:00:00,2021-06-13 00:00:00,2021-06-13 11:53:00
13.0,10:53,Vrbl 5,10.0,Partly Cloudy,FEW045 SCT250,88.0,69.0,,,54.0,,93.0,29.95,1013.3,,,,3.0,2021-06-16 00:00:00,2021-06-13 00:00:00,2021-06-13 10:53:00
13.0,09:53,W 9,10.0,Mostly Cloudy,FEW044 SCT120 BKN250,85.0,71.0,,,63.0,,90.0,29.95,1013.5,,,,3.0,2021-06-16 00:00:00,2021-06-13 00:00:00,2021-06-13 09:53:00
13.0,08:53,Calm,10.0,Mostly Cloudy,FEW050 SCT110 BKN250,81.0,72.0,,,74.0,,85.0,29.94,1013.2,,,,3.0,2021-06-16 00:00:00,2021-06-13 00:00:00,2021-06-13 08:53:00
13.0,07:53,Calm,8.0,Mostly Cloudy,FEW008 SCT047CB SCT075 BKN250,79.0,72.0,,,79.0,,82.0,29.94,1013.0,,,,3.0,2021-06-16 00:00:00,2021-06-13 00:00:00,2021-06-13 07:53:00
13.0,06:53,S 3,8.0,Partly Cloudy,FEW055TCU SCT075 SCT250,75.0,71.0,78.0,72.0,88.0,,,29.91,1012.1,,,,3.0,2021-06-16 00:00:00,2021-06-13 00:00:00,2021-06-13 06:53:00
13.0,05:53,Calm,8.0,Partly Cloudy,SCT055 SCT250,74.0,70.0,,,88.0,,,29.9,1011.8,,,,3.0,2021-06-16 00:00:00,2021-06-13 00:00:00,2021-06-13 05:53:00
13.0,04:53,Calm,6.0,Fog/Mist,SCT050 SCT250,73.0,70.0,,,90.0,,,29.88,1010.9,,,,2.0,2021-06-15 00:00:00,2021-06-13 00:00:00,2021-06-13 04:53:00
13.0,03:53,SW 3,9.0,A Few Clouds,FEW250,73.0,70.0,,,90.0,,,29.87,1010.5,,,,2.0,2021-06-15 00:00:00,2021-06-13 00:00:00,2021-06-13 03:53:00
13.0,02:53,Calm,9.0,Partly Cloudy,SCT250,74.0,70.0,,,88.0,,,29.88,1011.1,,,,2.0,2021-06-15 00:00:00,2021-06-13 00:00:00,2021-06-13 02:53:00
13.0,01:53,S 3,9.0,A Few Clouds,FEW250,75.0,71.0,,,88.0,,,29.87,1010.6,,,,2.0,2021-06-15 00:00:00,2021-06-13 00:00:00,2021-06-13 01:53:00
13.0,00:53,Calm,9.0,Partly Cloudy,SCT250,77.0,72.0,89.0,77.0,85.0,,78.0,29.89,1011.1,,,,2.0,2021-06-15 00:00:00,2021-06-13 00:00:00,2021-06-13 00:53:00
12.0,23:53,N 3,10.0,Partly Cloudy,SCT250,80.0,73.0,,,79.0,,84.0,29.89,1011.4,,,,3.0,2021-06-15 00:00:00,2021-06-12 00:00:00,2021-06-12 23:53:00
12.0,22:53,SW 3,10.0,Partly Cloudy,SCT250,80.0,73.0,,,79.0,,84.0,29.89,1011.3,,,,3.0,2021-06-15 00:00:00,2021-06-12 00:00:00,2021-06-12 22:53:00
12.0,21:53,Calm,10.0,Partly Cloudy,FEW100 SCT250,81.0,73.0,,,77.0,,86.0,29.89,1011.3,,,,3.0,2021-06-15 00:00:00,2021-06-12 00:00:00,2021-06-12 21:53:00
12.0,20:53,Calm,10.0,Partly Cloudy,FEW090 SCT140 SCT250,83.0,72.0,,,70.0,,88.0,29.86,1010.3,,,,3.0,2021-06-15 00:00:00,2021-06-12 00:00:00,2021-06-12 20:53:00
12.0,19:53,W 7,10.0,Partly Cloudy,FEW080 SCT150 SCT250,85.0,72.0,,,65.0,,91.0,29.84,1009.7,,,,3.0,2021-06-15 00:00:00,2021-06-12 00:00:00,2021-06-12 19:53:00
12.0,18:53,W 6,10.0,Partly Cloudy,FEW085 SCT120 SCT250,89.0,72.0,95.0,89.0,57.0,,96.0,29.84,1009.6,,,,3.0,2021-06-15 00:00:00,2021-06-12 00:00:00,2021-06-12 18:53:00
12.0,17:53,W 9,10.0,Mostly Cloudy,SCT060TCU BKN095 BKN250,91.0,72.0,,,54.0,,99.0,29.82,1009.1,,,,3.0,2021-06-15 00:00:00,2021-06-12 00:00:00,2021-06-12 17:53:00
12.0,16:53,N 13,10.0,Partly Cloudy,FEW065TCU SCT120 SCT250,94.0,68.0,,,43.0,,99.0,29.81,1008.7,,,,3.0,2021-06-15 00:00:00,2021-06-12 00:00:00,2021-06-12 16:53:00
12.0,15:53,N 13 G 17,10.0,Mostly Cloudy,SCT065TCU SCT100 BKN250,92.0,70.0,,,49.0,,98.0,29.82,1009.0,,,,3.0,2021-06-15 00:00:00,2021-06-12 00:00:00,2021-06-12 15:53:00
12.0,14:53,N 6,10.0,Mostly Cloudy,SCT040CB SCT110 BKN250,91.0,72.0,,,54.0,,99.0,29.84,1009.6,,,,3.0,2021-06-15 00:00:00,2021-06-12 00:00:00,2021-06-12 14:53:00
12.0,13:53,N 10,10.0,Mostly Cloudy,SCT048TCU SCT065 BKN150 BKN250,93.0,70.0,,,47.0,,99.0,29.85,1010.1,,,,3.0,2021-06-15 00:00:00,2021-06-12 00:00:00,2021-06-12 13:53:00
12.0,12:53,Vrbl 6,10.0,Mostly Cloudy,SCT042TCU SCT060 BKN150 BKN250,92.0,70.0,93.0,76.0,49.0,,98.0,29.87,1010.8,,,,3.0,2021-06-15 00:00:00,2021-06-12 00:00:00,2021-06-12 12:53:00
12.0,11:53,N 9,10.0,Mostly Cloudy,FEW037 SCT050 SCT120 BKN250,93.0,72.0,,,50.0,,101.0,29.88,1011.0,,,,3.0,2021-06-15 00:00:00,2021-06-12 00:00:00,2021-06-12 11:53:00
12.0,10:53,N 9,10.0,Partly Cloudy,FEW031 SCT045 SCT250,89.0,72.0,,,57.0,,96.0,29.88,1011.2,,,,3.0,2021-06-15 00:00:00,2021-06-12 00:00:00,2021-06-12 10:53:00
12.0,09:53,NW 8,10.0,Partly Cloudy,FEW045 SCT170,87.0,73.0,,,63.0,,94.0,29.89,1011.3,,,,3.0,2021-06-15 00:00:00,2021-06-12 00:00:00,2021-06-12 09:53:00
12.0,08:53,NW 7,10.0,A Few Clouds,FEW050,84.0,73.0,,,70.0,,90.0,29.89,1011.3,,,,3.0,2021-06-15 00:00:00,2021-06-12 00:00:00,2021-06-12 08:53:00
12.0,07:53,W 7,10.0,A Few Clouds,FEW050,80.0,72.0,,,76.0,,84.0,29.88,1011.1,,,,3.0,2021-06-15 00:00:00,2021-06-12 00:00:00,2021-06-12 07:53:00
12.0,06:53,W 3,8.0,A Few Clouds,FEW200,76.0,71.0,76.0,71.0,85.0,,77.0,29.87,1010.7,,,,3.0,2021-06-15 00:00:00,2021-06-12 00:00:00,2021-06-12 06:53:00
12.0,05:53,Calm,5.0,Fog/Mist,FEW100 FEW250,72.0,69.0,,,91.0,,,29.87,1010.6,,,,2.0,2021-06-14 00:00:00,2021-06-12 00:00:00,2021-06-12 05:53:00
12.0,04:53,S 3,8.0,Partly Cloudy,SCT100,72.0,69.0,,,91.0,,,29.84,1009.8,,,,2.0,2021-06-14 00:00:00,2021-06-12 00:00:00,2021-06-12 04:53:00
12.0,03:53,Calm,6.0,Fog/Mist,SCT100,72.0,69.0,,,91.0,,,29.84,1009.7,,,,2.0,2021-06-14 00:00:00,2021-06-12 00:00:00,2021-06-12 03:53:00
12.0,02:53,Calm,10.0,Fair,CLR,74.0,70.0,,,88.0,,,29.84,1009.8,,,,2.0,2021-06-14 00:00:00,2021-06-12 00:00:00,2021-06-12 02:53:00
12.0,01:53,Calm,10.0,Fair,CLR,74.0,70.0,,,88.0,,,29.85,1010.1,,,,2.0,2021-06-14 00:00:00,2021-06-12 00:00:00,2021-06-12 01:53:00
12.0,00:53,Calm,10.0,Fair,CLR,74.0,70.0,82.0,74.0,88.0,,,29.87,1010.7,,,,2.0,2021-06-14 00:00:00,2021-06-12 00:00:00,2021-06-12 00:53:00
11.0,23:53,Calm,10.0,Fair,CLR,76.0,70.0,,,82.0,,77.0,29.87,1010.7,,,,3.0,2021-06-14 00:00:00,2021-06-11 00:00:00,2021-06-11 23:53:00
11.0,22:53,Calm,10.0,Partly Cloudy,SCT090,77.0,70.0,,,79.0,,79.0,29.88,1011.2,,,,3.0,2021-06-14 00:00:00,2021-06-11 00:00:00,2021-06-11 22:53:00
11.0,21:53,W 6,10.0,Partly Cloudy,SCT090,78.0,70.0,,,76.0,,80.0,29.88,1011.1,,,,3.0,2021-06-14 00:00:00,2021-06-11 00:00:00,2021-06-11 21:53:00
11.0,20:53,W 5,10.0,Partly Cloudy,SCT055 SCT090,78.0,69.0,,,74.0,,80.0,29.86,1010.6,,,,3.0,2021-06-14 00:00:00,2021-06-11 00:00:00,2021-06-11 20:53:00
11.0,19:53,W 7,10.0,Mostly Cloudy,SCT055 BKN090 BKN120,81.0,72.0,,,74.0,,85.0,29.85,1010.2,,,,3.0,2021-06-14 00:00:00,2021-06-11 00:00:00,2021-06-11 19:53:00
11.0,18:53,W 5,10.0,Mostly Cloudy,SCT045CB BKN095 BKN110,82.0,72.0,88.0,82.0,72.0,,87.0,29.84,1009.8,,,,3.0,2021-06-14 00:00:00,2021-06-11 00:00:00,2021-06-11 18:53:00
11.0,17:53,W 8,10.0,Mostly Cloudy,SCT035CB BKN045 BKN120,84.0,71.0,,,65.0,,89.0,29.81,1008.7,,,,3.0,2021-06-14 00:00:00,2021-06-11 00:00:00,2021-06-11 17:53:00
11.0,16:53,Vrbl 5,10.0,Thunderstorm in Vicinity,SCT033CB BKN050 BKN120,87.0,72.0,,,61.0,,93.0,29.81,1008.6,,,,3.0,2021-06-14 00:00:00,2021-06-11 00:00:00,2021-06-11 16:53:00
11.0,15:53,W 9,10.0,Mostly Cloudy,SCT033 SCT041CB BKN060,87.0,72.0,,,61.0,,93.0,29.84,1009.5,,,,3.0,2021-06-14 00:00:00,2021-06-11 00:00:00,2021-06-11 15:53:00
11.0,14:53,SW 7,10.0,Mostly Cloudy,SCT034 SCT070 BKN080,84.0,71.0,,,65.0,,89.0,29.85,1009.9,,,,3.0,2021-06-14 00:00:00,2021-06-11 00:00:00,2021-06-11 14:53:00
11.0,13:53,SW 7,10.0,Mostly Cloudy,SCT027 BKN032CB BKN045,84.0,71.0,,,65.0,,89.0,29.86,1010.5,,,,3.0,2021-06-14 00:00:00,2021-06-11 00:00:00,2021-06-11 13:53:00
11.0,12:53,SW 6,10.0,Mostly Cloudy,SCT023 BKN030TCU,85.0,71.0,85.0,73.0,63.0,,90.0,29.88,1011.0,,,,3.0,2021-06-14 00:00:00,2021-06-11 00:00:00,2021-06-11 12:53:00
11.0,11:53,Vrbl 3,10.0,Mostly Cloudy,BKN017,82.0,71.0,,,69.0,,86.0,29.9,1011.8,,,,3.0,2021-06-14 00:00:00,2021-06-11 00:00:00,2021-06-11 11:53:00
11.0,10:53,W 9,10.0,Mostly Cloudy,SCT011 BKN016 BKN035,79.0,71.0,,,77.0,,82.0,29.9,1011.9,,,,3.0,2021-06-14 00:00:00,2021-06-11 00:00:00,2021-06-11 10:53:00
11.0,09:53,SW 7,10.0,Overcast,BKN007 OVC011,76.0,71.0,,,85.0,,77.0,29.9,1011.7,,,,3.0,2021-06-14 00:00:00,2021-06-11 00:00:00,2021-06-11 09:53:00
11.0,08:53,SW 5,9.0,Overcast,OVC006,74.0,70.0,,,88.0,,,29.9,1011.8,,,,3.0,2021-06-14 00:00:00,2021-06-11 00:00:00,2021-06-11 08:53:00
11.0,07:53,Calm,10.0,Overcast,OVC008,74.0,70.0,,,88.0,,,29.9,1011.7,,,,3.0,2021-06-14 00:00:00,2021-06-11 00:00:00,2021-06-11 07:53:00
11.0,06:53,SW 5,10.0,Overcast,BKN008 OVC011,73.0,70.0,75.0,73.0,90.0,,,29.88,1011.2,,,0.2,3.0,2021-06-14 00:00:00,2021-06-11 00:00:00,2021-06-11 06:53:00
11.0,05:53,S 3,10.0,Overcast,FEW012 OVC016,73.0,70.0,,,90.0,,,29.88,1011.2,0.03,,,2.0,2021-06-13 00:00:00,2021-06-11 00:00:00,2021-06-11 05:53:00
11.0,04:53,S 5,1.25,Thunderstorm Rain Fog/Mist,BKN010 OVC022CB,73.0,70.0,,,90.0,,,29.88,1011.1,0.17,,,2.0,2021-06-13 00:00:00,2021-06-11 00:00:00,2021-06-11 04:53:00
11.0,03:53,SW 6,10.0,Thunderstorm in Vicinity Light Rain,OVC012CB,74.0,70.0,,,88.0,,,29.87,1010.8,,,,2.0,2021-06-13 00:00:00,2021-06-11 00:00:00,2021-06-11 03:53:00
11.0,02:53,S 6,10.0,Overcast,OVC011,74.0,70.0,,,88.0,,,29.88,1011.0,,,,2.0,2021-06-13 00:00:00,2021-06-11 00:00:00,2021-06-11 02:53:00
11.0,01:53,SW 3,10.0,Overcast,FEW018 OVC090,74.0,70.0,,,88.0,,,29.88,1011.2,,,,2.0,2021-06-13 00:00:00,2021-06-11 00:00:00,2021-06-11 01:53:00
11.0,00:53,Calm,10.0,Overcast,FEW032 OVC090,75.0,71.0,76.0,74.0,88.0,,,29.89,1011.5,,,0.07,2.0,2021-06-13 00:00:00,2021-06-11 00:00:00,2021-06-11 00:53:00
10.0,23:53,S 6,10.0,Overcast,FEW042 OVC090,75.0,71.0,,,88.0,,,29.91,1012.0,,,,3.0,2021-06-13 00:00:00,2021-06-10 00:00:00,2021-06-10 23:53:00
10.0,22:53,S 3,10.0,Overcast,SCT034 OVC050,74.0,71.0,,,91.0,,,29.91,1012.3,,,,3.0,2021-06-13 00:00:00,2021-06-10 00:00:00,2021-06-10 22:53:00
10.0,21:53,Calm,10.0,Mostly Cloudy,SCT120 BKN250,74.0,71.0,,,91.0,,,29.9,1012.0,,0.07,,3.0,2021-06-13 00:00:00,2021-06-10 00:00:00,2021-06-10 21:53:00
10.0,20:53,S 6,10.0,Mostly Cloudy,FEW035 SCT100 SCT150 BKN250,75.0,71.0,,,88.0,,,29.89,1011.5,,,,3.0,2021-06-13 00:00:00,2021-06-10 00:00:00,2021-06-10 20:53:00
10.0,19:53,SW 5,10.0,Mostly Cloudy,FEW050 SCT075 BKN100 BKN250,75.0,71.0,,,88.0,,,29.89,1011.5,0.07,,,3.0,2021-06-13 00:00:00,2021-06-10 00:00:00,2021-06-10 19:53:00
10.0,18:53,W 9,6.0,Thunderstorm Light Rain Fog/Mist,FEW021 BKN037 BKN045CB BKN250,75.0,70.0,86.0,75.0,84.0,,,29.9,1011.7,0.15,,0.15,3.0,2021-06-13 00:00:00,2021-06-10 00:00:00,2021-06-10 18:53:00
10.0,17:53,SW 8,10.0,Mostly Cloudy,FEW030 SCT040 BKN055TCU BKN250,81.0,70.0,,,69.0,,84.0,29.89,1011.5,,,,3.0,2021-06-13 00:00:00,2021-06-10 00:00:00,2021-06-10 17:53:00
10.0,16:53,S 10,10.0,Mostly Cloudy,SCT036 BKN048TCU BKN250,84.0,71.0,,,65.0,,89.0,29.89,1011.4,,,,3.0,2021-06-13 00:00:00,2021-06-10 00:00:00,2021-06-10 16:53:00
10.0,15:53,S 14 G 20,10.0,Mostly Cloudy,FEW033 SCT044CB BKN055,83.0,70.0,,,65.0,,87.0,29.91,1012.0,,,,3.0,2021-06-13 00:00:00,2021-06-10 00:00:00,2021-06-10 15:53:00
10.0,14:53,SW 6,10.0,Mostly Cloudy,SCT030 BKN045,85.0,69.0,,,59.0,,89.0,29.92,1012.4,,,,3.0,2021-06-13 00:00:00,2021-06-10 00:00:00,2021-06-10 14:53:00
10.0,13:53,SW 8,10.0,Mostly Cloudy,SCT027 BKN034,82.0,69.0,,,65.0,,85.0,29.94,1013.2,,,,3.0,2021-06-13 00:00:00,2021-06-10 00:00:00,2021-06-10 13:53:00
10.0,12:53,S 9,10.0,Mostly Cloudy,BKN023 BKN029,80.0,69.0,80.0,72.0,69.0,,83.0,29.96,1013.9,,,,3.0,2021-06-13 00:00:00,2021-06-10 00:00:00,2021-06-10 12:53:00
10.0,11:53,S 7,10.0,Overcast,BKN018 OVC025,78.0,69.0,,,74.0,,80.0,29.98,1014.5,,,,3.0,2021-06-13 00:00:00,2021-06-10 00:00:00,2021-06-10 11:53:00
10.0,10:53,S 6,10.0,Overcast,OVC018,77.0,68.0,,,74.0,,79.0,29.98,1014.7,,,,3.0,2021-06-13 00:00:00,2021-06-10 00:00:00,2021-06-10 10:53:00
10.0,09:53,S 6,10.0,Overcast,OVC014,76.0,68.0,,,77.0,,77.0,29.99,1014.8,,,,3.0,2021-06-13 00:00:00,2021-06-10 00:00:00,2021-06-10 09:53:00
10.0,08:53,SW 6,10.0,Overcast,OVC013,74.0,67.0,,,79.0,,,30.0,1015.1,,,,3.0,2021-06-13 00:00:00,2021-06-10 00:00:00,2021-06-10 08:53:00
10.0,07:53,SW 3,10.0,Overcast,BKN013 OVC016,73.0,67.0,,,81.0,,,29.99,1015.0,,,,3.0,2021-06-13 00:00:00,2021-06-10 00:00:00,2021-06-10 07:53:00
10.0,06:53,SW 5,10.0,Overcast,OVC012,73.0,68.0,73.0,71.0,84.0,,,29.99,1014.8,,,,3.0,2021-06-13 00:00:00,2021-06-10 00:00:00,2021-06-10 06:53:00
10.0,05:53,SW 5,10.0,Overcast,OVC009,72.0,68.0,,,87.0,,,29.98,1014.4,,,,2.0,2021-06-12 00:00:00,2021-06-10 00:00:00,2021-06-10 05:53:00
10.0,04:53,S 3,10.0,Overcast,OVC009,73.0,69.0,,,87.0,,,29.97,1014.2,,,,2.0,2021-06-12 00:00:00,2021-06-10 00:00:00,2021-06-10 04:53:00
10.0,03:53,S 5,10.0,Overcast,BKN007 OVC013,73.0,69.0,,,87.0,,,29.99,1014.7,,,,2.0,2021-06-12 00:00:00,2021-06-10 00:00:00,2021-06-10 03:53:00
10.0,02:53,SW 5,10.0,Overcast,OVC007,73.0,69.0,,,87.0,,,29.99,1014.8,,,,2.0,2021-06-12 00:00:00,2021-06-10 00:00:00,2021-06-10 02:53:00
10.0,01:53,Calm,10.0,Overcast,OVC010,72.0,69.0,,,91.0,,,29.99,1014.9,,,,2.0,2021-06-12 00:00:00,2021-06-10 00:00:00,2021-06-10 01:53:00
10.0,00:53,Calm,10.0,Mostly Cloudy,FEW011 BKN055,72.0,69.0,76.0,72.0,91.0,,,30.01,1015.7,,,0.01,2.0,2021-06-12 00:00:00,2021-06-10 00:00:00,2021-06-10 00:53:00
9.0,23:53,S 5,10.0,Partly Cloudy,FEW025 SCT042 SCT110,72.0,69.0,,,91.0,,,30.01,1015.6,,,,3.0,2021-06-12 00:00:00,2021-06-09 00:00:00,2021-06-09 23:53:00
9.0,22:53,S 6,10.0,Mostly Cloudy,BKN042 BKN055 BKN120,73.0,69.0,,,87.0,,,30.01,1015.5,,,,3.0,2021-06-12 00:00:00,2021-06-09 00:00:00,2021-06-09 22:53:00
9.0,21:53,Calm,10.0,Mostly Cloudy,FEW040 BKN110,74.0,70.0,,,88.0,,,30.02,1015.9,0.01,0.01,,3.0,2021-06-12 00:00:00,2021-06-09 00:00:00,2021-06-09 21:53:00
9.0,20:53,SW 6,10.0,Light Rain,FEW035 BKN120 BKN250,75.0,70.0,,,84.0,,,30.0,1015.1,,,,3.0,2021-06-12 00:00:00,2021-06-09 00:00:00,2021-06-09 20:53:00
9.0,19:53,S 5,10.0,Mostly Cloudy,SCT033 BKN045TCU BKN150 BKN250,76.0,72.0,,,88.0,,76.0,30.01,1015.4,,,,3.0,2021-06-12 00:00:00,2021-06-09 00:00:00,2021-06-09 19:53:00
9.0,18:53,S 3,10.0,Mostly Cloudy,FEW015 BKN075 BKN100 BKN250,76.0,72.0,81.0,76.0,88.0,,76.0,30.0,1015.1,,,0.17,3.0,2021-06-12 00:00:00,2021-06-09 00:00:00,2021-06-09 18:53:00
9.0,17:53,S 6,10.0,Overcast,SCT011 BKN022 OVC065,76.0,72.0,,,88.0,,76.0,29.99,1014.9,0.07,,,3.0,2021-06-12 00:00:00,2021-06-09 00:00:00,2021-06-09 17:53:00
9.0,16:53,W 3,1.75,Light Rain Fog/Mist,BKN027 BKN034 OVC046,76.0,72.0,,,88.0,,76.0,30.01,1015.5,0.08,,,3.0,2021-06-12 00:00:00,2021-06-09 00:00:00,2021-06-09 16:53:00
9.0,15:53,SW 6,10.0,Overcast,BKN023 BKN041 BKN050 OVC250,79.0,70.0,,,74.0,,82.0,30.01,1015.4,,0.02,,3.0,2021-06-12 00:00:00,2021-06-09 00:00:00,2021-06-09 15:53:00
9.0,14:53,S 9,10.0,Mostly Cloudy,FEW020 BKN033 BKN043 BKN250,80.0,71.0,,,74.0,,83.0,30.03,1016.2,0.02,,,3.0,2021-06-12 00:00:00,2021-06-09 00:00:00,2021-06-09 14:53:00
9.0,13:53,S 8,10.0,Mostly Cloudy,SCT014 BKN020 BKN028,80.0,70.0,,,71.0,,83.0,30.05,1016.9,,,,3.0,2021-06-12 00:00:00,2021-06-09 00:00:00,2021-06-09 13:53:00
9.0,12:53,Vrbl 6,10.0,Overcast,BKN013 BKN021 BKN090 OVC200,77.0,71.0,77.0,72.0,82.0,,79.0,30.07,1017.4,,,0.14,3.0,2021-06-12 00:00:00,2021-06-09 00:00:00,2021-06-09 12:53:00
9.0,11:53,SW 6,10.0,Overcast,SCT013 BKN016 OVC024,75.0,71.0,,,88.0,,,30.09,1018.3,0.14,,,3.0,2021-06-12 00:00:00,2021-06-09 00:00:00,2021-06-09 11:53:00
9.0,10:53,SW 8,6.0,Overcast with Haze,OVC015,75.0,69.0,,,82.0,,,30.09,1018.4,,,,3.0,2021-06-12 00:00:00,2021-06-09 00:00:00,2021-06-09 10:53:00
9.0,09:53,SW 8,10.0,Overcast,OVC016,76.0,68.0,,,77.0,,77.0,30.09,1018.1,,,,3.0,2021-06-12 00:00:00,2021-06-09 00:00:00,2021-06-09 09:53:00
9.0,08:53,S 7,10.0,Overcast,BKN013 OVC018,75.0,69.0,,,82.0,,,30.07,1017.6,,,,3.0,2021-06-12 00:00:00,2021-06-09 00:00:00,2021-06-09 08:53:00
9.0,07:53,S 7,10.0,Overcast,SCT010 BKN015 OVC020,73.0,69.0,,,87.0,,,30.08,1017.9,,,,3.0,2021-06-12 00:00:00,2021-06-09 00:00:00,2021-06-09 07:53:00
9.0,06:53,S 5,10.0,Overcast,OVC009,72.0,68.0,72.0,71.0,87.0,,,30.07,1017.6,,,0.01,3.0,2021-06-12 00:00:00,2021-06-09 00:00:00,2021-06-09 06:53:00
9.0,05:53,S 6,10.0,Mostly Cloudy,SCT011 BKN017 BKN045,71.0,67.0,,,87.0,,,30.06,1017.1,,,,2.0,2021-06-11 00:00:00,2021-06-09 00:00:00,2021-06-09 05:53:00
9.0,04:53,S 7,10.0,Overcast,BKN008 OVC012,71.0,67.0,,,87.0,,,30.04,1016.6,0.01,,,2.0,2021-06-11 00:00:00,2021-06-09 00:00:00,2021-06-09 04:53:00
9.0,03:53,S 8,10.0,Light Rain,SCT012 BKN017 OVC042,72.0,66.0,,,82.0,,,30.05,1016.8,,,,2.0,2021-06-11 00:00:00,2021-06-09 00:00:00,2021-06-09 03:53:00
9.0,02:53,S 9,10.0,Overcast,BKN037 OVC060,72.0,65.0,,,79.0,,,30.05,1016.9,,,,2.0,2021-06-11 00:00:00,2021-06-09 00:00:00,2021-06-09 02:53:00
9.0,01:53,S 8,10.0,Mostly Cloudy,BKN060,72.0,66.0,,,82.0,,,30.05,1017.0,,,,2.0,2021-06-11 00:00:00,2021-06-09 00:00:00,2021-06-09 01:53:00
9.0,00:53,S 8,10.0,Mostly Cloudy,BKN070 BKN120,72.0,66.0,75.0,71.0,82.0,,,30.06,1017.1,,,0.02,2.0,2021-06-11 00:00:00,2021-06-09 00:00:00,2021-06-09 00:53:00
8.0,23:53,S 7,10.0,Mostly Cloudy,BKN120,72.0,66.0,,,82.0,,,30.05,1016.7,,,,3.0,2021-06-11 00:00:00,2021-06-08 00:00:00,2021-06-08 23:53:00
8.0,22:53,S 10,10.0,Overcast,SCT060 OVC080,72.0,66.0,,,82.0,,,30.06,1017.2,,,,3.0,2021-06-11 00:00:00,2021-06-08 00:00:00,2021-06-08 22:53:00
8.0,21:53,S 9,10.0,Overcast,BKN070 OVC100,71.0,66.0,,,84.0,,,30.07,1017.7,,0.02,,3.0,2021-06-11 00:00:00,2021-06-08 00:00:00,2021-06-08 21:53:00
8.0,20:53,S 7,10.0,Mostly Cloudy,BKN080 BKN120 BKN250,72.0,67.0,,,84.0,,,30.05,1017.0,,,,3.0,2021-06-11 00:00:00,2021-06-08 00:00:00,2021-06-08 20:53:00
8.0,19:53,S 10,10.0,Mostly Cloudy,FEW050 BKN100 BKN150 BKN250,72.0,68.0,,,87.0,,,30.04,1016.6,0.02,,,3.0,2021-06-11 00:00:00,2021-06-08 00:00:00,2021-06-08 19:53:00
8.0,18:53,S 22 G 30,10.0,Thunderstorm and Breezy,SCT034CB BKN080 BKN110 BKN250,76.0,67.0,85.0,76.0,74.0,,77.0,30.05,1016.7,,,,3.0,2021-06-11 00:00:00,2021-06-08 00:00:00,2021-06-08 18:53:00
8.0,17:53,S 8,10.0,Mostly Cloudy,SCT045TCU SCT110 BKN150 BKN250,82.0,68.0,,,63.0,,85.0,30.04,1016.5,,,,3.0,2021-06-11 00:00:00,2021-06-08 00:00:00,2021-06-08 17:53:00
8.0,16:53,S 12,10.0,Mostly Cloudy,SCT035 SCT150 BKN250,83.0,68.0,,,61.0,,86.0,30.05,1016.9,,,,3.0,2021-06-11 00:00:00,2021-06-08 00:00:00,2021-06-08 16:53:00
8.0,15:53,S 12,10.0,Mostly Cloudy,SCT035 SCT150 BKN250,84.0,67.0,,,57.0,,87.0,30.06,1017.1,,,,3.0,2021-06-11 00:00:00,2021-06-08 00:00:00,2021-06-08 15:53:00
8.0,14:53,S 13,10.0,Mostly Cloudy,BKN035 BKN042 BKN250,82.0,67.0,,,60.0,,84.0,30.09,1018.3,,,,3.0,2021-06-11 00:00:00,2021-06-08 00:00:00,2021-06-08 14:53:00
8.0,13:53,S 9 G 20,10.0,Overcast,SCT032 SCT150 BKN200 OVC250,83.0,68.0,,,61.0,,86.0,30.11,1019.0,,,,3.0,2021-06-11 00:00:00,2021-06-08 00:00:00,2021-06-08 13:53:00
8.0,12:53,SW 8 G 17,10.0,Overcast,FEW040 BKN110 BKN160 OVC200,79.0,65.0,82.0,75.0,62.0,,81.0,30.13,1019.7,,,,3.0,2021-06-11 00:00:00,2021-06-08 00:00:00,2021-06-08 12:53:00
8.0,11:53,S 13,10.0,Overcast,SCT030 BKN090 BKN130 OVC200,81.0,67.0,,,62.0,,83.0,30.13,1019.6,,,,3.0,2021-06-11 00:00:00,2021-06-08 00:00:00,2021-06-08 11:53:00
8.0,10:53,S 9,10.0,Mostly Cloudy,FEW027 SCT100 BKN140 BKN250,81.0,67.0,,,62.0,,83.0,30.12,1019.4,,,,3.0,2021-06-11 00:00:00,2021-06-08 00:00:00,2021-06-08 10:53:00
8.0,09:53,S 12,10.0,Mostly Cloudy,BKN024 BKN250,76.0,65.0,,,69.0,,78.0,30.12,1019.1,,,,3.0,2021-06-11 00:00:00,2021-06-08 00:00:00,2021-06-08 09:53:00
8.0,08:53,S 10,10.0,Mostly Cloudy,BKN020 BKN140 BKN210,77.0,67.0,,,71.0,,79.0,30.11,1018.8,,,,3.0,2021-06-11 00:00:00,2021-06-08 00:00:00,2021-06-08 08:53:00
8.0,07:53,SE 12,10.0,Mostly Cloudy,FEW060 BKN140 BKN180 BKN210,75.0,66.0,,,74.0,,,30.07,1017.5,,,,3.0,2021-06-11 00:00:00,2021-06-08 00:00:00,2021-06-08 07:53:00
8.0,06:53,S 7,10.0,Mostly Cloudy,FEW080 BKN140 BKN200,75.0,67.0,75.0,72.0,76.0,,,30.06,1017.2,,,,3.0,2021-06-11 00:00:00,2021-06-08 00:00:00,2021-06-08 06:53:00
8.0,05:53,S 10 G 21,10.0,Mostly Cloudy,SCT090 BKN120,74.0,67.0,,,79.0,,,30.09,1018.1,,,,2.0,2021-06-10 00:00:00,2021-06-08 00:00:00,2021-06-08 05:53:00
8.0,04:53,S 9,10.0,Partly Cloudy,SCT090,72.0,67.0,,,84.0,,,30.07,1017.5,,,,2.0,2021-06-10 00:00:00,2021-06-08 00:00:00,2021-06-08 04:53:00
8.0,03:53,S 9,10.0,A Few Clouds,FEW090,73.0,67.0,,,81.0,,,30.05,1016.8,,,,2.0,2021-06-10 00:00:00,2021-06-08 00:00:00,2021-06-08 03:53:00
8.0,02:53,S 5,10.0,A Few Clouds,FEW095,72.0,68.0,,,87.0,,,30.05,1016.8,,,,2.0,2021-06-10 00:00:00,2021-06-08 00:00:00,2021-06-08 02:53:00
8.0,01:53,SE 6,10.0,A Few Clouds,FEW095,73.0,68.0,,,84.0,,,30.05,1016.9,,,,2.0,2021-06-10 00:00:00,2021-06-08 00:00:00,2021-06-08 01:53:00
8.0,00:53,Calm,10.0,A Few Clouds,FEW095,74.0,68.0,83.0,73.0,82.0,,,30.06,1017.4,,,,2.0,2021-06-10 00:00:00,2021-06-08 00:00:00,2021-06-08 00:53:00
7.0,23:53,S 5,10.0,Partly Cloudy,SCT090 SCT120,74.0,68.0,,,82.0,,,30.06,1017.1,,,,3.0,2021-06-10 00:00:00,2021-06-07 00:00:00,2021-06-07 23:53:00
7.0,22:53,S 3,10.0,Mostly Cloudy,SCT090 BKN120,75.0,68.0,,,79.0,,,30.07,1017.5,,,,3.0,2021-06-10 00:00:00,2021-06-07 00:00:00,2021-06-07 22:53:00
7.0,21:53,S 3,10.0,Mostly Cloudy,FEW041 SCT110 BKN140,76.0,68.0,,,77.0,,77.0,30.07,1017.5,,,,3.0,2021-06-10 00:00:00,2021-06-07 00:00:00,2021-06-07 21:53:00
7.0,20:53,SW 3,10.0,Partly Cloudy,FEW040 SCT080 SCT200,79.0,67.0,,,67.0,,81.0,30.04,1016.5,,,,3.0,2021-06-10 00:00:00,2021-06-07 00:00:00,2021-06-07 20:53:00
7.0,19:53,S 6,10.0,Partly Cloudy,FEW039 SCT060 SCT080 SCT200,80.0,68.0,,,67.0,,83.0,29.99,1015.0,,,,3.0,2021-06-10 00:00:00,2021-06-07 00:00:00,2021-06-07 19:53:00
7.0,18:53,SW 5,10.0,Partly Cloudy,FEW036CB SCT100 SCT140,83.0,67.0,85.0,78.0,59.0,,86.0,29.99,1014.9,,,,3.0,2021-06-10 00:00:00,2021-06-07 00:00:00,2021-06-07 18:53:00
7.0,17:53,S 8,10.0,Partly Cloudy,SCT036TCU SCT050,83.0,67.0,,,59.0,,86.0,29.99,1014.9,,,,3.0,2021-06-10 00:00:00,2021-06-07 00:00:00,2021-06-07 17:53:00
7.0,16:53,SW 10,10.0,Partly Cloudy,SCT038 SCT050,84.0,67.0,,,57.0,,87.0,29.99,1014.9,,,,3.0,2021-06-10 00:00:00,2021-06-07 00:00:00,2021-06-07 16:53:00
7.0,15:53,S 10,10.0,Mostly Cloudy,BKN034 BKN050,84.0,67.0,,,57.0,,87.0,30.01,1015.5,,,,3.0,2021-06-10 00:00:00,2021-06-07 00:00:00,2021-06-07 15:53:00
7.0,14:53,S 10,10.0,Mostly Cloudy,FEW026 BKN034 BKN055,83.0,67.0,,,59.0,,86.0,30.02,1015.9,,,,3.0,2021-06-10 00:00:00,2021-06-07 00:00:00,2021-06-07 14:53:00
7.0,13:53,S 13 G 20,10.0,Overcast,SCT027 BKN034 OVC050,79.0,66.0,,,65.0,,81.0,30.05,1016.9,,,,3.0,2021-06-10 00:00:00,2021-06-07 00:00:00,2021-06-07 13:53:00
7.0,12:53,S 12 G 21,10.0,Overcast,BKN024 BKN040 OVC047,78.0,67.0,79.0,72.0,69.0,,80.0,30.07,1017.4,,,,3.0,2021-06-10 00:00:00,2021-06-07 00:00:00,2021-06-07 12:53:00
7.0,11:53,S 16,10.0,Overcast,BKN026 OVC034,78.0,66.0,,,67.0,,80.0,30.06,1017.4,,,,3.0,2021-06-10 00:00:00,2021-06-07 00:00:00,2021-06-07 11:53:00
7.0,10:53,S 9,10.0,Overcast,BKN027 BKN038 OVC045,78.0,66.0,,,67.0,,80.0,30.06,1017.2,,,,3.0,2021-06-10 00:00:00,2021-06-07 00:00:00,2021-06-07 10:53:00
7.0,09:53,S 8,10.0,Overcast,BKN024 BKN030 BKN045 OVC250,78.0,67.0,,,69.0,,80.0,30.07,1017.6,,,,3.0,2021-06-10 00:00:00,2021-06-07 00:00:00,2021-06-07 09:53:00
7.0,08:53,S 10 G 18,10.0,Mostly Cloudy,BKN019 BKN024 BKN060 BKN250,76.0,67.0,,,74.0,,77.0,30.06,1017.4,,,,3.0,2021-06-10 00:00:00,2021-06-07 00:00:00,2021-06-07 08:53:00
7.0,07:53,S 10,10.0,Mostly Cloudy,SCT027 SCT070 BKN250,74.0,68.0,,,82.0,,,30.06,1017.3,,,,3.0,2021-06-10 00:00:00,2021-06-07 00:00:00,2021-06-07 07:53:00
7.0,06:53,S 6,9.0,Light Rain,BKN070 BKN200 OVC250,72.0,67.0,72.0,70.0,84.0,,,30.04,1016.5,,,,3.0,2021-06-10 00:00:00,2021-06-07 00:00:00,2021-06-07 06:53:00
7.0,05:53,S 6,10.0,Mostly Cloudy,BKN065 BKN090 BKN120,71.0,67.0,,,87.0,,,30.02,1016.0,,,,2.0,2021-06-09 00:00:00,2021-06-07 00:00:00,2021-06-07 05:53:00
7.0,04:53,S 5,10.0,Overcast,BKN060 OVC075,71.0,67.0,,,87.0,,,30.02,1015.8,,,,2.0,2021-06-09 00:00:00,2021-06-07 00:00:00,2021-06-07 04:53:00
7.0,03:53,SE 3,10.0,Overcast,BKN060 BKN075 OVC090,71.0,67.0,,,87.0,,,30.0,1015.5,,,,2.0,2021-06-09 00:00:00,2021-06-07 00:00:00,2021-06-07 03:53:00
7.0,02:53,S 3,10.0,Mostly Cloudy,FEW040 SCT090 BKN120,70.0,66.0,,,87.0,,,30.0,1015.2,,,,2.0,2021-06-09 00:00:00,2021-06-07 00:00:00,2021-06-07 02:53:00
7.0,01:53,S 5,10.0,Mostly Cloudy,FEW028 SCT038 BKN046,71.0,67.0,,,87.0,,,30.0,1015.4,,,,2.0,2021-06-09 00:00:00,2021-06-07 00:00:00,2021-06-07 01:53:00
7.0,00:53,Calm,10.0,Mostly Cloudy,FEW036 FEW090 BKN120,72.0,66.0,76.0,72.0,82.0,,,30.01,1015.5,,,,2.0,2021-06-09 00:00:00,2021-06-07 00:00:00,2021-06-07 00:53:00
6.0,23:53,Calm,10.0,Overcast,SCT035 BKN050 OVC110,73.0,66.0,,,79.0,,,30.02,1015.9,,,,3.0,2021-06-09 00:00:00,2021-06-06 00:00:00,2021-06-06 23:53:00
6.0,22:53,Calm,10.0,Mostly Cloudy,FEW033 BKN110,73.0,65.0,,,76.0,,,30.01,1015.4,,,,3.0,2021-06-09 00:00:00,2021-06-06 00:00:00,2021-06-06 22:53:00
6.0,21:53,NE 5,10.0,Mostly Cloudy,BKN200,74.0,65.0,,,74.0,,,29.99,1015.0,,,,3.0,2021-06-09 00:00:00,2021-06-06 00:00:00,2021-06-06 21:53:00
6.0,20:53,E 7,10.0,Mostly Cloudy,BKN200,74.0,65.0,,,74.0,,,29.97,1014.3,,,,3.0,2021-06-09 00:00:00,2021-06-06 00:00:00,2021-06-06 20:53:00
6.0,19:53,E 6,10.0,Mostly Cloudy,BKN110 BKN200,75.0,64.0,,,69.0,,,29.97,1014.3,,,,3.0,2021-06-09 00:00:00,2021-06-06 00:00:00,2021-06-06 19:53:00
6.0,18:53,SE 14 G 20,10.0,Mostly Cloudy,BKN110 BKN200,76.0,65.0,77.0,74.0,69.0,,78.0,29.99,1014.7,,,,3.0,2021-06-09 00:00:00,2021-06-06 00:00:00,2021-06-06 18:53:00
6.0,17:53,S 9,10.0,Mostly Cloudy,FEW036 BKN110 BKN200,76.0,67.0,,,74.0,,77.0,30.0,1015.0,,,,3.0,2021-06-09 00:00:00,2021-06-06 00:00:00,2021-06-06 17:53:00
6.0,16:53,S 12,10.0,Mostly Cloudy,FEW015 BKN022 BKN036,76.0,68.0,,,77.0,,77.0,30.02,1016.0,,,,3.0,2021-06-09 00:00:00,2021-06-06 00:00:00,2021-06-06 16:53:00
6.0,15:53,S 8,10.0,Overcast,BKN014 BKN027 OVC034,75.0,69.0,,,82.0,,,30.04,1016.5,,,,3.0,2021-06-09 00:00:00,2021-06-06 00:00:00,2021-06-06 15:53:00
6.0,14:53,S 12,10.0,Light Rain,FEW017 BKN022 OVC048,74.0,68.0,,,82.0,,,30.04,1016.8,,,,3.0,2021-06-09 00:00:00,2021-06-06 00:00:00,2021-06-06 14:53:00
6.0,13:53,S 9 G 18,10.0,Light Rain,SCT014 BKN050 OVC075,75.0,69.0,,,82.0,,,30.06,1017.2,,,,3.0,2021-06-09 00:00:00,2021-06-06 00:00:00,2021-06-06 13:53:00
6.0,12:53,S 14,9.0,Light Rain,BKN018 BKN032 BKN100 OVC250,76.0,68.0,81.0,72.0,77.0,,77.0,30.07,1017.6,,,,3.0,2021-06-09 00:00:00,2021-06-06 00:00:00,2021-06-06 12:53:00
6.0,11:53,S 15,10.0,Overcast,FEW021 SCT050 BKN090 OVC250,77.0,65.0,,,66.0,,79.0,30.07,1017.7,,,,3.0,2021-06-09 00:00:00,2021-06-06 00:00:00,2021-06-06 11:53:00
6.0,10:53,SW 13 G 23,10.0,Mostly Cloudy,SCT023 BKN045 BKN095 BKN150,80.0,67.0,,,64.0,,82.0,30.08,1017.8,,,,3.0,2021-06-09 00:00:00,2021-06-06 00:00:00,2021-06-06 10:53:00
6.0,09:53,S 9,10.0,Mostly Cloudy,SCT015 BKN031 BKN055 BKN130,78.0,69.0,,,74.0,,80.0,30.07,1017.6,,,,3.0,2021-06-09 00:00:00,2021-06-06 00:00:00,2021-06-06 09:53:00
6.0,08:53,S 8,10.0,Mostly Cloudy,FEW025 SCT060 BKN080 BKN160,76.0,69.0,,,79.0,,77.0,30.08,1017.7,,,,3.0,2021-06-09 00:00:00,2021-06-06 00:00:00,2021-06-06 08:53:00
6.0,07:53,SE 5,10.0,Mostly Cloudy,SCT090 BKN120,74.0,68.0,,,82.0,,,30.07,1017.4,,,,3.0,2021-06-09 00:00:00,2021-06-06 00:00:00,2021-06-06 07:53:00
6.0,06:53,S 5,10.0,Mostly Cloudy,BKN080 BKN095,72.0,67.0,73.0,71.0,84.0,,,30.06,1017.1,,,,3.0,2021-06-09 00:00:00,2021-06-06 00:00:00,2021-06-06 06:53:00
6.0,05:53,SE 6,10.0,Mostly Cloudy,BKN090 BKN120,72.0,67.0,,,84.0,,,30.05,1016.6,,,,3.0,2021-06-09 00:00:00,2021-06-06 00:00:00,2021-06-06 05:53:00
6.0,04:53,SE 3,10.0,Overcast,BKN075 OVC100,71.0,67.0,,,87.0,,,30.03,1016.3,,,,2.0,2021-06-08 00:00:00,2021-06-06 00:00:00,2021-06-06 04:53:00
6.0,03:53,S 6,10.0,Overcast,OVC085,72.0,67.0,,,84.0,,,30.04,1016.5,,,,2.0,2021-06-08 00:00:00,2021-06-06 00:00:00,2021-06-06 03:53:00
6.0,02:53,SE 5,10.0,Overcast,FEW070 BKN095 OVC120,72.0,68.0,,,87.0,,,30.03,1016.2,,,,2.0,2021-06-08 00:00:00,2021-06-06 00:00:00,2021-06-06 02:53:00
6.0,01:53,Calm,10.0,Light Rain,SCT080 BKN110,73.0,68.0,,,84.0,,,30.03,1016.0,,,,2.0,2021-06-08 00:00:00,2021-06-06 00:00:00,2021-06-06 01:53:00
6.0,00:53,S 3,10.0,Overcast,OVC090,73.0,68.0,83.0,73.0,84.0,,,30.04,1016.5,0.01,,0.02,2.0,2021-06-08 00:00:00,2021-06-06 00:00:00,2021-06-06 00:53:00
5.0,23:53,S 7,10.0,Light Rain,FEW090 BKN110,74.0,67.0,,,79.0,,,30.05,1016.7,0.01,,,3.0,2021-06-08 00:00:00,2021-06-05 00:00:00,2021-06-05 23:53:00
5.0,22:53,S 7,10.0,Overcast,FEW055 BKN110 OVC250,77.0,67.0,,,71.0,,79.0,30.04,1016.3,,,,3.0,2021-06-08 00:00:00,2021-06-05 00:00:00,2021-06-05 22:53:00
5.0,21:53,Calm,10.0,Mostly Cloudy,FEW090 BKN150 BKN250,79.0,66.0,,,65.0,,81.0,30.03,1016.0,,,,3.0,2021-06-08 00:00:00,2021-06-05 00:00:00,2021-06-05 21:53:00
5.0,20:53,Calm,10.0,Mostly Cloudy,SCT090 BKN160 BKN250,81.0,65.0,,,58.0,,83.0,30.01,1015.6,,,,3.0,2021-06-08 00:00:00,2021-06-05 00:00:00,2021-06-05 20:53:00
5.0,19:53,Calm,10.0,Mostly Cloudy,BKN090 BKN130 BKN250,83.0,64.0,,,53.0,,84.0,30.0,1015.4,,,,3.0,2021-06-08 00:00:00,2021-06-05 00:00:00,2021-06-05 19:53:00
5.0,18:53,S 3,10.0,Mostly Cloudy,FEW100 BKN160 BKN250,83.0,65.0,90.0,83.0,55.0,,85.0,29.99,1014.9,,,,3.0,2021-06-08 00:00:00,2021-06-05 00:00:00,2021-06-05 18:53:00
5.0,17:53,S 7,10.0,Mostly Cloudy,FEW060 BKN250,85.0,64.0,,,50.0,,86.0,29.99,1014.9,,,,3.0,2021-06-08 00:00:00,2021-06-05 00:00:00,2021-06-05 17:53:00
5.0,16:53,S 6,10.0,Mostly Cloudy,SCT065 BKN250,87.0,63.0,,,45.0,,88.0,29.99,1014.8,,,,3.0,2021-06-08 00:00:00,2021-06-05 00:00:00,2021-06-05 16:53:00
5.0,15:53,S 5,10.0,Mostly Cloudy,FEW060 BKN250,87.0,60.0,,,40.0,,87.0,29.99,1015.0,,,,3.0,2021-06-08 00:00:00,2021-06-05 00:00:00,2021-06-05 15:53:00
5.0,14:53,S 8,10.0,Mostly Cloudy,SCT075 BKN250,89.0,61.0,,,39.0,,89.0,30.01,1015.5,,,,3.0,2021-06-08 00:00:00,2021-06-05 00:00:00,2021-06-05 14:53:00
5.0,13:53,SE 6,10.0,Mostly Cloudy,SCT060 BKN250,89.0,60.0,,,38.0,,89.0,30.02,1016.0,,,,3.0,2021-06-08 00:00:00,2021-06-05 00:00:00,2021-06-05 13:53:00
5.0,12:53,SW 3,10.0,Mostly Cloudy,SCT055 BKN250,87.0,59.0,88.0,68.0,39.0,,86.0,30.04,1016.5,,,,3.0,2021-06-08 00:00:00,2021-06-05 00:00:00,2021-06-05 12:53:00
5.0,11:53,Calm,10.0,Partly Cloudy,SCT055 SCT250,85.0,60.0,,,43.0,,85.0,30.06,1017.2,,,,3.0,2021-06-08 00:00:00,2021-06-05 00:00:00,2021-06-05 11:53:00
5.0,10:53,SW 5,10.0,Partly Cloudy,FEW055 SCT250,85.0,61.0,,,45.0,,85.0,30.07,1017.4,,,,3.0,2021-06-08 00:00:00,2021-06-05 00:00:00,2021-06-05 10:53:00
5.0,09:53,Calm,10.0,A Few Clouds,FEW250,82.0,62.0,,,51.0,,83.0,30.08,1017.8,,,,3.0,2021-06-08 00:00:00,2021-06-05 00:00:00,2021-06-05 09:53:00
5.0,08:53,Calm,10.0,A Few Clouds,FEW250,77.0,62.0,,,60.0,,79.0,30.09,1018.2,,,,3.0,2021-06-08 00:00:00,2021-06-05 00:00:00,2021-06-05 08:53:00
5.0,07:53,Calm,10.0,A Few Clouds,FEW250,72.0,62.0,,,71.0,,,30.09,1018.2,,,,3.0,2021-06-08 00:00:00,2021-06-05 00:00:00,2021-06-05 07:53:00
5.0,06:53,Calm,10.0,A Few Clouds,FEW250,68.0,62.0,69.0,64.0,81.0,,,30.08,1017.9,,,,3.0,2021-06-08 00:00:00,2021-06-05 00:00:00,2021-06-05 06:53:00
5.0,05:53,Calm,10.0,Partly Cloudy,FEW100 FEW180 SCT250,64.0,60.0,,,87.0,,,30.07,1017.4,,,,3.0,2021-06-08 00:00:00,2021-06-05 00:00:00,2021-06-05 05:53:00
5.0,04:53,Calm,9.0,Fair,CLR,64.0,60.0,,,87.0,,,30.05,1017.0,,,,2.0,2021-06-07 00:00:00,2021-06-05 00:00:00,2021-06-05 04:53:00
5.0,03:53,Calm,10.0,Fair,CLR,67.0,61.0,,,81.0,,,30.04,1016.5,,,,2.0,2021-06-07 00:00:00,2021-06-05 00:00:00,2021-06-05 03:53:00
5.0,02:53,Calm,10.0,A Few Clouds,FEW250,66.0,61.0,,,84.0,,,30.04,1016.4,,,,2.0,2021-06-07 00:00:00,2021-06-05 00:00:00,2021-06-05 02:53:00
5.0,01:53,Calm,10.0,A Few Clouds,FEW250,68.0,61.0,,,78.0,,,30.05,1016.9,,,,2.0,2021-06-07 00:00:00,2021-06-05 00:00:00,2021-06-05 01:53:00
5.0,00:53,Calm,10.0,A Few Clouds,FEW250,69.0,61.0,81.0,68.0,76.0,,,30.06,1017.2,,,,2.0,2021-06-07 00:00:00,2021-06-05 00:00:00,2021-06-05 00:53:00
4.0,23:53,Calm,10.0,A Few Clouds,FEW250,71.0,61.0,,,71.0,,,30.07,1017.4,,,,3.0,2021-06-07 00:00:00,2021-06-04 00:00:00,2021-06-04 23:53:00
4.0,22:53,Calm,10.0,A Few Clouds,FEW250,71.0,61.0,,,71.0,,,30.06,1017.4,,,,3.0,2021-06-07 00:00:00,2021-06-04 00:00:00,2021-06-04 22:53:00
4.0,21:53,Calm,10.0,A Few Clouds,FEW250,74.0,60.0,,,62.0,,,30.05,1017.1,,,,3.0,2021-06-07 00:00:00,2021-06-04 00:00:00,2021-06-04 21:53:00
4.0,20:53,E 5,10.0,Partly Cloudy,SCT250,76.0,60.0,,,58.0,,78.0,30.04,1016.6,,,,3.0,2021-06-07 00:00:00,2021-06-04 00:00:00,2021-06-04 20:53:00
4.0,19:53,E 5,10.0,Partly Cloudy,FEW090 SCT250,79.0,58.0,,,49.0,,80.0,30.03,1016.2,,,,3.0,2021-06-07 00:00:00,2021-06-04 00:00:00,2021-06-04 19:53:00
4.0,18:53,E 5,10.0,Mostly Cloudy,FEW050 BKN120 BKN250,81.0,56.0,85.0,81.0,42.0,,81.0,30.03,1016.2,,,,3.0,2021-06-07 00:00:00,2021-06-04 00:00:00,2021-06-04 18:53:00
4.0,17:53,E 6,10.0,Mostly Cloudy,SCT050 BKN250,83.0,56.0,,,40.0,,82.0,30.03,1016.3,,,,3.0,2021-06-07 00:00:00,2021-06-04 00:00:00,2021-06-04 17:53:00
4.0,16:53,E 5,10.0,Mostly Cloudy,SCT055 BKN250,85.0,57.0,,,39.0,,84.0,30.04,1016.5,,,,3.0,2021-06-07 00:00:00,2021-06-04 00:00:00,2021-06-04 16:53:00
4.0,15:53,Calm,10.0,Mostly Cloudy,SCT050 BKN250,84.0,55.0,,,37.0,,83.0,30.04,1016.7,,,,3.0,2021-06-07 00:00:00,2021-06-04 00:00:00,2021-06-04 15:53:00
4.0,14:53,E 6,10.0,Mostly Cloudy,SCT060 BKN250,84.0,56.0,,,38.0,,83.0,30.05,1017.0,,,,3.0,2021-06-07 00:00:00,2021-06-04 00:00:00,2021-06-04 14:53:00
4.0,13:53,NE 6,10.0,Mostly Cloudy,SCT055 BKN250,85.0,56.0,,,37.0,,84.0,30.07,1017.4,,,,3.0,2021-06-07 00:00:00,2021-06-04 00:00:00,2021-06-04 13:53:00
4.0,12:53,NE 7,10.0,Mostly Cloudy,FEW055 BKN250,83.0,55.0,83.0,64.0,38.0,,82.0,30.09,1018.1,,,,3.0,2021-06-07 00:00:00,2021-06-04 00:00:00,2021-06-04 12:53:00
4.0,11:53,E 7,10.0,Mostly Cloudy,FEW047 BKN250,80.0,56.0,,,44.0,,80.0,30.09,1018.5,,,,3.0,2021-06-07 00:00:00,2021-06-04 00:00:00,2021-06-04 11:53:00
4.0,10:53,SE 5,10.0,Mostly Cloudy,FEW043 BKN250,78.0,58.0,,,50.0,,79.0,30.11,1018.8,,,,3.0,2021-06-07 00:00:00,2021-06-04 00:00:00,2021-06-04 10:53:00
4.0,09:53,SE 8,10.0,Mostly Cloudy,FEW038 BKN250,75.0,63.0,,,66.0,,,30.11,1019.1,,,,3.0,2021-06-07 00:00:00,2021-06-04 00:00:00,2021-06-04 09:53:00
4.0,08:53,E 3,10.0,Partly Cloudy,SCT250,73.0,64.0,,,74.0,,,30.11,1019.0,,,,3.0,2021-06-07 00:00:00,2021-06-04 00:00:00,2021-06-04 08:53:00
4.0,07:53,Calm,6.0,Patches Fog Fog/Mist,FEW002 SCT250,70.0,63.0,,,79.0,,,30.09,1018.5,,,,3.0,2021-06-07 00:00:00,2021-06-04 00:00:00,2021-06-04 07:53:00
4.0,06:53,Calm,0.13,Fog Fog/Mist,VV002,63.0,60.0,66.0,60.0,90.0,,,30.08,1018.0,,,,3.0,2021-06-07 00:00:00,2021-06-04 00:00:00,2021-06-04 06:53:00
4.0,05:53,Calm,10.0,A Few Clouds,FEW006 FEW250,62.0,59.0,,,90.0,,,30.06,1017.3,,,,3.0,2021-06-07 00:00:00,2021-06-04 00:00:00,2021-06-04 05:53:00
4.0,04:53,S 5,8.0,Fair,CLR,61.0,57.0,,,87.0,,,30.05,1017.0,,,,2.0,2021-06-06 00:00:00,2021-06-04 00:00:00,2021-06-04 04:53:00
4.0,03:53,Calm,9.0,Fair,CLR,62.0,59.0,,,90.0,,,30.04,1016.6,,,,2.0,2021-06-06 00:00:00,2021-06-04 00:00:00,2021-06-04 03:53:00
4.0,02:53,Calm,10.0,Fair,CLR,63.0,59.0,,,87.0,,,30.04,1016.5,,,,2.0,2021-06-06 00:00:00,2021-06-04 00:00:00,2021-06-04 02:53:00
4.0,01:53,Calm,10.0,Fair,CLR,65.0,60.0,,,84.0,,,30.04,1016.5,,,,2.0,2021-06-06 00:00:00,2021-06-04 00:00:00,2021-06-04 01:53:00
4.0,00:53,Calm,10.0,Fair,CLR,65.0,60.0,79.0,64.0,84.0,,,30.03,1016.6,,,,2.0,2021-06-06 00:00:00,2021-06-04 00:00:00,2021-06-04 00:53:00
3.0,23:53,SW 3,10.0,A Few Clouds,FEW250,66.0,60.0,,,81.0,,,30.03,1016.3,,,,3.0,2021-06-06 00:00:00,2021-06-03 00:00:00,2021-06-03 23:53:00
3.0,22:53,S 3,10.0,A Few Clouds,FEW130,69.0,60.0,,,73.0,,,30.03,1016.2,,,,3.0,2021-06-06 00:00:00,2021-06-03 00:00:00,2021-06-03 22:53:00
3.0,21:53,Calm,10.0,Partly Cloudy,SCT120,70.0,60.0,,,71.0,,,30.02,1015.9,,,,3.0,2021-06-06 00:00:00,2021-06-03 00:00:00,2021-06-03 21:53:00
3.0,20:53,W 5,10.0,Partly Cloudy,SCT120,72.0,59.0,,,64.0,,,30.0,1015.3,,,,3.0,2021-06-06 00:00:00,2021-06-03 00:00:00,2021-06-03 20:53:00
3.0,19:53,W 5,10.0,Partly Cloudy,SCT120 SCT250,75.0,58.0,,,55.0,,,29.97,1014.4,,,,3.0,2021-06-06 00:00:00,2021-06-03 00:00:00,2021-06-03 19:53:00
3.0,18:53,NW 9,10.0,Mostly Cloudy,BKN080 BKN120 BKN250,79.0,58.0,83.0,73.0,49.0,,80.0,29.96,1013.8,,,,3.0,2021-06-06 00:00:00,2021-06-03 00:00:00,2021-06-03 18:53:00
3.0,17:53,N 12 G 17,10.0,Partly Cloudy,FEW050 SCT070 SCT250,80.0,58.0,,,47.0,,81.0,29.95,1013.4,,,,3.0,2021-06-06 00:00:00,2021-06-03 00:00:00,2021-06-03 17:53:00
3.0,16:53,NW 10 G 20,10.0,Mostly Cloudy,FEW045 SCT060 BKN250,82.0,61.0,,,49.0,,83.0,29.94,1013.0,,,,3.0,2021-06-06 00:00:00,2021-06-03 00:00:00,2021-06-03 16:53:00
3.0,15:53,W 9,10.0,Mostly Cloudy,FEW044 SCT060 BKN200,81.0,61.0,,,51.0,,82.0,29.94,1013.1,,,,3.0,2021-06-06 00:00:00,2021-06-03 00:00:00,2021-06-03 15:53:00
3.0,14:53,W 12,10.0,Mostly Cloudy,SCT041TCU BKN060,79.0,61.0,,,54.0,,80.0,29.94,1013.1,,,,3.0,2021-06-06 00:00:00,2021-06-03 00:00:00,2021-06-03 14:53:00
3.0,13:53,SW 9,10.0,Partly Cloudy,FEW037TCU SCT047 SCT060,79.0,64.0,,,60.0,,81.0,29.95,1013.6,,,,3.0,2021-06-06 00:00:00,2021-06-03 00:00:00,2021-06-03 13:53:00
3.0,12:53,SW 6 G 17,7.0,Light Rain,SCT046 SCT060 BKN075,73.0,65.0,80.0,68.0,76.0,,,29.97,1014.1,0.07,,0.07,3.0,2021-06-06 00:00:00,2021-06-03 00:00:00,2021-06-03 12:53:00
3.0,11:53,S 9 G 17,10.0,Mostly Cloudy,SCT027 BKN045 BKN130 BKN200,78.0,64.0,,,62.0,,80.0,29.96,1014.0,,,,3.0,2021-06-06 00:00:00,2021-06-03 00:00:00,2021-06-03 11:53:00
3.0,10:53,S 12,10.0,Mostly Cloudy,SCT021 BKN030 BKN040 BKN250,76.0,65.0,,,69.0,,78.0,29.97,1014.4,,,,3.0,2021-06-06 00:00:00,2021-06-03 00:00:00,2021-06-03 10:53:00
3.0,09:53,S 9,10.0,Overcast,BKN017 OVC024,73.0,64.0,,,74.0,,,29.97,1014.4,,,,3.0,2021-06-06 00:00:00,2021-06-03 00:00:00,2021-06-03 09:53:00
3.0,08:53,S 8,10.0,Overcast,OVC012,71.0,64.0,,,79.0,,,29.98,1014.6,,,,3.0,2021-06-06 00:00:00,2021-06-03 00:00:00,2021-06-03 08:53:00
3.0,07:53,S 7,10.0,Overcast,OVC010,69.0,64.0,,,84.0,,,29.97,1014.2,,,,3.0,2021-06-06 00:00:00,2021-06-03 00:00:00,2021-06-03 07:53:00
3.0,06:53,S 7,10.0,Overcast,FEW018 SCT023 BKN120 OVC250,68.0,63.0,68.0,66.0,84.0,,,29.96,1013.8,,,,3.0,2021-06-06 00:00:00,2021-06-03 00:00:00,2021-06-03 06:53:00
3.0,05:53,S 9,10.0,Mostly Cloudy,FEW023 BKN110 BKN250,67.0,63.0,,,87.0,,,29.94,1013.3,,,,3.0,2021-06-06 00:00:00,2021-06-03 00:00:00,2021-06-03 05:53:00
3.0,04:53,S 3,10.0,Mostly Cloudy,BKN022,67.0,63.0,,,87.0,,,29.94,1013.3,,,,2.0,2021-06-05 00:00:00,2021-06-03 00:00:00,2021-06-03 04:53:00
3.0,03:53,S 7,10.0,Overcast,OVC019,67.0,63.0,,,87.0,,,29.94,1013.2,,,,2.0,2021-06-05 00:00:00,2021-06-03 00:00:00,2021-06-03 03:53:00
3.0,02:53,Calm,10.0,Mostly Cloudy,BKN022 BKN100,67.0,63.0,,,87.0,,,29.94,1013.4,,,,2.0,2021-06-05 00:00:00,2021-06-03 00:00:00,2021-06-03 02:53:00
3.0,01:53,Calm,10.0,Mostly Cloudy,BKN150,66.0,62.0,,,87.0,,,29.95,1013.8,,,,2.0,2021-06-05 00:00:00,2021-06-03 00:00:00,2021-06-03 01:53:00
3.0,00:53,SE 5,10.0,Mostly Cloudy,FEW019 SCT025 BKN049,67.0,62.0,73.0,67.0,84.0,,,29.96,1013.9,,,,2.0,2021-06-05 00:00:00,2021-06-03 00:00:00,2021-06-03 00:53:00
2.0,23:53,SW 5,10.0,Overcast,BKN017 OVC024,68.0,62.0,,,81.0,,,29.99,1014.9,,,,3.0,2021-06-05 00:00:00,2021-06-02 00:00:00,2021-06-02 23:53:00
2.0,22:53,SW 3,10.0,Mostly Cloudy,FEW060 BKN110 BKN150,68.0,62.0,,,81.0,,,29.99,1014.9,,,,3.0,2021-06-05 00:00:00,2021-06-02 00:00:00,2021-06-02 22:53:00
2.0,21:53,S 9,10.0,Mostly Cloudy,FEW020 SCT120 BKN200,68.0,62.0,,,81.0,,,29.97,1014.3,,,,3.0,2021-06-05 00:00:00,2021-06-02 00:00:00,2021-06-02 21:53:00
2.0,20:53,S 10,10.0,Mostly Cloudy,FEW020 SCT130 BKN210,69.0,64.0,,,84.0,,,29.94,1013.4,,,,3.0,2021-06-05 00:00:00,2021-06-02 00:00:00,2021-06-02 20:53:00
2.0,19:53,S 12,10.0,Partly Cloudy,FEW042 SCT140 SCT180,71.0,64.0,,,79.0,,,29.94,1013.2,,,,3.0,2021-06-05 00:00:00,2021-06-02 00:00:00,2021-06-02 19:53:00
2.0,18:53,S 8,10.0,Partly Cloudy,FEW042 SCT140 SCT200,73.0,66.0,74.0,69.0,79.0,,,29.94,1013.4,,,,3.0,2021-06-05 00:00:00,2021-06-02 00:00:00,2021-06-02 18:53:00
2.0,17:53,S 7,10.0,Mostly Cloudy,SCT032 BKN150 BKN180,72.0,66.0,,,82.0,,,29.95,1013.7,,,,3.0,2021-06-05 00:00:00,2021-06-02 00:00:00,2021-06-02 17:53:00
2.0,16:53,S 7,10.0,Mostly Cloudy,FEW043 BKN120 BKN160,71.0,65.0,,,81.0,,,29.97,1014.4,,,,3.0,2021-06-05 00:00:00,2021-06-02 00:00:00,2021-06-02 16:53:00
2.0,15:53,S 9,10.0,Mostly Cloudy,FEW007 SCT041 BKN090 BKN130,69.0,64.0,,,84.0,,,29.96,1013.9,,,,3.0,2021-06-05 00:00:00,2021-06-02 00:00:00,2021-06-02 15:53:00
2.0,14:53,S 12,10.0,Mostly Cloudy,FEW008 SCT011 BKN080 BKN130,69.0,64.0,,,84.0,,,29.99,1015.1,,,,3.0,2021-06-05 00:00:00,2021-06-02 00:00:00,2021-06-02 14:53:00
2.0,13:53,S 14 G 24,10.0,Mostly Cloudy,FEW014 SCT048 BKN085,69.0,63.0,,,81.0,,,29.99,1015.2,,,,3.0,2021-06-05 00:00:00,2021-06-02 00:00:00,2021-06-02 13:53:00
2.0,12:53,S 12 G 22,10.0,Overcast,BKN017 OVC025,69.0,64.0,69.0,65.0,84.0,,,30.0,1015.5,,,0.55,3.0,2021-06-05 00:00:00,2021-06-02 00:00:00,2021-06-02 12:53:00
2.0,11:53,S 14 G 23,9.0,Mostly Cloudy,SCT010 BKN040 BKN065,69.0,65.0,,,87.0,,,30.01,1015.5,0.01,,,3.0,2021-06-05 00:00:00,2021-06-02 00:00:00,2021-06-02 11:53:00
2.0,10:53,S 13,8.0,Overcast,BKN011 BKN034 OVC050,66.0,62.0,,,87.0,,,30.02,1016.1,0.07,,,3.0,2021-06-05 00:00:00,2021-06-02 00:00:00,2021-06-02 10:53:00
2.0,09:53,S 14,3.0,Light Rain Fog/Mist,BKN010 BKN016 OVC055,65.0,61.0,,,87.0,,,30.02,1016.1,0.06,0.47,,3.0,2021-06-05 00:00:00,2021-06-02 00:00:00,2021-06-02 09:53:00
2.0,08:53,S 13 G 21,6.0,Fog/Mist,BKN010 BKN016 OVC028,65.0,61.0,,,87.0,,,30.03,1016.5,0.09,,,3.0,2021-06-05 00:00:00,2021-06-02 00:00:00,2021-06-02 08:53:00
2.0,07:53,SE 14 G 25,2.5,Rain Fog/Mist,SCT010 BKN015 OVC036,65.0,61.0,,,87.0,,,30.03,1016.4,0.32,,,3.0,2021-06-05 00:00:00,2021-06-02 00:00:00,2021-06-02 07:53:00
2.0,06:53,S 13 G 22,5.0,Light Rain Fog/Mist,SCT014 BKN060 OVC095,65.0,61.0,69.0,65.0,87.0,,,30.03,1016.5,0.12,,0.62,3.0,2021-06-05 00:00:00,2021-06-02 00:00:00,2021-06-02 06:53:00
2.0,05:53,S 15,6.0,Light Rain Fog/Mist,FEW012 BKN043 OVC095,65.0,61.0,,,87.0,,,30.03,1016.4,0.13,,,2.0,2021-06-04,2021-06-02,2021-06-02 05:53:00
2.0,04:53,SE 8,8.0,Light Rain,FEW013 BKN041 OVC095,66.0,62.0,,,87.0,,,30.04,1016.6,0.18,,,2.0,2021-06-04,2021-06-02,2021-06-02 04:53:00
2.0,03:53,E 5,6.0,Rain Fog/Mist,OVC055,68.0,63.0,,,84.0,,,30.05,1017.1,0.09,0.19,,2.0,2021-06-04,2021-06-02,2021-06-02 03:53:00
2.0,02:53,NW 9,5.0,Light Rain Fog/Mist,FEW003 BKN050 OVC065,68.0,64.0,,,87.0,,,30.05,1017.0,0.03,,,2.0,2021-06-04,2021-06-02,2021-06-02 02:53:00
2.0,01:53,NE 7,7.0,Light Rain,SCT060 SCT080 OVC100,68.0,64.0,,,87.0,,,30.04,1016.5,0.07,,,2.0,2021-06-04,2021-06-02,2021-06-02 01:53:00
2.0,00:53,N 5,8.0,Light Rain,SCT055 BKN070 OVC090,69.0,64.0,74.0,69.0,84.0,,,30.05,1017.1,0.02,,0.02,2.0,2021-06-04,2021-06-02,2021-06-02 00:53:00
1.0,23:53,SE 7,10.0,Overcast,FEW060 BKN100 OVC110,71.0,62.0,,,73.0,,,30.06,1017.2,,,,3.0,2021-06-04,2021-06-01,2021-06-01 23:53:00
1.0,22:53,SE 6,10.0,Overcast,FEW095 OVC120,71.0,62.0,,,73.0,,,30.08,1017.8,,,,3.0,2021-06-04,2021-06-01,2021-06-01 22:53:00
1.0,21:53,E 8,10.0,Overcast,SCT050 OVC150,72.0,62.0,,,71.0,,,30.08,1018.1,,,,3.0,2021-06-04,2021-06-01,2021-06-01 21:53:00
1.0,20:53,E 3,10.0,Overcast,BKN050 BKN070 BKN110 OVC180,72.0,61.0,,,68.0,,,30.1,1018.6,,,,3.0,2021-06-04,2021-06-01,2021-06-01 20:53:00
